id,name,cin,city,created_at,postal_code,street,street_number,updated_at,uri
421145,Obec Halič - matričný úrad,316091,,2019-07-07T04:00:03.279Z,985 11,Mieru,66,2019-07-07T04:00:03.279Z,ico://sk/00316091_1001
421176,Štátna ochrana prírody Slovenskej republiky (OVM),17058520,Banská Bystrica,2019-07-07T04:00:03.477Z,97409,Tajovského,28B,2019-07-07T04:00:03.477Z,ico://sk/17058520_10001
421213,Notársky úrad Turzovka- JUDr. Ladislav Kupka,42388945,,2019-07-07T04:00:03.796Z,02354,Jašíkova,,2019-07-07T04:00:03.796Z,ico://sk/42388945_10001
421238,Ústredný portál verejnej správy,42156424,Trnava,2019-07-07T04:00:04.122Z,91702,Kollárova,8,2019-07-07T04:00:04.122Z,ico://sk/42156424_10001
421290,"JUDr. Mária Sporková, notár",30816947,Bratislava,2019-07-07T04:00:04.784Z,831 04,Vajnorská 1,,2019-07-07T04:00:04.784Z,ico://sk/30816947
421294,"JUDr. Magdaléna Šebeňová, notár",31948219,Prešov,2019-07-07T04:00:04.842Z,080 01,Hlavná 17,,2019-07-07T04:00:04.842Z,ico://sk/31948219
421296,"JUDr. Ján Šimov, notár",37999052,Lučenec,2019-07-07T04:00:04.851Z,984 01,Komenského 18,,2019-07-07T04:00:04.851Z,ico://sk/37999052
421298,"JUDr. Vladimír Šťastný, notár",36141887,Námestovo,2019-07-07T04:00:04.864Z,029 01,Cyrila a Metoda 329/6,,2019-07-07T04:00:04.864Z,ico://sk/36141887
421375,"JUDr. Valéria Štetiarová, notár",31931570,Čadca,2019-07-07T04:00:05.434Z,022 01,Slovenských dobrovoľníkov 2048,,2019-07-07T04:00:05.434Z,ico://sk/31931570
421378,"JUDr. Štefan Šutara, notár",34039279,Nitra,2019-07-07T04:00:05.465Z,949 01,Fr. Mojtu 1,,2019-07-07T04:00:05.465Z,ico://sk/34039279
421437,"Úrad práce, sociálnych vecí a rodiny Košice",35556757,,2019-07-07T04:00:05.769Z,04211,Staničné námestie,,2019-07-07T04:00:05.769Z,ico://sk/35556757
421438,"Úrad práce, sociálnych vecí a rodiny Rožňava",35556919,Rožňava,2019-07-07T04:00:05.773Z,04801,Šafárikova,,2019-07-07T04:00:05.773Z,ico://sk/35556919
421439,"Úrad práce, sociálnych vecí a rodiny Stará Ľubovňa",37937740,Stará Ľubovňa,2019-07-07T04:00:05.777Z,06401,Farbiarska,57,2019-07-07T04:00:05.777Z,ico://sk/37937740
421440,"Úrad práce, sociálnych vecí a rodiny Prievidza",37916289,Prievidza,2019-07-07T04:00:05.780Z,97101,Šumperská,,2019-07-07T04:00:05.780Z,ico://sk/37916289
421441,"Úrad práce, sociálnych vecí a rodiny Stropkov",37937707,Stropkov,2019-07-07T04:00:05.787Z,09101,Hlavná,26,2019-07-07T04:00:05.787Z,ico://sk/37937707
421442,"Úrad práce, sociálnych vecí a rodiny Revúca",37949578,Revúca,2019-07-07T04:00:05.790Z,05001,gen. Viesta,4,2019-07-07T04:00:05.790Z,ico://sk/37949578
421458,"JUDr. Dušan Mikita, notár",31201091,Trenčín,2019-07-07T04:00:05.920Z,911 01,Mierové námestie č. 25,,2019-07-07T04:00:05.920Z,ico://sk/31201091
421462,"JUDr. Štefan Morvay, notár",36116734,Bánovce nad Bebravou,2019-07-07T04:00:05.960Z,957 01,Jesenského 70/2,,2019-07-07T04:00:05.960Z,ico://sk/36116734
421464,"Mgr. Mária Nagyová, notár",31871674,Komárno,2019-07-07T04:00:05.978Z,945 01,Jókaiho ul. 26,,2019-07-07T04:00:05.978Z,ico://sk/31871674
421469,Okresný úrad Humenné - katastrálny odbor,151866,,2019-07-07T04:00:06.052Z,,,,2019-07-07T04:00:06.052Z,ico://sk/00151866_10173
421544,"JUDr. Viera Ogurčáková, notár",35543043,Košice,2019-07-07T04:00:06.547Z,040 01,Zborovská 2,,2019-07-07T04:00:06.547Z,ico://sk/35543043
421608,"Úrad práce, sociálnych vecí a rodiny  Vranov nad Topľou",37937766,Vranov nad Topľou,2019-07-07T04:00:18.698Z,09301,Námestie slobody,5,2019-07-07T04:00:18.698Z,ico://sk/37937766
421609,"Úrad práce, sociálnych vecí a rodiny Banská Bystrica",37949799,Banská Bystrica,2019-07-07T04:00:18.701Z,97401,ČSA,7,2019-07-07T04:00:18.701Z,ico://sk/37949799
421622,"JUDr. Agnesa Tormová, notár",31871615,Nové Zámky,2019-07-07T04:00:18.768Z,940 01,Hlavné námestie 7,,2019-07-07T04:00:18.768Z,ico://sk/31871615
421623,"JUDr. Pavol Tóth, notár",42198771,Veľký Krtíš,2019-07-07T04:00:18.777Z,990 01,Banícka 10,,2019-07-07T04:00:18.777Z,ico://sk/42198771
421652,"JUDr. Darina Breznoščáková, notár",42228476,Vranov nad Topľou,2019-07-07T04:00:18.915Z,094 31,M.R.Štefánika 2427,,2019-07-07T04:00:18.915Z,ico://sk/42228476
421653,"JUDr. Mária Malíková, notár",31783414,-,2019-07-07T04:00:18.918Z,811 03,Hurbanovo nám. 5,,2019-07-07T04:00:18.918Z,ico://sk/31783414
421682,"Úrad práce, sociálnych vecí a rodiny Banská Štiavnica",37949624,Banská Štiavnica,2019-07-07T04:00:19.028Z,96901,A.T.Sytnianskeho,1180,2019-07-07T04:00:19.028Z,ico://sk/37949624
421683,"Úrad práce, sociálnych vecí a rodiny Bardejov",37937774,Bardejov,2019-07-07T04:00:19.032Z,08571,Dlhý rad,17,2019-07-07T04:00:19.032Z,ico://sk/37937774
421694,"JUDr. Alena Korenecová, notár",31843492,Topoľčany,2019-07-07T04:00:19.073Z,955 01,Moyzesova 3,,2019-07-07T04:00:19.073Z,ico://sk/31843492
421696,"JUDr. Vladimír Košík, notár",31119271,Partizánske,2019-07-07T04:00:19.090Z,958 01,Nám. SNP 212/4,,2019-07-07T04:00:19.090Z,ico://sk/31119271
421697,"JUDr. Friderika Košinová, notár",31873065,Komárno,2019-07-07T04:00:19.094Z,945 01,K. Thalyho 13,,2019-07-07T04:00:19.094Z,ico://sk/31873065
421699,"JUDr. Katarína Košťálová, notár",31872301,Levice,2019-07-07T04:00:19.100Z,934 01,Na Bašte 1,,2019-07-07T04:00:19.100Z,ico://sk/31872301
421701,"JUDr. Roman Vidovenec, notár",36082759,Bratislava,2019-07-07T04:00:19.113Z,831 04,Bajkalská 5/B,,2019-07-07T04:00:19.113Z,ico://sk/36082759
421707,"JUDr. Eva Vyskoková, notár",42282446,Prievidza,2019-07-07T04:00:19.237Z,971 01,M.Mišíka I.2752/4a,,2019-07-07T04:00:19.237Z,ico://sk/42282446
421724,Obec Dlhé Klčovo,332357,Dlhé Klčovo,2019-07-07T04:00:19.304Z,09413,Dlhá,84,2019-07-07T04:00:19.304Z,ico://sk/00332357
421741,Evanjelická spojená škola Martin,42224055,Martin,2019-07-07T04:00:19.449Z,03601,M.R.Štefánika,17,2019-07-07T04:00:19.449Z,ico://sk/42224055
421752,Obec Pčoliné,323903,Pčoliné,2019-07-07T04:00:19.528Z,06735,Pčoliné,,2019-07-07T04:00:19.528Z,ico://sk/00323903
421775,"JUDr. Jozef Kreml, notár",34048839,Skalica,2019-07-07T04:00:19.744Z,909 01,Gorkého 27/22,,2019-07-07T04:00:19.744Z,ico://sk/34048839
421778,"JUDr. Andrej Kubaščík, notár",31928617,Kysucké Nové Mesto,2019-07-07T04:00:19.760Z,024 01,Nám. Slobody 2288,,2019-07-07T04:00:19.760Z,ico://sk/31928617
421779,"JUDr. Želmíra Boborová, notár",37955403,Zvolen,2019-07-07T04:00:19.766Z,960 01,Námestie SNP 46,,2019-07-07T04:00:19.766Z,ico://sk/37955403
421785,"JUDr. Marta Botková, notár",31871607,NOVÉ ZÁMKY,2019-07-07T04:00:19.798Z,940 52,Björnsonova 2,,2019-07-07T04:00:19.798Z,ico://sk/31871607
421850,"JUDr. Ľudmila Kutišová, notár",42016321,Považská Bystrica,2019-07-07T04:00:20.166Z,017 01,Nám. A. Hlinku 36/9,,2019-07-07T04:00:20.166Z,ico://sk/42016321
421851,Mária Kvasnovská - OVM,31871666,Komárno,2019-07-07T04:00:20.170Z,945 01,Jókaiho 16,,2019-07-07T04:00:20.170Z,ico://sk/31871666_10001
421860,"Mgr. Oľga Czuczorová, notár",37985621,Galanta,2019-07-07T04:00:20.293Z,924 00,Nová 25,,2019-07-07T04:00:20.293Z,ico://sk/37985621
421863,"JUDr. Katarína Čarnecká, notár",36147044,Čadca,2019-07-07T04:00:20.306Z,022 01,Slovenských dobrovoľníkov 2048,,2019-07-07T04:00:20.306Z,ico://sk/36147044
421864,"JUDr. Anna Černáková, notár",31971849,Michalovce,2019-07-07T04:00:20.310Z,071 01,Sama Chalupku 1,,2019-07-07T04:00:20.310Z,ico://sk/31971849
421884,"Materská škola Roháčik, Ivanka pri Nitre",31827005,Ivanka pri Nitre,2019-07-07T04:00:20.388Z,95112,Novozámocká,,2019-07-07T04:00:20.388Z,ico://sk/31827005
421920,"JUDr. Božena Loneková, notár",35665831,Námestovo,2019-07-07T04:00:20.610Z,029 01,Cyrila a Metoda 329/6,,2019-07-07T04:00:20.610Z,ico://sk/35665831
421929,"JUDr. Zuzana Matejovová, notár",42121183,Nitra,2019-07-07T04:00:20.663Z,949 01,Fraňa Mojtu 8,,2019-07-07T04:00:20.663Z,ico://sk/42121183
421933,"JUDr. Miriam Danczi, notár",42044791,Nitra,2019-07-07T04:00:20.688Z,949 01,Štefánikova tr. 9,,2019-07-07T04:00:20.688Z,ico://sk/42044791
421935,"JUDr. Pavol Dorič PhD., notár",42098106,Gelnica,2019-07-07T04:00:20.708Z,065 01,Banícke námestie 57,,2019-07-07T04:00:20.708Z,ico://sk/42098106
421995,"JUDr. Darina Hornáčeková, notár",42311098,Zvolen,2019-07-07T04:00:22.867Z,960 01,Bystrický rad 314/69,,2019-07-07T04:00:22.867Z,ico://sk/42311098
422005,Mgr. Michal Dzamko - OVM,31119263,Nové Mesto n / Váhom,2019-07-07T04:00:22.901Z,915 01,Čsl. Armády 4,,2019-07-07T04:00:22.901Z,ico://sk/31119263_10001
422006,"JUDr. Juraj Ehn, notár",37921126,Bytča,2019-07-07T04:00:22.904Z,014 01,Štefánikova 217,,2019-07-07T04:00:22.904Z,ico://sk/37921126
422065,"JUDr. Helena Hrušovská, notár",42622511,Bratislava,2019-07-07T04:00:27.355Z,811 09,Grösslingova 58,,2019-07-07T04:00:27.355Z,ico://sk/42622511
422077,"JUDr. Miroslav Gregor, notár",34027220,Trnava,2019-07-07T04:00:27.416Z,917 01,Dolné bašty 2,,2019-07-07T04:00:27.416Z,ico://sk/34027220
422138,"JUDr. Marie Ježková, notár",37827278,Brezno,2019-07-07T04:00:27.654Z,977 01,Nám.M.R.Štefánika 48,,2019-07-07T04:00:27.654Z,ico://sk/37827278
422142,"JUDr. Alžbeta Juríková, notár",31786014,Bratislava,2019-07-07T04:00:27.666Z,811 03,Župné nám. 9,,2019-07-07T04:00:27.666Z,ico://sk/31786014
422146,"JUDr. Margita Kakačková, notár",17067928,Dolný Kubín,2019-07-07T04:00:27.680Z,026 01,Ťatliaka č. 2051/8,,2019-07-07T04:00:27.680Z,ico://sk/17067928
422148,"JUDr. Jozefína Atanasová, notár",35527200,Košice - mestská časť Staré Mesto,2019-07-07T04:00:27.687Z,040 01,Hlavná 58,,2019-07-07T04:00:27.687Z,ico://sk/35527200
422204,"JUDr. Viera Kalinová, notár",17067383,Banská Bystrica,2019-07-07T04:00:27.948Z,974 01,Komenského 3,,2019-07-07T04:00:27.948Z,ico://sk/17067383
422218,Úrad vlády Slovenskej republiky - ÚPVS,151513,Bratislava - mestská časť Staré Mesto,2019-07-07T04:00:27.998Z,81370,Námestie slobody,1,2019-07-07T04:00:27.998Z,ico://sk/00151513_10001
422268,"JUDr. Juliana Pašková, notár",31946054,Trebišov,2019-07-07T04:00:28.239Z,075 01,M. R. Štefánika 2393/29,,2019-07-07T04:00:28.239Z,ico://sk/31946054
422273,"JUDr. Eleonóra Petrová, notár",31871577,Nové Zámky,2019-07-07T04:00:28.256Z,940 01,Podzámska 29,,2019-07-07T04:00:28.256Z,ico://sk/31871577
422275,"JUDr. Zdenko Piják, notár",31928323,Žilina,2019-07-07T04:00:28.263Z,010 01,D.Dlabača 39,,2019-07-07T04:00:28.263Z,ico://sk/31928323
422276,"Mgr. Oľga Piskoríková, notár",35511133,Poprad,2019-07-07T04:00:28.266Z,058 01,Štefánikova 96/63,,2019-07-07T04:00:28.266Z,ico://sk/35511133
422314,Obec Svodín - Matričný úrad,309281,,2019-07-07T04:00:28.425Z,94354,Hlavná,1,2019-07-07T04:00:28.425Z,ico://sk/00309281_10001
422329,"JUDr. Alžbeta Podhorská, notár",37872095,Poprad,2019-07-07T04:00:28.529Z,058 01,Mnoheľova 839/10,,2019-07-07T04:00:28.529Z,ico://sk/37872095
422332,"JUDr. Eva Pršebice, notár",35548991,Kráľovský Chlmec,2019-07-07T04:00:28.583Z,077 01,Hlavná 147 A,,2019-07-07T04:00:28.583Z,ico://sk/35548991
422336,JUDr. Luciana Rebrová PhD. - OVM,30803845,Bratislava,2019-07-07T04:00:28.599Z,851 01,Einsteinova 24,,2019-07-07T04:00:28.599Z,ico://sk/30803845_10001
422391,"JUDr. Milan Rovňák, notár",42154545,Piešťany,2019-07-07T04:00:28.871Z,921 01,Sládkovičova 12,,2019-07-07T04:00:28.871Z,ico://sk/42154545
422402,Výskumný ústav vodného hospodárstva,156850,,2019-07-07T04:00:28.951Z,81249,Nábr.arm.gen.L.Svobodu,,2019-07-07T04:00:28.951Z,ico://sk/00156850
422440,"JUDr. Oľga Folbová, notár",42356024,Bratislava - mestská časť Ružinov,2019-07-07T04:00:29.158Z,,Hraničná,18,2019-07-07T04:00:29.158Z,ico://sk/42356024
422463,Sociálna implementačná agentúra,31819648,,2019-07-07T04:00:29.355Z,81365,Špitálska,6,2019-07-07T04:00:29.355Z,ico://sk/31819648
422545,Okresný úrad Senec - odbor starostlivosti o živ. prostredie,151866,Senec,2019-07-07T04:00:29.838Z,,,,2019-07-07T04:00:29.838Z,ico://sk/00151866_10258
422546,Okresný úrad Senec - pozemkový a lesný odbor,151866,Senec,2019-07-07T04:00:29.842Z,,,,2019-07-07T04:00:29.842Z,ico://sk/00151866_10257
422548,Okresný úrad Námestovo - odbor cestnej dopravy a pozemných komunikácií,151866,Námestovo,2019-07-07T04:00:29.848Z,,,,2019-07-07T04:00:29.848Z,ico://sk/00151866_10218
422549,Okresný úrad Námestovo - odbor krízového riadenia,151866,Námestovo,2019-07-07T04:00:29.851Z,,,,2019-07-07T04:00:29.851Z,ico://sk/00151866_10219
422550,Okresný úrad Námestovo - odbor starostlivosti o životné prostredie,151866,Námestovo,2019-07-07T04:00:29.885Z,,,,2019-07-07T04:00:29.885Z,ico://sk/00151866_10220
422551,Okresný úrad Žarnovica - organizačný odbor,151866,Žarnovica,2019-07-07T04:00:29.931Z,,,,2019-07-07T04:00:29.931Z,ico://sk/00151866_10313
422553,Okresný úrad Žiar nad Hronom - odbor krízového riadenia,151866,Žiar nad Hronom,2019-07-07T04:00:30.257Z,,,,2019-07-07T04:00:30.257Z,ico://sk/00151866_10321
422555,Okresný úrad Partizánske,151866,Partizánske,2019-07-07T04:00:31.502Z,,,,2019-07-07T04:00:31.502Z,ico://sk/00151866_10326
422574,"Úrad práce, sociálnych vecí a rodiny Ružomberok",37905465,Ružomberok,2019-07-07T04:00:35.458Z,03401,Námestie slobody,9,2019-07-07T04:00:35.458Z,ico://sk/37905465
422598,"JUDr. Tatiana Mensatorisová, notár",620424,Banská Bystrica,2019-07-07T04:00:35.590Z,97400,Skuteckého,16,2019-07-07T04:00:35.590Z,ico://sk/00620424_10001
422603,"JUDr. Oľga Folbová, notár",42356024,Bratislava - mestská časť Ružinov,2019-07-07T04:00:35.643Z,82105,Hraničná,18,2019-07-07T04:00:35.643Z,ico://sk/42356024_99999
422608,Správa finančnej kontroly Zvolen,894494,,2019-07-07T04:00:35.684Z,,,,2019-07-07T04:00:35.684Z,ico://sk/00894494
422689,Obec Hronský Beňadik - Matričný úrad,320676,Hronský Beňadik,2019-07-07T04:00:36.355Z,96653,Mýtne námestie,26,2019-07-07T04:00:36.355Z,ico://sk/00320676_10001
422821,"Všeobecná zdravotná poisťovňa, a.s.",35937974,Bratislava - mestská časť Petržalka,2019-07-07T04:00:37.313Z,85005,Mamateyova,17,2019-07-07T04:00:37.313Z,ico://sk/35937974
422825,"Úrad práce, sociálnych vecí a rodiny Bratislava",30853788,,2019-07-07T04:00:37.328Z,81616,Vazovova,7/A,2019-07-07T04:00:37.328Z,ico://sk/30853788
422826,"Úrad práce, sociálnych vecí a rodiny Brezno",37949594,Brezno,2019-07-07T04:00:37.333Z,97701,Rázusova,40,2019-07-07T04:00:37.333Z,ico://sk/37949594
422827,"Úrad práce, sociálnych vecí a rodiny Čadca",37905546,Čadca,2019-07-07T04:00:37.338Z,02201,Matičné námestie,,2019-07-07T04:00:37.338Z,ico://sk/37905546
422828,"Úrad práce, sociálnych vecí a rodiny Dolný Kubín",37905511,Dolný Kubín,2019-07-07T04:00:37.343Z,02601,Námestie slobody,,2019-07-07T04:00:37.343Z,ico://sk/37905511
422829,"Úrad práce, sociálnych vecí a rodiny Dunajská Streda",37847554,Dunajská Streda,2019-07-07T04:00:37.347Z,92901,Ádorská,850,2019-07-07T04:00:37.347Z,ico://sk/37847554
422830,"Úrad práce, sociálnych vecí a rodiny Galanta",37847708,Galanta,2019-07-07T04:00:37.351Z,92401,Staničná,,2019-07-07T04:00:37.351Z,ico://sk/37847708
422899,"Úrad práce, sociálnych vecí a rodiny Humenné",37937791,Humenné,2019-07-07T04:00:37.739Z,06670,Kukorelliho,1,2019-07-07T04:00:37.739Z,ico://sk/37937791
422900,"Úrad práce, sociálnych vecí a rodiny Kežmarok",37938606,Kežmarok,2019-07-07T04:00:37.747Z,06001,Dr. Alexandra,61,2019-07-07T04:00:37.747Z,ico://sk/37938606
422901,"Úrad práce, sociálnych vecí a rodiny Komárno",37961195,Komárno,2019-07-07T04:00:37.765Z,94501,Nám. M.R. Štefánika,9,2019-07-07T04:00:37.765Z,ico://sk/37961195
422902,"Úrad práce, sociálnych vecí a rodiny Levice",37961209,Levice,2019-07-07T04:00:37.776Z,93401,Ľ.Štúra,,2019-07-07T04:00:37.776Z,ico://sk/37961209
422953,"Úrad práce, sociálnych vecí a rodiny Liptovský Mikuláš",37905538,Liptovský Mikuláš,2019-07-07T04:00:38.194Z,03180,M.M.Hodžu,30,2019-07-07T04:00:38.194Z,ico://sk/37905538
422954,"Úrad práce, sociálnych vecí a rodiny Lučenec",37949616,Lučenec,2019-07-07T04:00:38.202Z,94801,F.Lehára,,2019-07-07T04:00:38.202Z,ico://sk/37949616
422955,"Úrad práce, sociálnych vecí a rodiny Martin",37905490,Martin,2019-07-07T04:00:38.209Z,03601,Novomeského,4,2019-07-07T04:00:38.209Z,ico://sk/37905490
422956,"Úrad práce, sociálnych vecí a rodiny Michalovce",35556706,Michalovce,2019-07-07T04:00:38.222Z,07101,Saleziánov,1,2019-07-07T04:00:38.222Z,ico://sk/35556706
422957,"Úrad práce, sociálnych vecí a rodiny Námestovo",37905481,Námestovo,2019-07-07T04:00:38.234Z,02901,Námestie A. Bernoláka,4,2019-07-07T04:00:38.234Z,ico://sk/37905481
422958,"Úrad práce, sociálnych vecí a rodiny Nitra",37961217,Nitra,2019-07-07T04:00:38.238Z,94901,Štefánikova trieda,88,2019-07-07T04:00:38.238Z,ico://sk/37961217
423013,"Úrad práce, sociálnych vecí a rodiny Nové Mesto nad Váhom",37916394,Nové Mesto nad Váhom,2019-07-07T04:00:38.663Z,91501,Hviezdoslavova,40,2019-07-07T04:00:38.663Z,ico://sk/37916394
423014,"Úrad práce, sociálnych vecí a rodiny Nové Zámky",37961187,Nové Zámky,2019-07-07T04:00:38.668Z,94036,F.Kapisztóryho,1,2019-07-07T04:00:38.668Z,ico://sk/37961187
423015,"Úrad práce, sociálnych vecí a rodiny Partizánske",37916459,Partizánske,2019-07-07T04:00:38.674Z,95801,Nám. SNP,6,2019-07-07T04:00:38.674Z,ico://sk/37916459
423016,"Úrad práce, sociálnych vecí a rodiny Pezinok",30794587,Pezinok,2019-07-07T04:00:38.680Z,90201,Moyzesova,,2019-07-07T04:00:38.680Z,ico://sk/30794587
423017,"Úrad práce, sociálnych vecí a rodiny Piešťany",37847724,Piešťany,2019-07-07T04:00:38.686Z,92128,Krajinská,13,2019-07-07T04:00:38.686Z,ico://sk/37847724
423018,"Úrad práce, sociálnych vecí a rodiny Poprad",37937758,Poprad,2019-07-07T04:00:38.691Z,05801,Hraničná,13,2019-07-07T04:00:38.691Z,ico://sk/37937758
423029,Okresný úrad Komárno - katastrálny odbor,151866,Komárno,2019-07-07T04:00:43.386Z,,,,2019-07-07T04:00:43.386Z,ico://sk/00151866_10181
423030,Okresný úrad Žiar nad Hronom - odbor starostlivosti o životné prostredie,151866,Žiar nad Hronom,2019-07-07T04:00:43.397Z,,,,2019-07-07T04:00:43.397Z,ico://sk/00151866_10318
423031,Okresný úrad Žiar nad Hronom - odbor všeobecnej vnútornej správy,151866,Žiar nad Hronom,2019-07-07T04:00:43.406Z,,,,2019-07-07T04:00:43.406Z,ico://sk/00151866_10322
423032,Okresný úrad Žiar nad Hronom - pozemkový a lesný odbor,151866,Žiar nad Hronom,2019-07-07T04:00:43.417Z,,,,2019-07-07T04:00:43.417Z,ico://sk/00151866_10323
423034,Okresný úrad Medzilaborce - odbor krízového riadenia,151866,Medzilaborce,2019-07-07T04:00:43.439Z,,,,2019-07-07T04:00:43.439Z,ico://sk/00151866_10208
423035,Okresný úrad Medzilaborce - odbor starostlivosti o životné prostredie,151866,Medzilaborce,2019-07-07T04:00:43.453Z,,,,2019-07-07T04:00:43.453Z,ico://sk/00151866_10209
423036,Okresný úrad Medzilaborce - organizačný odbor,151866,Medzilaborce,2019-07-07T04:00:43.460Z,,,,2019-07-07T04:00:43.460Z,ico://sk/00151866_10211
423057,"Úrad práce, sociálnych vecí a rodiny Prešov",37937693,Prešov,2019-07-07T04:00:43.665Z,08028,Slovenská,87,2019-07-07T04:00:43.665Z,ico://sk/37937693
423058,"Úrad práce, sociálnych vecí a rodiny Rimavská Sobota",37949608,Rimavská Sobota,2019-07-07T04:00:43.669Z,97901,Čerenčianska,,2019-07-07T04:00:43.669Z,ico://sk/37949608
423063,"Úrad práce, sociálnych vecí a rodiny Senica",37847635,Senica,2019-07-07T04:00:43.736Z,90501,Vajanského,,2019-07-07T04:00:43.736Z,ico://sk/37847635
423064,"Úrad práce, sociálnych vecí a rodiny Spišská Nová Ves",35557010,Spišská Nová Ves,2019-07-07T04:00:43.757Z,05221,Odborárov,53,2019-07-07T04:00:43.757Z,ico://sk/35557010
423065,"Úrad práce, sociálnych vecí a rodiny Topoľčany",37961225,Topoľčany,2019-07-07T04:00:43.776Z,95501,Škultétyho,8,2019-07-07T04:00:43.776Z,ico://sk/37961225
423066,"Úrad práce, sociálnych vecí a rodiny Trebišov",35556811,Trebišov,2019-07-07T04:00:43.786Z,07501,M. R. Štefánika,23,2019-07-07T04:00:43.786Z,ico://sk/35556811
423067,"Úrad práce, sociálnych vecí a rodiny Trnava",37847562,Trnava,2019-07-07T04:00:43.798Z,91701,Jána Bottu,4,2019-07-07T04:00:43.798Z,ico://sk/37847562
423090,Okresný úrad Gelnica - katastrálny odbor,151866,Gelnica,2019-07-07T04:00:44.018Z,,,,2019-07-07T04:00:44.018Z,ico://sk/00151866_10170
423091,Okresný úrad Sabinov - organizačný odbor,151866,Sabinov,2019-07-07T04:00:44.030Z,,,,2019-07-07T04:00:44.030Z,ico://sk/00151866_10256
423092,Okresný úrad Senec - odbor cestnej dopravy,151866,Senec,2019-07-07T04:00:44.041Z,,,,2019-07-07T04:00:44.041Z,ico://sk/00151866_10260
423093,Okresný úrad Žarnovica - odbor krízového riadenia,151866,Žarnovica,2019-07-07T04:00:44.050Z,,,,2019-07-07T04:00:44.050Z,ico://sk/00151866_10311
423094,Okresný úrad Námestovo - odbor všeobecnej vnútornej správy,151866,Námestovo,2019-07-07T04:00:44.055Z,,,,2019-07-07T04:00:44.055Z,ico://sk/00151866_10221
423095,Okresný úrad Žarnovica - odbor starostlivosti o životné prostredie,151866,Žarnovica,2019-07-07T04:00:44.060Z,,,,2019-07-07T04:00:44.060Z,ico://sk/00151866_10312
423096,Okresný úrad Žiar nad Hronom - odbor cestnej dopravy a pozemných komunikácií,151866,Žiar nad Hronom,2019-07-07T04:00:44.065Z,,,,2019-07-07T04:00:44.065Z,ico://sk/00151866_10316
423097,Okresný úrad Komárno - odbor živnostenského podnikania,151866,Komárno,2019-07-07T04:00:44.069Z,,,,2019-07-07T04:00:44.069Z,ico://sk/00151866_10179
423098,Okresný úrad Komárno - organizačný odbor,151866,Komárno,2019-07-07T04:00:44.074Z,,,,2019-07-07T04:00:44.074Z,ico://sk/00151866_10180
423099,Okresný úrad Krupina - odbor krízového riadenia,151866,Krupina,2019-07-07T04:00:44.079Z,,,,2019-07-07T04:00:44.079Z,ico://sk/00151866_10186
423120,"Úrad práce, sociálnych vecí a rodiny Veľký Krtíš",37949586,Veľký Krtíš,2019-07-07T04:00:44.210Z,99001,Madácha,,2019-07-07T04:00:44.210Z,ico://sk/37949586
423121,"Úrad práce, sociálnych vecí a rodiny Zvolen",37949560,Zvolen,2019-07-07T04:00:44.214Z,96009,J.Jiskru,6,2019-07-07T04:00:44.214Z,ico://sk/37949560
423122,"Úrad práce, sociálnych vecí a rodiny Žilina",37905473,Žilina,2019-07-07T04:00:44.220Z,01001,Hurbanova,16,2019-07-07T04:00:44.220Z,ico://sk/37905473
423123,"Úrad práce, sociálnych vecí a rodiny Trenčín",37916301,Trenčín,2019-07-07T04:00:44.224Z,91101,M.R.Štefánika,,2019-07-07T04:00:44.224Z,ico://sk/37916301
423141,"JUDr. Dagmar Gajdošová, notár",42282888,Prievidza,2019-07-07T04:00:44.285Z,97101,G.Švéniho I.2708/4A,4A,2019-07-07T04:00:44.285Z,ico://sk/42282888
423148,"JUDr. Emília Vallová, notár",42024935,Prievidza,2019-07-07T04:00:44.309Z,97101,Námestie Slobody,22,2019-07-07T04:00:44.309Z,ico://sk/42024935
423150,Okresný úrad Krupina - odbor starostlivosti o životné prostredie,151866,Krupina,2019-07-07T04:00:44.330Z,,,,2019-07-07T04:00:44.330Z,ico://sk/00151866_10187
423152,Okresný úrad Topoľčany - odbor živnostenského podnikania,151866,Topoľčany,2019-07-07T04:00:44.337Z,,,,2019-07-07T04:00:44.337Z,ico://sk/00151866_10280
423153,Okresný úrad Banská Bystrica - pozemkový a lesný odbor,151866,Banská Bystrica,2019-07-07T04:00:44.340Z,,,,2019-07-07T04:00:44.340Z,ico://sk/00151866_10142
423154,Okresný úrad Levoča - odbor krízového riadenia,151866,Levoča,2019-07-07T04:00:44.344Z,,,,2019-07-07T04:00:44.344Z,ico://sk/00151866_10193
423156,Okresný úrad Bardejov - odbor živnostenského podnikania,151866,Bardejov,2019-07-07T04:00:44.350Z,,,,2019-07-07T04:00:44.350Z,ico://sk/00151866_10148
423157,Okresný úrad Bardejov - odbor živnostenského podnikania,151866,Bardejov,2019-07-07T04:00:44.354Z,,,,2019-07-07T04:00:44.354Z,ico://sk/00151866_10150
423158,Okresný úrad Trnava,151866,Trnava,2019-07-07T04:00:44.357Z,,,,2019-07-07T04:00:44.357Z,ico://sk/00151866_10290
423178,Okresný úrad Čadca - odbor cestnej dopravy a pozemných komunikácií,151866,Čadca,2019-07-07T04:00:44.528Z,,,,2019-07-07T04:00:44.528Z,ico://sk/00151866_10161
423179,Okresný úrad Čadca - odbor všeobecnej vnútornej správy,151866,Čadca,2019-07-07T04:00:44.537Z,,,,2019-07-07T04:00:44.537Z,ico://sk/00151866_10158
423180,Okresný úrad Veľký Krtíš - organizačný odbor,151866,Veľký Krtíš,2019-07-07T04:00:44.548Z,,,,2019-07-07T04:00:44.548Z,ico://sk/00151866_10299
423183,Okresný úrad Levice - organizačný odbor,151866,Levice,2019-07-07T04:00:44.611Z,,,,2019-07-07T04:00:44.611Z,ico://sk/00151866_10190
423185,Okresný úrad Svidník - organizačný odbor,151866,Svidník,2019-07-07T04:00:44.632Z,,,,2019-07-07T04:00:44.632Z,ico://sk/00151866_10276
423187,Okresný úrad Brezno - katastrálny odbor,151866,Brezno,2019-07-07T04:00:44.644Z,,,,2019-07-07T04:00:44.644Z,ico://sk/00151866_10153
423188,Okresný úrad Brezno - odbor živnostenského podnikania,151866,Brezno,2019-07-07T04:00:44.647Z,,,,2019-07-07T04:00:44.647Z,ico://sk/00151866_10152
423218,Okresný úrad Lučenec - pozemkový a lesný odbor,151866,Lučenec,2019-07-07T04:00:44.898Z,,,,2019-07-07T04:00:44.898Z,ico://sk/00151866_10199
423219,Okresný úrad Čadca - odbor krízového riadenia,151866,Čadca,2019-07-07T04:00:44.904Z,,,,2019-07-07T04:00:44.904Z,ico://sk/00151866_10159
423220,Okresný úrad Čadca - odbor starostlivosti o životné prostredie,151866,Čadca,2019-07-07T04:00:44.913Z,,,,2019-07-07T04:00:44.913Z,ico://sk/00151866_10164
423221,Okresný úrad Čadca - organizačný odbor,151866,Čadca,2019-07-07T04:00:44.922Z,,,,2019-07-07T04:00:44.922Z,ico://sk/00151866_10157
423222,Okresný úrad Čadca - pozemkový a lesný odbor,151866,Čadca,2019-07-07T04:00:44.928Z,,,,2019-07-07T04:00:44.928Z,ico://sk/00151866_10162
423224,Okresný úrad Púchov - odbor krízového riadenia,151866,Púchov,2019-07-07T04:00:44.949Z,,,,2019-07-07T04:00:44.949Z,ico://sk/00151866_10231
423225,Okresný úrad Púchov - odbor starostlivosti o životné prostredie,151866,Púchov,2019-07-07T04:00:44.956Z,,,,2019-07-07T04:00:44.956Z,ico://sk/00151866_10233
423226,Okresný úrad Púchov - organizačný odbor,151866,Púchov,2019-07-07T04:00:44.961Z,,,,2019-07-07T04:00:44.961Z,ico://sk/00151866_10232
423235,"VPS, m.p.o. Nemšová",35604956,Nemšová,2019-07-07T04:00:45.094Z,91441,Mierové námestie,21,2019-07-07T04:00:45.094Z,ico://sk/35604956
423260,Okresný úrad Tvrdošín - odbor krízového riadenia,151866,Tvrdošín,2019-07-07T04:00:45.299Z,,,,2019-07-07T04:00:45.299Z,ico://sk/00151866_10292
423262,Okresný úrad Veľký Krtíš - katastrálny odbor,151866,Veľký Krtíš,2019-07-07T04:00:45.315Z,,,,2019-07-07T04:00:45.315Z,ico://sk/00151866_10301
423263,Okresný úrad Veľký Krtíš - odbor cestnej dopravy a pozemných komunikácií,151866,Veľký Krtíš,2019-07-07T04:00:45.320Z,,,,2019-07-07T04:00:45.320Z,ico://sk/00151866_10302
423264,Okresný úrad Veľký Krtíš - odbor starostlivosti o životné prostredie,151866,Veľký Krtíš,2019-07-07T04:00:45.327Z,,,,2019-07-07T04:00:45.327Z,ico://sk/00151866_10296
423265,Okresný úrad Veľký Krtíš - odbor všeobecnej vnútornej správy,151866,Veľký Krtíš,2019-07-07T04:00:45.336Z,,,,2019-07-07T04:00:45.336Z,ico://sk/00151866_10298
423266,Okresný úrad Medzilaborce - katastrálny odbor,151866,Medzilaborce,2019-07-07T04:00:45.348Z,,,,2019-07-07T04:00:45.348Z,ico://sk/00151866_10210
423273,Okresný úrad Spišská Nová Ves - odbor živnostenského podnikania,151866,Spišská Nová Ves,2019-07-07T04:00:45.425Z,,,,2019-07-07T04:00:45.425Z,ico://sk/00151866_10267
423275,Okresný úrad Stará Ľubovňa - katastrálny odbor,151866,Stará Ľubovňa,2019-07-07T04:00:45.436Z,,,,2019-07-07T04:00:45.436Z,ico://sk/00151866_10271
423277,Okresný úrad Banská Štiavnica - katastrálny odbor,151866,Banská Štiavnica,2019-07-07T04:00:45.458Z,,,,2019-07-07T04:00:45.458Z,ico://sk/00151866_10146
423278,Okresný úrad Bardejov - katastrálny odbor,151866,Bardejov,2019-07-07T04:00:45.471Z,,,,2019-07-07T04:00:45.471Z,ico://sk/00151866_10147
423279,Okresný úrad Bardejov - organizačný odbor,151866,Bardejov,2019-07-07T04:00:45.482Z,,,,2019-07-07T04:00:45.482Z,ico://sk/00151866_10149
423280,Okresný úrad Bytča - katastrálny odbor,151866,Bytča,2019-07-07T04:00:45.498Z,,,,2019-07-07T04:00:45.498Z,ico://sk/00151866_10154
423281,Okresný úrad Bytča - odbor starostlivosti o životné prostredie,151866,Bytča,2019-07-07T04:00:45.506Z,,,,2019-07-07T04:00:45.506Z,ico://sk/00151866_10155
423282,Okresný úrad Trebišov - odbor všeobecnej vnútornej správy,151866,Trebišov,2019-07-07T04:00:45.510Z,,,,2019-07-07T04:00:45.510Z,ico://sk/00151866_10283
423283,Okresný úrad Trebišov - odbor živnostenského podnikania,151866,Trebišov,2019-07-07T04:00:45.514Z,,,,2019-07-07T04:00:45.514Z,ico://sk/00151866_10282
423284,Okresný úrad Trebišov - pozemkový a lesný odbor,151866,Trebišov,2019-07-07T04:00:45.522Z,,,,2019-07-07T04:00:45.522Z,ico://sk/00151866_10289
423285,Okresný úrad Tvrdošín - katastrálny odbor,151866,Tvrdošín,2019-07-07T04:00:45.530Z,,,,2019-07-07T04:00:45.530Z,ico://sk/00151866_10293
423286,Okresný úrad Čadca - katastrálny odbor,151866,Čadca,2019-07-07T04:00:45.543Z,,,,2019-07-07T04:00:45.543Z,ico://sk/00151866_10163
423287,Okresný úrad Čadca - odbor živnostenského podnikania,151866,Čadca,2019-07-07T04:00:45.567Z,,,,2019-07-07T04:00:45.567Z,ico://sk/00151866_10160
423289,Okresný úrad Veľký Krtíš - odbor krízového riadenia,151866,Veľký Krtíš,2019-07-07T04:00:45.604Z,,,,2019-07-07T04:00:45.604Z,ico://sk/00151866_10297
423290,Okresný úrad Stropkov - odbor živnostenského podnikania,151866,Stropkov,2019-07-07T04:00:45.619Z,,,,2019-07-07T04:00:45.619Z,ico://sk/00151866_10274
423292,Okresný úrad Svidník - katastrálny odbor,151866,Svidník,2019-07-07T04:00:45.640Z,,,,2019-07-07T04:00:45.640Z,ico://sk/00151866_10278
423293,Okresný úrad Banská Bystrica - odbor pre cestnú dopravu a pozemné komunikácie,151866,Banská Bystrica,2019-07-07T04:00:45.651Z,,,,2019-07-07T04:00:45.651Z,ico://sk/00151866_10140
423294,Okresný úrad Banská Bystrica - odbor starostlivosti o životné prostredie,151866,Banská Bystrica,2019-07-07T04:00:45.667Z,,,,2019-07-07T04:00:45.667Z,ico://sk/00151866_10143
423295,Okresný úrad Banská Bystrica - odbor školstva,151866,Banská Bystrica,2019-07-07T04:00:45.683Z,,,,2019-07-07T04:00:45.683Z,ico://sk/00151866_10134
423296,Okresný úrad Banská Bystrica - odbor všeobecnej vnútornej správy,151866,Banská Bystrica,2019-07-07T04:00:45.690Z,,,,2019-07-07T04:00:45.690Z,ico://sk/00151866_10133
423297,Okresný úrad Banská Bystrica - odbor výstavby a bytovej politiky,151866,Banská Bystrica,2019-07-07T04:00:45.694Z,,,,2019-07-07T04:00:45.694Z,ico://sk/00151866_10139
423298,Okresný úrad Banská Bystrica - odbor živnostenského podnikania,151866,Banská Bystrica,2019-07-07T04:00:45.701Z,,,,2019-07-07T04:00:45.701Z,ico://sk/00151866_10137
423299,Okresný úrad Banská Bystrica - organizačný odbor,151866,Banská Bystrica,2019-07-07T04:00:45.709Z,,,,2019-07-07T04:00:45.709Z,ico://sk/00151866_10136
423300,Okresný úrad Vranov nad Topľou - katastrálny odbor,151866,Vranov nad Topľou,2019-07-07T04:00:45.720Z,,,,2019-07-07T04:00:45.720Z,ico://sk/00151866_10303
423301,Okresný úrad Vranov nad Topľou - odbor živnostenského podnikania,151866,Vranov nad Topľou,2019-07-07T04:00:45.727Z,,,,2019-07-07T04:00:45.727Z,ico://sk/00151866_10304
423304,Okresný úrad Zvolen - katastrálny odbor,151866,Zvolen,2019-07-07T04:00:45.780Z,,,,2019-07-07T04:00:45.780Z,ico://sk/00151866_10309
423305,Okresný úrad Zvolen - odbor živnostenského podnikania,151866,Zvolen,2019-07-07T04:00:45.796Z,,,,2019-07-07T04:00:45.796Z,ico://sk/00151866_10308
423306,Okresný úrad Žarnovica - katastrálny odbor,151866,Žarnovica,2019-07-07T04:00:45.805Z,,,,2019-07-07T04:00:45.805Z,ico://sk/00151866_10314
423308,Okresný úrad Kežmarok - odbor živnostenského podnikania,151866,Kežmarok,2019-07-07T04:00:45.825Z,,,,2019-07-07T04:00:45.825Z,ico://sk/00151866_10176
423309,Okresný úrad Veľký Krtíš - odbor živnostenského podnikania,151866,Veľký Krtíš,2019-07-07T04:00:45.839Z,,,,2019-07-07T04:00:45.839Z,ico://sk/00151866_10295
423310,Okresný úrad Veľký Krtíš - pozemkový a lesný odbor,151866,Veľký Krtíš,2019-07-07T04:00:45.858Z,,,,2019-07-07T04:00:45.858Z,ico://sk/00151866_10300
423370,Okresný úrad Bánovce nad Bebravou - katastrálny odbor,151866,Bánovce nad Bebravou,2019-07-07T04:00:46.285Z,,,,2019-07-07T04:00:46.285Z,ico://sk/00151866_10129
423371,Okresný úrad Bánovce nad Bebravou - odbor živnostenského podnikania,151866,Bánovce nad Bebravou,2019-07-07T04:00:46.292Z,,,,2019-07-07T04:00:46.292Z,ico://sk/00151866_10130
423372,Okresný úrad Bánovce nad Bebravou - organizačný odbor,151866,Bánovce nad Bebravou,2019-07-07T04:00:46.300Z,,,,2019-07-07T04:00:46.300Z,ico://sk/00151866_10131
423373,Okresný úrad Banská Bystrica - majetkovoprávny odbor,151866,Banská Bystrica,2019-07-07T04:00:46.308Z,,,,2019-07-07T04:00:46.308Z,ico://sk/00151866_10132
423374,Okresný úrad Banská Bystrica - odbor krízového riadenia,151866,Banská Bystrica,2019-07-07T04:00:46.321Z,,,,2019-07-07T04:00:46.321Z,ico://sk/00151866_10141
423375,Okresný úrad Banská Bystrica - odbor opravných prostriedkov,151866,Banská Bystrica,2019-07-07T04:00:46.329Z,,,,2019-07-07T04:00:46.329Z,ico://sk/00151866_10138
423376,Okresný úrad Spišská Nová Ves - katastrálny odbor,151866,Spišská Nová Ves,2019-07-07T04:00:46.336Z,,,,2019-07-07T04:00:46.336Z,ico://sk/00151866_10268
423377,Okresný úrad Stará Ľubovňa - odbor živnostenského podnikania,151866,Stará Ľubovňa,2019-07-07T04:00:46.345Z,,,,2019-07-07T04:00:46.345Z,ico://sk/00151866_10270
423379,Okresný úrad Stropkov - katastrálny odbor,151866,Stropkov,2019-07-07T04:00:46.371Z,,,,2019-07-07T04:00:46.371Z,ico://sk/00151866_10273
423380,Okresný úrad Svidník - odbor živnostenského podnikania,151866,Svidník,2019-07-07T04:00:46.387Z,,,,2019-07-07T04:00:46.387Z,ico://sk/00151866_10277
423383,Okresný úrad Trebišov - katastrálny odbor,151866,Trebišov,2019-07-07T04:00:46.416Z,,,,2019-07-07T04:00:46.416Z,ico://sk/00151866_10285
423384,"Okresný úrad Trebišov - katastrálny odbor, pracovisko Kráľovský Chlmec",151866,Trebišov,2019-07-07T04:00:46.424Z,,,,2019-07-07T04:00:46.424Z,ico://sk/00151866_10286
423385,Okresný úrad Trebišov - odbor cestnej dopravy a pozemkových komunikácii,151866,Trebišov,2019-07-07T04:00:46.433Z,,,,2019-07-07T04:00:46.433Z,ico://sk/00151866_10287
423386,Okresný úrad Trebišov - odbor krízového riadenia,151866,Trebišov,2019-07-07T04:00:46.440Z,,,,2019-07-07T04:00:46.440Z,ico://sk/00151866_10288
423387,Okresný úrad Trebišov - odbor starostlivosti o životné prostredie,151866,Trebišov,2019-07-07T04:00:46.443Z,,,,2019-07-07T04:00:46.443Z,ico://sk/00151866_10284
423388,Okresný úrad Humenné - odbor živnostenského podnikania,151866,Humenné,2019-07-07T04:00:46.448Z,,,,2019-07-07T04:00:46.448Z,ico://sk/00151866_10172
423390,Okresný úrad Detva - katastrálny odbor,151866,Detva,2019-07-07T04:00:46.463Z,,,,2019-07-07T04:00:46.463Z,ico://sk/00151866_10167
423391,Okresný úrad Detva - odbor starostlivosti o životné prostredie,151866,Detva,2019-07-07T04:00:46.468Z,,,,2019-07-07T04:00:46.468Z,ico://sk/00151866_10166
423394,Okresný úrad Kežmarok - katastrálny odbor,151866,Kežmarok,2019-07-07T04:00:46.478Z,,,,2019-07-07T04:00:46.478Z,ico://sk/00151866_10177
423395,Okresný úrad Lučenec - odbor cestnej dopravy a pozemných komunikácií,151866,Lučenec,2019-07-07T04:00:46.482Z,,,,2019-07-07T04:00:46.482Z,ico://sk/00151866_10201
423396,Okresný úrad Lučenec - odbor krízového riadenia,151866,Lučenec,2019-07-07T04:00:46.486Z,,,,2019-07-07T04:00:46.486Z,ico://sk/00151866_10202
423397,Okresný úrad Lučenec - odbor starostlivosti o životné prostredie,151866,Lučenec,2019-07-07T04:00:46.491Z,,,,2019-07-07T04:00:46.491Z,ico://sk/00151866_10200
423398,Okresný úrad Lučenec - odbor všeobecnej vnútornej správy,151866,Lučenec,2019-07-07T04:00:46.494Z,,,,2019-07-07T04:00:46.494Z,ico://sk/00151866_10198
423399,Okresný úrad Lučenec - odbor živnostenského podnikania,151866,Lučenec,2019-07-07T04:00:46.497Z,,,,2019-07-07T04:00:46.497Z,ico://sk/00151866_10196
423402,Okresný úrad Prešov - odbor živnostenského podnikania,151866,Prešov,2019-07-07T04:00:46.507Z,,,,2019-07-07T04:00:46.507Z,ico://sk/00151866_10229
423404,Okresný úrad Rimavská Sobota - katastrálny odbor,151866,Rimavská Sobota,2019-07-07T04:00:46.513Z,,,,2019-07-07T04:00:46.513Z,ico://sk/00151866_10243
423405,Okresný úrad Rimavská Sobota - odbor živnostenského podnikania,151866,Rimavská Sobota,2019-07-07T04:00:46.519Z,,,,2019-07-07T04:00:46.519Z,ico://sk/00151866_10238
423406,Okresný úrad Rimavská Sobota - organizačný odbor,151866,Rimavská Sobota,2019-07-07T04:00:46.527Z,,,,2019-07-07T04:00:46.527Z,ico://sk/00151866_10236
423407,Okresný úrad Rimavská Sobota - pozemkový a lesný odbor,151866,Rimavská Sobota,2019-07-07T04:00:46.531Z,,,,2019-07-07T04:00:46.531Z,ico://sk/00151866_10242
423880,Spojená škola Okružná Rimavská Sobota,42195471,,2019-07-07T04:00:54.711Z,,,,2019-07-07T04:00:54.711Z,ico://sk/42195471
423944,Okresný úrad Nové Zámky - katastrálny odbor,151866,Nové Zámky,2019-07-07T04:00:55.174Z,,,,2019-07-07T04:00:55.174Z,ico://sk/00151866_10226
423945,Okresný úrad Nové Zámky - odbor živnostenského podnikania,151866,Nové Zámky,2019-07-07T04:00:55.179Z,,,,2019-07-07T04:00:55.179Z,ico://sk/00151866_10225
423946,Okresný úrad Rimavská Sobota - odbor cestnej dopravy a pozemných komunikácií,151866,Rimavská Sobota,2019-07-07T04:00:55.185Z,,,,2019-07-07T04:00:55.185Z,ico://sk/00151866_10240
423947,Okresný úrad Rimavská Sobota - odbor krízového riadenia,151866,Rimavská Sobota,2019-07-07T04:00:55.190Z,,,,2019-07-07T04:00:55.190Z,ico://sk/00151866_10239
423948,Okresný úrad Rimavská Sobota - odbor starostlivosti o životné prostredie,151866,Rimavská Sobota,2019-07-07T04:00:55.194Z,,,,2019-07-07T04:00:55.194Z,ico://sk/00151866_10241
423949,Okresný úrad Rimavská Sobota - odbor všeobecnej vnútornej správy,151866,Rimavská Sobota,2019-07-07T04:00:55.198Z,,,,2019-07-07T04:00:55.198Z,ico://sk/00151866_10237
423950,Okresný úrad Košice - odbor živnostenského podnikania,151866,,2019-07-07T04:00:55.203Z,,,,2019-07-07T04:00:55.203Z,ico://sk/00151866_10182
423951,Okresný úrad Žiar nad Hronom - katastrálny odbor,151866,Žiar nad Hronom,2019-07-07T04:00:55.207Z,,,,2019-07-07T04:00:55.207Z,ico://sk/00151866_10320
423952,Okresný úrad Žiar nad Hronom - odbor živnostenského podnikania,151866,Žiar nad Hronom,2019-07-07T04:00:55.212Z,,,,2019-07-07T04:00:55.212Z,ico://sk/00151866_10319
423953,Okresný úrad Košice - okolie - katastrálny odbor,151866,,2019-07-07T04:00:55.220Z,,,,2019-07-07T04:00:55.220Z,ico://sk/00151866_10184
423966,Okresný úrad Košice - okolie - odbor živnostenského podnikania,151866,,2019-07-07T04:00:55.291Z,,,,2019-07-07T04:00:55.291Z,ico://sk/00151866_10183
423968,Okresný úrad Kysucké Nové Mesto - katastrálny odbor,151866,Kysucké Nové Mesto,2019-07-07T04:00:55.304Z,,,,2019-07-07T04:00:55.304Z,ico://sk/00151866_10188
423969,Okresný úrad Žiar nad Hronom - organizačný odbor,151866,Žiar nad Hronom,2019-07-07T04:00:55.310Z,,,,2019-07-07T04:00:55.310Z,ico://sk/00151866_10317
423970,Okresný úrad Levoča - katastrálny odbor,151866,Levoča,2019-07-07T04:00:55.316Z,,,,2019-07-07T04:00:55.316Z,ico://sk/00151866_10192
423971,Okresný úrad Lučenec - katastrálny odbor,151866,Lučenec,2019-07-07T04:00:55.320Z,,,,2019-07-07T04:00:55.320Z,ico://sk/00151866_10195
423972,Okresný úrad Lučenec - organizačný odbor,151866,Lučenec,2019-07-07T04:00:55.328Z,,,,2019-07-07T04:00:55.328Z,ico://sk/00151866_10197
423974,Okresný úrad Malacky - katastrálny odbor,151866,Malacky,2019-07-07T04:00:55.337Z,,,,2019-07-07T04:00:55.337Z,ico://sk/00151866_10206
423975,Okresný úrad Malacky - odbor živnostenského podnikania,151866,Malacky,2019-07-07T04:00:55.342Z,,,,2019-07-07T04:00:55.342Z,ico://sk/00151866_10205
423978,Okresný úrad Rožňava - katastrálny odbor,151866,Rožňava,2019-07-07T04:00:55.354Z,,,,2019-07-07T04:00:55.354Z,ico://sk/00151866_10245
423979,Okresný úrad Rožňava - živnostenský odbor,151866,Rožňava,2019-07-07T04:00:55.358Z,,,,2019-07-07T04:00:55.358Z,ico://sk/00151866_10246
423980,Okresný úrad Ružomberok - katastrálny odbor,151866,Ružomberok,2019-07-07T04:00:55.362Z,,,,2019-07-07T04:00:55.362Z,ico://sk/00151866_10249
423981,Okresný úrad Ružomberok - odbor cestnej dopravy a PK,151866,Ružomberok,2019-07-07T04:00:55.366Z,,,,2019-07-07T04:00:55.366Z,ico://sk/00151866_10253
423982,Okresný úrad Ružomberok - odbor starostlivosti o životné prostredie,151866,Ružomberok,2019-07-07T04:00:55.370Z,,,,2019-07-07T04:00:55.370Z,ico://sk/00151866_10251
423983,Okresný úrad Ružomberok - odbor všeobecnej vnútornej správy,151866,Ružomberok,2019-07-07T04:00:55.373Z,,,,2019-07-07T04:00:55.373Z,ico://sk/00151866_10248
423984,Okresný úrad Ružomberok - odbor živnostenského podnikania,151866,Ružomberok,2019-07-07T04:00:55.378Z,,,,2019-07-07T04:00:55.378Z,ico://sk/00151866_10250
423985,Okresný úrad Ružomberok - organizačný odbor,151866,Ružomberok,2019-07-07T04:00:55.383Z,,,,2019-07-07T04:00:55.383Z,ico://sk/00151866_10252
423986,Okresný úrad Ružomberok - pozemkový a lesný odbor,151866,Ružomberok,2019-07-07T04:00:55.388Z,,,,2019-07-07T04:00:55.388Z,ico://sk/00151866_10254
423987,Okresný úrad Sabinov - katastrálny odbor,151866,Sabinov,2019-07-07T04:00:55.395Z,,,,2019-07-07T04:00:55.395Z,ico://sk/00151866_10255
423988,Okresný úrad Senec - katastrálny odbor,151866,Senec,2019-07-07T04:00:55.401Z,,,,2019-07-07T04:00:55.401Z,ico://sk/00151866_10261
423990,Okresný úrad Snina - katastrálny odbor,151866,Snina,2019-07-07T04:00:55.411Z,,,,2019-07-07T04:00:55.411Z,ico://sk/00151866_10263
423992,Okresný úrad Sobrance - katastrálny odbor,151866,Sobrance,2019-07-07T04:00:55.420Z,,,,2019-07-07T04:00:55.420Z,ico://sk/00151866_10265
423994,Okresný úrad Michalovce - katastrálny odbor,151866,Michalovce,2019-07-07T04:00:55.429Z,,,,2019-07-07T04:00:55.429Z,ico://sk/00151866_10214
423995,Okresný úrad Michalovce - odbor živnostenského podnikania,151866,Michalovce,2019-07-07T04:00:55.434Z,,,,2019-07-07T04:00:55.434Z,ico://sk/00151866_10213
423996,Okresný úrad Námestovo - katastrálny odbor,151866,Námestovo,2019-07-07T04:00:55.438Z,,,,2019-07-07T04:00:55.438Z,ico://sk/00151866_10215
423997,Okresný úrad Námestovo - odbor živnostenského podnikania,151866,Námestovo,2019-07-07T04:00:55.442Z,,,,2019-07-07T04:00:55.442Z,ico://sk/00151866_10217
423998,Okresný úrad Námestovo - organizačný odbor,151866,Námestovo,2019-07-07T04:00:55.447Z,,,,2019-07-07T04:00:55.447Z,ico://sk/00151866_10216
424018,Poštový regulačný úrad,37808508,Žilina,2019-07-07T04:00:55.533Z,01001,ul. 1. mája,16,2019-07-07T04:00:55.533Z,ico://sk/37808508
424027,Telekomunikačný úrad SR,30844355,Bratislava - mestská časť Staré Mesto,2019-07-07T04:00:55.576Z,82855,Továrenská,7,2019-07-07T04:00:55.576Z,ico://sk/30844355
424077,Mesto Žilina,151866,Sabinov,2019-07-07T04:00:55.784Z,,,,2019-07-07T04:00:55.784Z,ico://sk/00151866_10324
424261,"JUDr. Denisa Uhríková, exekútor",35552115,Bratislava - mestská časť Ružinov,2019-07-07T04:00:56.692Z,82103,Komárnická,26,2019-07-07T04:00:56.692Z,ico://sk/35552115
424324,Mgr. Slavomír Nosko (OVM),42300932,Banská Bystrica,2019-07-07T04:00:57.012Z,,Kukučínova,,2019-07-07T04:00:57.012Z,ico://sk/42300932_10001
424326,"JUDr. Dušan Noskovič, exekútor",31759963,Pezinok,2019-07-07T04:00:57.022Z,,Myslenická,,2019-07-07T04:00:57.022Z,ico://sk/31759963
424333,Mgr. Ing. Juraj Korim (OVM),42344387,Vranov n/Topľou,2019-07-07T04:00:57.051Z,,Duklianskych hrdinov,,2019-07-07T04:00:57.051Z,ico://sk/42344387_10001
424337,Mgr. Martin Kostka (OVM),42354722,Bratislava,2019-07-07T04:00:57.073Z,,Trnavská cesta,,2019-07-07T04:00:57.073Z,ico://sk/42354722_10001
424338,"JUDr. Vladimír Kotrla, exekútor",31782167,Malacky,2019-07-07T04:00:57.080Z,,Slovenská,,2019-07-07T04:00:57.080Z,ico://sk/31782167
424386,Základná škola Okoličianska Liptovský Mikuláš,37810430,,2019-07-07T04:00:57.305Z,,,,2019-07-07T04:00:57.305Z,ico://sk/37810430
424405,"JUDr. Vladimír Oravec, exekútor",35990856,Revúca,2019-07-07T04:00:57.382Z,,Magnezitárov,10,2019-07-07T04:00:57.382Z,ico://sk/35990856
424461,Základná škola pre žiakov so sluchovým postihnutím internátna Lučenec,163023,Lučenec,2019-07-07T04:00:57.683Z,98403,Karola Supa,48,2019-07-07T04:00:57.683Z,ico://sk/00163023
424470,"Mgr. Ing. Miroslav Dzurik, exekútor",31116779,Bánovce n/Bebravou,2019-07-07T04:00:57.720Z,,Moyzesova,,2019-07-07T04:00:57.720Z,ico://sk/31116779
424474,"JUDr. Zora Ferdinandy, exekútor",35562960,Košice,2019-07-07T04:00:57.735Z,,Štefánikova,,2019-07-07T04:00:57.735Z,ico://sk/35562960
424489,"JUDr. Pavel Adamik, exekútor",30803853,Bratislava,2019-07-07T04:00:57.800Z,,Tomášikova,,2019-07-07T04:00:57.800Z,ico://sk/30803853
424511,Obec Pečeňany _ zle ico,310922,Pečeňany,2019-07-07T04:00:57.893Z,95636,,,2019-07-07T04:00:57.893Z,ico://sk/00310922X
424536,"JUDr. Michal Fulka, exekútor",31948511,Košická Polianka,2019-07-07T04:00:58.004Z,,Košická Polianka,,2019-07-07T04:00:58.004Z,ico://sk/31948511
424544,"JUDr. Branislav Plško, exekútor",31761925,Bratislava,2019-07-07T04:00:58.041Z,,Letná,,2019-07-07T04:00:58.041Z,ico://sk/31761925_10001
424545,"JUDr. Jana Plšková, exekútor",42355877,Bratislava,2019-07-07T04:00:58.045Z,,Letná,,2019-07-07T04:00:58.045Z,ico://sk/42355877_10001
424547,"Mgr. Peter Gabriž, exekútor",37852418,Santovka,2019-07-07T04:00:58.053Z,,Ružová,,2019-07-07T04:00:58.053Z,ico://sk/37852418
424548,"JUDr. Matej Kršiak, exekútor",37928325,Bratislava,2019-07-07T04:00:58.057Z,,Československých tankistov,,2019-07-07T04:00:58.057Z,ico://sk/37928325
424556,Mgr. Iveta Ailerová (OVM),44366639,Levice,2019-07-07T04:00:58.091Z,,P. Jilemnického,,2019-07-07T04:00:58.091Z,ico://sk/44366639_10001
424599,Okresný úrad Banská Bystrica - Katastrálny odbor,151866,Banská Bystrica,2019-07-07T04:00:58.301Z,,ČSA,7,2019-07-07T04:00:58.301Z,ico://sk/00151866_10020
424600,Okresný úrad Bratislava - Katastrálny odbor,151866,-,2019-07-07T04:00:58.304Z,82109,Ružová dolina,24,2019-07-07T04:00:58.304Z,ico://sk/00151866_10021
424601,Okresný úrad Košice - Katastrálny odbor,151866,Košice - mestská časť Juh,2019-07-07T04:00:58.308Z,,Južná trieda,82,2019-07-07T04:00:58.308Z,ico://sk/00151866_10027
424602,Okresný úrad Nitra - Katastrálny odbor,151866,Nitra,2019-07-07T04:00:58.311Z,,Štefánikova,69,2019-07-07T04:00:58.311Z,ico://sk/00151866_10022
424603,"JUDr. Ľudovít Gajdoš, exekútor",37800523,Humenné,2019-07-07T04:00:58.315Z,,26. novembra,,2019-07-07T04:00:58.315Z,ico://sk/37800523
424608,"JUDr. Mgr. Milan Gbelský, exekútor",36116980,Bánovcenad Bebravou,2019-07-07T04:00:58.337Z,,A.Hlinku,,2019-07-07T04:00:58.337Z,ico://sk/36116980
424614,"JUDr. Peter Harmata, exekútor",42354803,Bratislava,2019-07-07T04:00:58.358Z,,Sekurisova,,2019-07-07T04:00:58.358Z,ico://sk/42354803
424616,"JUDr. Ladislav Bango, exekútor",34025961,Trnava,2019-07-07T04:00:58.458Z,,Kollárova,,2019-07-07T04:00:58.458Z,ico://sk/34025961
424621,"JUDr. Erika Beňová, exekútor",35544350,Košice,2019-07-07T04:00:58.480Z,,Kuzmányho,,2019-07-07T04:00:58.480Z,ico://sk/35544350
424640,"JUDr. Miroslav Duriš PhD., notár",42350786,Liptovský Mikuláš,2019-07-07T04:00:58.555Z,03101,M. Pišúta,1,2019-07-07T04:00:58.555Z,ico://sk/42350786
424661,Okresný úrad Prešov - Katastrálny odbor,151866,Prešov,2019-07-07T04:00:58.656Z,,Konštantínova,6,2019-07-07T04:00:58.656Z,ico://sk/00151866_10023
424662,Okresný úrad Trenčín - Katastrálny odbor,151866,-,2019-07-07T04:00:58.660Z,91101,Piaristická,25,2019-07-07T04:00:58.660Z,ico://sk/00151866_10024
424663,Okresný úrad Trnava - Katastrálny odbor,151866,Trnava,2019-07-07T04:00:58.664Z,,Vajanského,2,2019-07-07T04:00:58.664Z,ico://sk/00151866_10025
424664,Okresný úrad Žilina - Katastrálny odbor,151866,Žilina,2019-07-07T04:00:58.667Z,,Andreja Kmeťa,17,2019-07-07T04:00:58.667Z,ico://sk/00151866_10026
424676,"JUDr. Ján Hesoun, exekútor",34061274,Nové Zámky,2019-07-07T04:00:58.779Z,,Komárňanská cesta,,2019-07-07T04:00:58.779Z,ico://sk/34061274
424682,"JUDr. Zita Leváková, exekútor",36091707,Trnava,2019-07-07T04:00:58.803Z,,Františkánska č.,,2019-07-07T04:00:58.803Z,ico://sk/36091707
424686,Mgr. Peter Bertók (OVM),42324793,Košice,2019-07-07T04:00:58.818Z,,Murgašova,,2019-07-07T04:00:58.818Z,ico://sk/42324793_10001
424690,"JUDr. Beata Boncseková, exekútor",36108570,Komárno,2019-07-07T04:00:58.833Z,,Ul. bisk. Királya,,2019-07-07T04:00:58.833Z,ico://sk/36108570
424696,Okresný úrad Púchov – katastrálny odbor,151866,Púchov,2019-07-07T04:00:58.855Z,02001,Štefániková,,2019-07-07T04:00:58.855Z,ico://sk/00151866_10124
424742,Mgr. Barbora Budziňáková (OVM) - exekútor,42354862,Bratislava,2019-07-07T04:00:59.019Z,81103,Kozia,17,2019-07-07T04:00:59.019Z,ico://sk/42354862_10001
424807,"Mgr. Štefan Marček, exekútor",32625367,Lučenec,2019-07-07T04:00:59.266Z,,Jiráskova,,2019-07-07T04:00:59.266Z,ico://sk/32625367
424814,"JUDr. Michal Burda, exekútor",36163554,Humenné,2019-07-07T04:00:59.291Z,,Štefánikova,,2019-07-07T04:00:59.291Z,ico://sk/36163554
424820,Mesto Čierna nad Tisou,331465,Čierna nad Tisou,2019-07-07T04:00:59.316Z,07643,Námestie pionierov,1,2019-07-07T04:00:59.316Z,ico://sk/00331465_10001
424865,"JUDr. Ján Siget, advokát",40276449,Žilina,2019-07-07T04:00:59.485Z,,Bottova,,2019-07-07T04:00:59.485Z,ico://sk/40276449_19998
424868,"Mgr. Dáša Skýpalová, exekútor",31783481,Bratislava,2019-07-07T04:00:59.496Z,,Plynárenská,,2019-07-07T04:00:59.496Z,ico://sk/31783481
424936,"JUDr. Bartolomej Jakubčák, exekútor",35517948,Michalovce,2019-07-07T04:00:59.765Z,,Nám.Slobody,,2019-07-07T04:00:59.765Z,ico://sk/35517948
424941,Mgr. Lujza Michalovičová (OVM),42188903,Zvolen,2019-07-07T04:00:59.785Z,,Stráž,223,2019-07-07T04:00:59.785Z,ico://sk/42188903_10001
424949,Mgr. Jozef Deák (OVM),42196477,Banská Bystrica,2019-07-07T04:00:59.818Z,,Horná,,2019-07-07T04:00:59.818Z,ico://sk/42196477_10001
424991,"Mgr. Marián Janec, súdny exekútor",42214939,Žilina,2019-07-07T04:00:59.974Z,,Sad SNP,12,2019-07-07T04:00:59.974Z,ico://sk/42214939_10001
424999,"JUDr. Vladimír Sucháček, exekútor",36101044,Pezinok,2019-07-07T04:01:00.003Z,,Hrnčiarska,,2019-07-07T04:01:00.003Z,ico://sk/36101044
425003,"JUDr. Paulína Demianová, exekútor",42266947,Bratislava,2019-07-07T04:01:00.023Z,,Vajnorská,,2019-07-07T04:01:00.023Z,ico://sk/42266947
425004,"JUDr. Mgr. Andrej Dembický, exekútor",31274765,Košice,2019-07-07T04:01:00.027Z,,Werferova,,2019-07-07T04:01:00.027Z,ico://sk/31274765
425005,"JUDr. Anetta Demešová, exekútor",42208360,Vráble,2019-07-07T04:01:00.032Z,,1. mája,,2019-07-07T04:01:00.032Z,ico://sk/42208360
425008,"JUDr. Ladislav Mikeska, exekútor",37902857,Liptovský Mikuláš,2019-07-07T04:01:00.051Z,,M. Pišúta,,2019-07-07T04:01:00.051Z,ico://sk/37902857
425009,"Mgr. Monika Mikulíková, exekútor",35658681,Banská Bystrica,2019-07-07T04:01:00.061Z,,Rudlovská cesta,,2019-07-07T04:01:00.061Z,ico://sk/35658681
425049,"Mgr. Katarína Szabóová, exekútor",37848666,Dunajská Streda,2019-07-07T04:01:00.230Z,,Nám. A. Vámbéryho,,2019-07-07T04:01:00.230Z,ico://sk/37848666
425050,"JUDr. Alena Szalayová, exekútor",36100021,Levice,2019-07-07T04:01:00.235Z,,P. Jilemnického,,2019-07-07T04:01:00.235Z,ico://sk/36100021
425063,Obec Hliník nad Hronom - matričný úrad,320609,Hliník nad Hronom,2019-07-07T04:01:00.290Z,96601,Železničná,,2019-07-07T04:01:00.290Z,ico://sk/00320609_10001
425101,"JUDr. Jozef Kaduch, exekútor",35655887,Žilina,2019-07-07T04:01:00.488Z,,Dolný Val,,2019-07-07T04:01:00.488Z,ico://sk/35655887
425109,"JUDr. Viera Šovčíková, exekútor",31760775,Bratislava,2019-07-07T04:01:00.530Z,,Obchodná,,2019-07-07T04:01:00.530Z,ico://sk/31760775
425152,"JUDr. PhDr. Pavel Štukovský, exekútor",34056700,Nové Mesto n/Váhom,2019-07-07T04:01:00.777Z,,Holubyho,,2019-07-07T04:01:00.777Z,ico://sk/34056700
425158,Mgr. Martin Thomka (OVM),42218373,Martin,2019-07-07T04:01:00.802Z,,A.Kmeťa,,2019-07-07T04:01:00.802Z,ico://sk/42218373_10001
425204,Mgr. Sandra Tudíková (OVM),42183201,Bratislava,2019-07-07T04:01:01.055Z,,Zelená,,2019-07-07T04:01:01.055Z,ico://sk/42183201_10001
425346,Obec Bohdanovce nad Trnavou - Matričný úrad,312266,Bohdanovce nad Trnavou,2019-07-07T04:01:01.683Z,91909,,,2019-07-07T04:01:01.683Z,ico://sk/00312266_10001
425429,Obec Horné Orešany - Matričný úrad,312533,Horné Orešany,2019-07-07T04:01:02.194Z,91903,,,2019-07-07T04:01:02.194Z,ico://sk/00312533_10001
425892,Obec Ľubá - Matričný úrad,309052,Ľubá,2019-07-07T04:01:04.507Z,94353,,,2019-07-07T04:01:04.507Z,ico://sk/00309052_10001
425911,Základná škola s materskou školou Krásno nad Kysucou,37812131,,2019-07-07T04:01:04.614Z,,,,2019-07-07T04:01:04.614Z,ico://sk/37812131
426034,Okresný úrad Ilava - katastrálny odbor,151866,Ilava,2019-07-07T04:01:05.271Z,01901,Mierové námestie,18,2019-07-07T04:01:05.271Z,ico://sk/00151866_10005
426066,"Stredná odborná škola- Szakkőzépiskola, Kravany nad Dunajom",159042,Kravany nad Dunajom,2019-07-07T04:01:05.623Z,94636,Dunajský rad,,2019-07-07T04:01:05.623Z,ico://sk/0159042
426114,"Úrad práce, sociálnych vecí a rodiny Malacky",30794552,Malacky,2019-07-07T04:01:06.089Z,90101,Záhorácka,60A,2019-07-07T04:01:06.089Z,ico://sk/30794552
426172,Základná škola Bidovce,31986081,,2019-07-07T04:01:06.605Z,,,,2019-07-07T04:01:06.605Z,ico://sk/31986081
426286,"Úrad práce, sociálnych vecí a rodiny Považská Bystrica",37916297,Považská Bystrica,2019-07-07T04:01:20.013Z,01701,Centrum,17,2019-07-07T04:01:20.013Z,ico://sk/37916297
426694,testovacia OJ,42156424,,2019-07-07T04:01:27.468Z,,,,2019-07-07T04:01:27.468Z,ico://sk/42156424_10021
426364,TEST OVM MM update name,80060001,,2019-07-07T04:01:20.731Z,,,,2019-07-07T04:01:20.731Z,ico://sk/80060001
426367,Test_OJ_23_01,87456123,,2019-07-07T04:01:20.756Z,,,,2019-07-07T04:01:20.756Z,ico://sk/87456123_107666
426369,TestOVM_10_06,110011,,2019-07-07T04:01:20.774Z,,,,2019-07-07T04:01:20.774Z,ico://sk/00110011
426372,Test OJ1,42156424,,2019-07-07T04:01:20.799Z,,,,2019-07-07T04:01:20.799Z,ico://sk/42156424_10029
426386,oj test,42156424,,2019-07-07T04:01:20.934Z,,,,2019-07-07T04:01:20.934Z,ico://sk/42156424_10026
426387,test OJ MH,42156424,,2019-07-07T04:01:20.944Z,,,,2019-07-07T04:01:20.944Z,ico://sk/42156424_10006
426388,Test OJ MM update,42156424,,2019-07-07T04:01:20.952Z,,,,2019-07-07T04:01:20.952Z,ico://sk/42156424_10009
426390,Orgán verejnej moci TEST2_12_12,87411123,,2019-07-07T04:01:20.968Z,,,,2019-07-07T04:01:20.968Z,ico://sk/87411123
426405,Test_UPVS,33333666,,2019-07-07T04:01:21.090Z,,,,2019-07-07T04:01:21.090Z,ico://sk/33333666
426424,T OJ,42156424,,2019-07-07T04:01:21.226Z,,,,2019-07-07T04:01:21.226Z,ico://sk/42156424_10024
426425,NASES OJ_test,42156424,,2019-07-07T04:01:21.232Z,,,,2019-07-07T04:01:21.232Z,ico://sk/42156424_10007
426428,TEST_OVM_12_8,130029,,2019-07-07T04:01:21.254Z,,,,2019-07-07T04:01:21.254Z,ico://sk/00130029
426430,Daňový úrad Banská Bystrica - kontaktné miesto Detva,42499500,Detva,2019-07-07T04:01:21.269Z,962 12,J.G.Tajovského,1462,2019-07-07T04:01:21.269Z,ico://sk/42499500_10091
426431,Daňový úrad Banská Bystrica - kontaktné miesto Krupina,42499500,Krupina,2019-07-07T04:01:21.276Z,963 01,Kuzmányho,4,2019-07-07T04:01:21.276Z,ico://sk/42499500_10092
426432,Daňový úrad Banská Bystrica - kontaktné miesto Revúca,42499500,Revúca,2019-07-07T04:01:21.282Z,050 62,Ul. Jilemnického,36,2019-07-07T04:01:21.282Z,ico://sk/42499500_10093
426433,Daňový úrad Banská Bystrica - kontaktné miesto Tornaľa,42499500,Tornaľa,2019-07-07T04:01:21.289Z,982 01,Škultétyho,12,2019-07-07T04:01:21.289Z,ico://sk/42499500_10094
426434,Daňový úrad Banská Bystrica - pobočka Brezno,42499500,Brezno,2019-07-07T04:01:21.304Z,977 01,Laskomerského,14,2019-07-07T04:01:21.304Z,ico://sk/42499500_10095
426435,Daňový úrad Banská Bystrica - pobočka Lučenec,42499500,Lučenec,2019-07-07T04:01:21.311Z,984 01,Novohradská,9,2019-07-07T04:01:21.311Z,ico://sk/42499500_10096
426436,Daňový úrad Banská Bystrica - pobočka Rimavská Sobota,42499500,Rimavská Sobota,2019-07-07T04:01:21.318Z,979 01,"Francisciho, P.O.BOX 126",9,2019-07-07T04:01:21.318Z,ico://sk/42499500_10097
426437,Daňový úrad Banská Bystrica - pobočka Veľký Krtíš,42499500,Veľký Krtíš,2019-07-07T04:01:21.324Z,990 22,SNP,2,2019-07-07T04:01:21.324Z,ico://sk/42499500_10098
426438,Daňový úrad Banská Bystrica - pobočka Zvolen,42499500,Zvolen,2019-07-07T04:01:21.330Z,960 99,J. Kozáčeka,38,2019-07-07T04:01:21.330Z,ico://sk/42499500_10099
426443,"JUDr. Jozef Oceľ, notár",42304202,Banská Bystrica,2019-07-07T04:01:21.365Z,97401,Československej armády,26,2019-07-07T04:01:21.365Z,ico://sk/42304202_10001
426446,Daňový úrad Prešov - kontaktné miesto Stropkov,42499500,Stropkov,2019-07-07T04:01:21.384Z,091 01,Hlavná,61,2019-07-07T04:01:21.384Z,ico://sk/42499500_10145
426447,Daňový úrad Prešov - pobočka Bardejov,42499500,Bardejov,2019-07-07T04:01:21.393Z,085 28,Partizánska,3014,2019-07-07T04:01:21.393Z,ico://sk/42499500_10146
426448,Daňový úrad Prešov - pobočka Humenné,42499500,Humenné,2019-07-07T04:01:21.400Z,066 39,Štefánikova,18,2019-07-07T04:01:21.400Z,ico://sk/42499500_10147
426449,Daňový úrad Prešov - pobočka Poprad,42499500,Poprad,2019-07-07T04:01:21.406Z,058 01,Štefánikova,13,2019-07-07T04:01:21.406Z,ico://sk/42499500_10148
426450,Daňový úrad Prešov - pobočka Stará Ľubovňa,42499500,Stará Ľubovňa,2019-07-07T04:01:21.413Z,064 01,Prešovská,1,2019-07-07T04:01:21.413Z,ico://sk/42499500_10149
426451,Daňový úrad Prešov - pobočka Svidník,42499500,Svidník,2019-07-07T04:01:21.420Z,089 01,Gen. Svobodu,29,2019-07-07T04:01:21.420Z,ico://sk/42499500_10150
426452,Daňový úrad Prešov - pobočka Vranov nad Topľou,42499500,Vranov nad Topľou,2019-07-07T04:01:21.430Z,093 30,Námestie slobody,968,2019-07-07T04:01:21.430Z,ico://sk/42499500_10151
426453,Daňový úrad Trenčín,42499500,Trenčín,2019-07-07T04:01:21.448Z,911 33,K dolnej stanici,22,2019-07-07T04:01:21.448Z,ico://sk/42499500_10152
426454,Daňový úrad Trenčín - kontaktné miesto Bánovce nad Bebravou,42499500,Bánovce nad Bebravou,2019-07-07T04:01:21.473Z,957 01,Nám. Ľ.Štúra,7.1,2019-07-07T04:01:21.473Z,ico://sk/42499500_10153
426455,Colný úrad Košice - pobočka Košice - daňová,42499500,,2019-07-07T04:01:21.489Z,040 02,Jiskrova,5,2019-07-07T04:01:21.489Z,ico://sk/42499500_10020
426456,Colný úrad Košice - pobočka Košice - Haniska - colná,42499500,Haniska,2019-07-07T04:01:21.506Z,044 57,Areál prekladisko Haniska,,2019-07-07T04:01:21.506Z,ico://sk/42499500_10021
426457,Colný úrad Košice - pobočka Košice Letisko - hraničná,42499500,,2019-07-07T04:01:21.518Z,041 75,Letisko Košice,982,2019-07-07T04:01:21.518Z,ico://sk/42499500_10022
426458,Colný úrad Michalovce - pobočka Dobrá- terminál kombinovanej dopravy colná a daňová,42499500,Čierna nad Tisou,2019-07-07T04:01:21.533Z,076 43,Terminál kombinovanej dopravy Dobrá,,2019-07-07T04:01:21.533Z,ico://sk/42499500_10031
426459,Colný úrad Michalovce - pobočka Maťovce - železničný colný hraničný široký rozchod,42499500,Veľké Kapušany,2019-07-07T04:01:21.551Z,079 01,Maťovce ŽSR - široký rozchod,,2019-07-07T04:01:21.551Z,ico://sk/42499500_10032
426460,Colný úrad Michalovce - pobočka Michalovce - colná a daňová,42499500,Michalovce,2019-07-07T04:01:21.564Z,071 01,Plynárenská,4,2019-07-07T04:01:21.564Z,ico://sk/42499500_10033
426461,Colný úrad Michalovce - pobočka Trebišov - daňová,42499500,Trebišov,2019-07-07T04:01:21.578Z,075 01,M.R. Štefánika,29,2019-07-07T04:01:21.578Z,ico://sk/42499500_10034
426462,Colný úrad Michalovce - pobočka Ubľa - cestný colný hraničný priechod,42499500,Ubľa,2019-07-07T04:01:21.590Z,067 73,Hraničný priechod Ubľa,,2019-07-07T04:01:21.590Z,ico://sk/42499500_10035
426463,Colný úrad Michalovce - pobočka Veľké Slemence - cestný colný hraničný prechod,42499500,Ruská,2019-07-07T04:01:21.601Z,076 77,Hraničný priechod Veľké Slemence,,2019-07-07T04:01:21.601Z,ico://sk/42499500_10036
426464,Daňový úrad Banská Bystrica - pobočka Žiar nad Hronom,42499500,Žiar nad Hronom,2019-07-07T04:01:21.610Z,965 01,Ul. SNP,132,2019-07-07T04:01:21.610Z,ico://sk/42499500_10100
426465,Daňový úrad Bratislava,42499500,,2019-07-07T04:01:21.617Z,831 53,Račianska,153,2019-07-07T04:01:21.617Z,ico://sk/42499500_10101
426466,Daňový úrad Bratislava,42499500,,2019-07-07T04:01:21.626Z,817 73,Radlinského,37,2019-07-07T04:01:21.626Z,ico://sk/42499500_10102
426467,Daňový úrad Bratislava,42499500,,2019-07-07T04:01:21.634Z,850 00,"Ševčenkova, P.O.Box 154",32,2019-07-07T04:01:21.634Z,ico://sk/42499500_10103
426468,Daňový úrad Bratislava,42499500,,2019-07-07T04:01:21.649Z,821 02,V.Clementisa,10,2019-07-07T04:01:21.649Z,ico://sk/42499500_10104
426469,Daňový úrad Bratislava - pobočka Malacky,42499500,Malacky,2019-07-07T04:01:21.657Z,901 01,Záhorácka,17,2019-07-07T04:01:21.657Z,ico://sk/42499500_10105
426470,Daňový úrad Bratislava - pobočka Pezinok,42499500,Pezinok,2019-07-07T04:01:21.666Z,902 01,Moyzesova,2,2019-07-07T04:01:21.666Z,ico://sk/42499500_10106
426471,Daňový úrad Bratislava - pobočka Senec,42499500,Senec,2019-07-07T04:01:21.674Z,903 01,Mierové námestie,17,2019-07-07T04:01:21.674Z,ico://sk/42499500_10107
426472,Daňový úrad Košice,42499500,,2019-07-07T04:01:21.682Z,041 90,Rozvojová,2,2019-07-07T04:01:21.682Z,ico://sk/42499500_10108
426473,Daňový úrad Košice,42499500,,2019-07-07T04:01:21.689Z,040 01,Tomášikova,35,2019-07-07T04:01:21.689Z,ico://sk/42499500_10109
426474,Test OVM MM 2001,80060100,,2019-07-07T04:01:21.697Z,,,,2019-07-07T04:01:21.697Z,ico://sk/80060100
426475,Colný úrad Michalovce - pobočka Vyšné Nemecké - cestný colný hraničný prechod,42499500,Krčava,2019-07-07T04:01:21.704Z,072 51,Hraničný priechod Vyšné Nemecké,,2019-07-07T04:01:21.704Z,ico://sk/42499500_10037
426476,Colný úrad Nitra,42499500,Nitra,2019-07-07T04:01:21.715Z,950 50,Priemyselná,5,2019-07-07T04:01:21.715Z,ico://sk/42499500_10038
426477,Daňový úrad Trenčín - kontaktné miesto Dubnica nad Váhom,42499500,Dubnica nad Váhom,2019-07-07T04:01:21.727Z,018 41,Bratislavská,380,2019-07-07T04:01:21.727Z,ico://sk/42499500_10154
426478,Daňový úrad Trenčín - kontaktné miesto Myjava,42499500,Myjava,2019-07-07T04:01:21.738Z,907 01,M.R. Štefánika,6,2019-07-07T04:01:21.738Z,ico://sk/42499500_10155
426479,Daňový úrad Trenčín - kontaktné miesto Púchov,42499500,Púchov,2019-07-07T04:01:21.758Z,020 01,Štefánikova,820,2019-07-07T04:01:21.758Z,ico://sk/42499500_10156
426480,Daňový úrad Trenčín - pobočka Nové Mesto nad Váhom,42499500,Nové Mesto nad Váhom,2019-07-07T04:01:21.772Z,915 01,Hviezdoslavova,36,2019-07-07T04:01:21.772Z,ico://sk/42499500_10157
426481,Daňový úrad Trenčín - pobočka Partizánske,42499500,Partizánske,2019-07-07T04:01:21.788Z,958 29,Makarenkova,1,2019-07-07T04:01:21.788Z,ico://sk/42499500_10158
426482,Daňový úrad Trenčín - pobočka Považská Bystrica,42499500,Považská Bystrica,2019-07-07T04:01:21.809Z,017 01,Centrum,43,2019-07-07T04:01:21.809Z,ico://sk/42499500_10159
426483,Daňový úrad Trenčín - pobočka Prievidza,42499500,Prievidza,2019-07-07T04:01:21.823Z,971 01,ul. G. Švéniho,2727,2019-07-07T04:01:21.823Z,ico://sk/42499500_10160
426484,Daňový úrad Trnava,42499500,Trnava,2019-07-07T04:01:21.847Z,917 65,Hlboká,8/1,2019-07-07T04:01:21.847Z,ico://sk/42499500_10161
426485,Daňový úrad Košice - kontaktné miesto Gelnica,42499500,Gelnica,2019-07-07T04:01:21.857Z,056 01,Slovenská,52,2019-07-07T04:01:21.857Z,ico://sk/42499500_10110
426486,Daňový úrad Košice - kontaktné miesto Kráľovský Chlmec,42499500,Kráľovský Chlmec,2019-07-07T04:01:21.868Z,077 01,Mierová,2,2019-07-07T04:01:21.868Z,ico://sk/42499500_10111
426487,Daňový úrad Košice - kontaktné miesto Moldava nad Bodvou,42499500,Moldava nad Bodvou,2019-07-07T04:01:21.886Z,045 23,Hlavná,112,2019-07-07T04:01:21.886Z,ico://sk/42499500_10112
426488,Daňový úrad Košice - kontaktné miesto Sobrance,42499500,Sobrance,2019-07-07T04:01:21.904Z,073 01,Švermova,16,2019-07-07T04:01:21.904Z,ico://sk/42499500_10113
426489,Daňový úrad Košice - kontaktné miesto Veľké Kapušany,42499500,Veľké Kapušany,2019-07-07T04:01:21.920Z,079 01,P. O. Hviezdoslava,75,2019-07-07T04:01:21.920Z,ico://sk/42499500_10114
426490,Daňový úrad Košice - pobočka Michalovce,42499500,Michalovce,2019-07-07T04:01:21.934Z,071 01,Alexandra Markuša,1,2019-07-07T04:01:21.934Z,ico://sk/42499500_10115
426491,Daňový úrad Košice - pobočka Rožňava,42499500,Rožňava,2019-07-07T04:01:21.960Z,048 17,Zeleného stromu,10,2019-07-07T04:01:21.960Z,ico://sk/42499500_10116
426492,Daňový úrad Košice - pobočka Spišská Nová Ves,42499500,Spišská Nová Ves,2019-07-07T04:01:21.984Z,052 73,Školská,24,2019-07-07T04:01:21.984Z,ico://sk/42499500_10117
426493,Daňový úrad Košice - pobočka Trebišov,42499500,Trebišov,2019-07-07T04:01:22.008Z,075 01,Jána Husa,10,2019-07-07T04:01:22.008Z,ico://sk/42499500_10118
426494,Daňový úrad Nitra,42499500,Nitra,2019-07-07T04:01:22.022Z,949 01,Coboriho,2,2019-07-07T04:01:22.022Z,ico://sk/42499500_10119
426495,Daňový úrad Trnava,42499500,Trnava,2019-07-07T04:01:22.031Z,917 65,Piešťanská,3,2019-07-07T04:01:22.031Z,ico://sk/42499500_10162
426496,Colný úrad Košice - pobočka Košice Pošta - hraničná,42499500,,2019-07-07T04:01:22.040Z,040 02,Thurzova,3,2019-07-07T04:01:22.040Z,ico://sk/42499500_10023
426497,Colný úrad Košice - pobočka Rožňava - colná časť kombinovanej PCÚ,42499500,Rožňava,2019-07-07T04:01:22.049Z,048 01,Štítnická,23,2019-07-07T04:01:22.049Z,ico://sk/42499500_10024
426498,Colný úrad Košice - pobočka Rožňava - daňová časť kombinovanej PCÚ,42499500,Rožňava,2019-07-07T04:01:22.058Z,048 17,Zeleného stromu,10,2019-07-07T04:01:22.058Z,ico://sk/42499500_10025
426499,Colný úrad Košice - pobočka Spišská Nová Ves - colná a daňová,42499500,Spišská Nová Ves,2019-07-07T04:01:22.077Z,052 01,Odborárov,10,2019-07-07T04:01:22.077Z,ico://sk/42499500_10026
426500,Colný úrad Košice - stanica CÚ Košice - centrála,42499500,,2019-07-07T04:01:22.095Z,040 01,Národná trieda,27,2019-07-07T04:01:22.095Z,ico://sk/42499500_10027
426501,Colný úrad Michalovce,42499500,Michalovce,2019-07-07T04:01:22.125Z,071 01,Plynárenská,4,2019-07-07T04:01:22.125Z,ico://sk/42499500_10028
426502,Colný úrad Michalovce - Odd. špeciálnych technológií,42499500,Krčava,2019-07-07T04:01:22.138Z,072 51,Hraničný priechod Vyšné Nemecké/ Hraničný priechod Maťovce,,2019-07-07T04:01:22.138Z,ico://sk/42499500_10029
426503,Colný úrad Michalovce - pobočka Čierna nad Tisou - železničný colný hraničný prechod,42499500,Čierna nad Tisou,2019-07-07T04:01:22.163Z,076 43,Železničná,212,2019-07-07T04:01:22.163Z,ico://sk/42499500_10030
426504,Daňový úrad Nitra,42499500,Nitra,2019-07-07T04:01:22.177Z,949 01,Damborského,5,2019-07-07T04:01:22.177Z,ico://sk/42499500_10120
426505,Daňový úrad Nitra,42499500,Nitra,2019-07-07T04:01:22.197Z,949 01,Vodná,33,2019-07-07T04:01:22.197Z,ico://sk/42499500_10121
426506,Daňový úrad Nitra - kontaktné miesto Hurbanovo,42499500,Hurbanovo,2019-07-07T04:01:22.208Z,947 01,Komárňanská,147,2019-07-07T04:01:22.208Z,ico://sk/42499500_10122
426507,Daňový úrad Nitra - kontaktné miesto Kolárovo,42499500,Kolárovo,2019-07-07T04:01:22.223Z,946 03,Dlhá ulica,2,2019-07-07T04:01:22.223Z,ico://sk/42499500_10123
426508,Daňový úrad Nitra - kontaktné miesto Šahy,42499500,Šahy,2019-07-07T04:01:22.235Z,936 01,F. Rákócziho II.,7,2019-07-07T04:01:22.235Z,ico://sk/42499500_10124
426509,Daňový úrad Nitra - kontaktné miesto Šala,42499500,Šaľa,2019-07-07T04:01:22.246Z,927 01,P. Pázmaňa,19,2019-07-07T04:01:22.246Z,ico://sk/42499500_10125
426510,Daňový úrad Nitra - kontaktné miesto Šurany,42499500,Šurany,2019-07-07T04:01:22.260Z,942 01,ul. SNP,69,2019-07-07T04:01:22.260Z,ico://sk/42499500_10126
426511,Daňový úrad Nitra - kontaktné miesto Zlaté Moravce,42499500,Zlaté Moravce,2019-07-07T04:01:22.269Z,953 01,Hviezdoslavova,183,2019-07-07T04:01:22.269Z,ico://sk/42499500_10127
426512,Daňový úrad Nitra - kontaktné miesto Želiezovce,42499500,Želiezovce,2019-07-07T04:01:22.280Z,937 01,Komenského,8,2019-07-07T04:01:22.280Z,ico://sk/42499500_10128
426513,Daňový úrad Nitra - pobočka Komárno,42499500,Komárno,2019-07-07T04:01:22.296Z,945 05,Dunajské nábrežie,11,2019-07-07T04:01:22.296Z,ico://sk/42499500_10129
426514,TEST OVM MM 1812_01,80063000,,2019-07-07T04:01:22.317Z,,,,2019-07-07T04:01:22.317Z,ico://sk/80063000
426515,Colný úrad Nitra - pobočka Komárno - colná a daňová,42499500,Komárno,2019-07-07T04:01:22.329Z,945 01,Most,,2019-07-07T04:01:22.329Z,ico://sk/42499500_10039
426516,Colný úrad Nitra - pobočka Levice - colná a daňová,42499500,Levice,2019-07-07T04:01:22.340Z,934 01,Družstevnícka,5089,2019-07-07T04:01:22.340Z,ico://sk/42499500_10040
426517,Colný úrad Nitra - pobočka Nitra - colná,42499500,Nitra,2019-07-07T04:01:22.349Z,950 50,Bratislavská,3,2019-07-07T04:01:22.349Z,ico://sk/42499500_10041
426518,Colný úrad Nitra - pobočka Nitra Priemyselná - daňová,42499500,Nitra,2019-07-07T04:01:22.359Z,950 50,Priemyselná,5,2019-07-07T04:01:22.359Z,ico://sk/42499500_10042
426519,Colný úrad Nitra - pobočka Nové Zámky nácestné stredisko - colná a daňová,42499500,Nové Zámky,2019-07-07T04:01:22.369Z,940 01,Komárňanská cesta,13,2019-07-07T04:01:22.369Z,ico://sk/42499500_10043
426520,Colný úrad Nitra - pobočka Štúrovo - daňová,42499500,Štúrovo,2019-07-07T04:01:22.387Z,943 01,Námestie Slobody,9,2019-07-07T04:01:22.387Z,ico://sk/42499500_10044
426521,Colný úrad Nitra - pobočka Topoľčany - colná a daňová,42499500,Topoľčany,2019-07-07T04:01:22.403Z,955 01,M. Rázusa,44,2019-07-07T04:01:22.403Z,ico://sk/42499500_10045
426522,Colný úrad Nitra - stanica CÚ Nitra - centrála,42499500,Nitra,2019-07-07T04:01:22.429Z,950 50,Priemyselná,5,2019-07-07T04:01:22.429Z,ico://sk/42499500_10046
426523,Colný úrad Nitra - stanica CÚ Štúrovo,42499500,Štúrovo,2019-07-07T04:01:22.452Z,943 01,Nám. Slobody,9,2019-07-07T04:01:22.452Z,ico://sk/42499500_10047
426524,Daňový úrad Trnava - kontaktné miesto Hlohovec,42499500,Hlohovec,2019-07-07T04:01:22.477Z,920 01,Podzámska,39,2019-07-07T04:01:22.477Z,ico://sk/42499500_10163
426525,Daňový úrad Nitra - pobočka Levice,42499500,Levice,2019-07-07T04:01:22.495Z,934 03,Vajanského,5,2019-07-07T04:01:22.495Z,ico://sk/42499500_10130
426526,Daňový úrad Nitra - pobočka Nové Zámky,42499500,Nové Zámky,2019-07-07T04:01:22.513Z,940 62,Kukučínova,1,2019-07-07T04:01:22.513Z,ico://sk/42499500_10131
426527,Daňový úrad Nitra - pobočka Štúrovo,42499500,Štúrovo,2019-07-07T04:01:22.526Z,943 01,Ostrihomská cesta,5,2019-07-07T04:01:22.526Z,ico://sk/42499500_10132
426528,Daňový úrad Nitra - pobočka Topoľčany,42499500,Topoľčany,2019-07-07T04:01:22.541Z,955 56,Krušovská,89,2019-07-07T04:01:22.541Z,ico://sk/42499500_10133
426529,"Daňový úrad pre VDS, referát",42499500,Žilina,2019-07-07T04:01:22.559Z,010 01,Janka Kráľa,2,2019-07-07T04:01:22.559Z,ico://sk/42499500_10134
426530,"Daňový úrad pre VDS, referát",42499500,Banská Bystrica,2019-07-07T04:01:22.577Z,974 01,Lazovná,63,2019-07-07T04:01:22.577Z,ico://sk/42499500_10135
426531,"Daňový úrad pre VDS, referát",42499500,,2019-07-07T04:01:22.589Z,040 01,Tomášikova,35,2019-07-07T04:01:22.589Z,ico://sk/42499500_10136
426532,Daňový úrad pre vybrané daňové subjekty,42499500,,2019-07-07T04:01:22.607Z,817 73,Radlinského,37,2019-07-07T04:01:22.607Z,ico://sk/42499500_10137
426533,Daňový úrad Prešov,42499500,Prešov,2019-07-07T04:01:22.627Z,080 01,Hviezdoslavova,7,2019-07-07T04:01:22.627Z,ico://sk/42499500_10138
426534,Daňový úrad Prešov,42499500,Prešov,2019-07-07T04:01:22.645Z,080 01,Jarkova,48,2019-07-07T04:01:22.645Z,ico://sk/42499500_10139
426535,Daňový úrad Prešov,42499500,Prešov,2019-07-07T04:01:22.663Z,080 01,Hurbanistov,3,2019-07-07T04:01:22.663Z,ico://sk/42499500_10140
426536,Daňový úrad Trnava - kontaktné miesto Šamorín,42499500,Šamorín,2019-07-07T04:01:22.678Z,931 01,Obilná,2,2019-07-07T04:01:22.678Z,ico://sk/42499500_10164
426537,Daňový úrad Trnava - pobočka Dunajská Streda,42499500,Dunajská Streda,2019-07-07T04:01:22.717Z,929 01,Biskupa Kondého,2,2019-07-07T04:01:22.717Z,ico://sk/42499500_10165
426538,Daňový úrad Trnava - pobočka Galanta,42499500,Galanta,2019-07-07T04:01:22.739Z,924 30,Hodská,4,2019-07-07T04:01:22.739Z,ico://sk/42499500_10166
426539,Daňový úrad Trnava - pobočka Piešťany,42499500,Piešťany,2019-07-07T04:01:22.750Z,921 01,J. Záborského,40,2019-07-07T04:01:22.750Z,ico://sk/42499500_10167
426540,Daňový úrad Trnava - pobočka Senica,42499500,Senica,2019-07-07T04:01:22.763Z,905 01,Nám.Oslobodenia,6,2019-07-07T04:01:22.763Z,ico://sk/42499500_10168
426541,Daňový úrad Trnava - pobočka Skalica,42499500,Skalica,2019-07-07T04:01:22.775Z,909 01,Mallého,56,2019-07-07T04:01:22.775Z,ico://sk/42499500_10169
426542,Daňový úrad Žilina,42499500,Žilina,2019-07-07T04:01:22.794Z,010 01,A. Bernoláka,53,2019-07-07T04:01:22.794Z,ico://sk/42499500_10170
426543,Daňový úrad Žilina,42499500,Žilina,2019-07-07T04:01:22.822Z,010 01,A. Bernoláka,55,2019-07-07T04:01:22.822Z,ico://sk/42499500_10171
426544,Daňový úrad Žilina,42499500,Žilina,2019-07-07T04:01:22.839Z,010 01,Janka Kráľa,2,2019-07-07T04:01:22.839Z,ico://sk/42499500_10172
426545,Daňový úrad Žilina - kontaktné miesto Bytča,42499500,Bytča,2019-07-07T04:01:22.856Z,014 01,Treskoňova,7,2019-07-07T04:01:22.856Z,ico://sk/42499500_10173
426546,Daňový úrad Prešov - kontaktné miesto Kežmarok,42499500,Kežmarok,2019-07-07T04:01:23.557Z,060 26,Huncovská,1,2019-07-07T04:01:23.557Z,ico://sk/42499500_10141
426547,Daňový úrad Prešov - kontaktné miesto Levoča,42499500,Levoča,2019-07-07T04:01:23.705Z,054 21,Ružová,1,2019-07-07T04:01:23.705Z,ico://sk/42499500_10142
426548,Daňový úrad Prešov - kontaktné miesto Sabinov,42499500,Sabinov,2019-07-07T04:01:23.820Z,083 01,Ružová,63,2019-07-07T04:01:23.820Z,ico://sk/42499500_10143
426549,Daňový úrad Prešov - kontaktné miesto Snina,42499500,Snina,2019-07-07T04:01:23.929Z,069 50,Vihorlatská,1991,2019-07-07T04:01:23.929Z,ico://sk/42499500_10144
426550,Colný úrad Banská Bystrica - pobočka Banská Bystrica Pošta (colná - hraničná),42499500,,2019-07-07T04:01:23.959Z,974 05,Zvolenská cesta,36,2019-07-07T04:01:23.959Z,ico://sk/42499500_10003
426551,Colný úrad Banská Bystrica - PCÚ Rimavská Sobota,42499500,,2019-07-07T04:01:23.983Z,97901,Francisciho,9,2019-07-07T04:01:23.983Z,ico://sk/42499500_10004
426552,Colný úrad Banská Bystrica - stanica CÚ Banská Bystrica - centrála,42499500,Banská Bystrica,2019-07-07T04:01:24.008Z,975 90,Partizánska cesta,17,2019-07-07T04:01:24.008Z,ico://sk/42499500_10007
426553,Colný úrad Banská Bystrica - stanica CÚ Lučenec,42499500,Lučenec,2019-07-07T04:01:24.032Z,984 01,ul. Ľ. Podjavorinskej,19,2019-07-07T04:01:24.032Z,ico://sk/42499500_10008
426554,Colný úrad Bratislava,42499500,,2019-07-07T04:01:24.067Z,824 59,Miletičova,42,2019-07-07T04:01:24.067Z,ico://sk/42499500_10009
426555,TEST OJ MM 1802,42156424,,2019-07-07T04:01:24.119Z,,,,2019-07-07T04:01:24.119Z,ico://sk/42156424_10019
426556,Daňový úrad Žilina - kontaktné miesto Kysucké Nové Mesto,42499500,Kysucké Nové Mesto,2019-07-07T04:01:24.219Z,024 01,Litovelská,1218,2019-07-07T04:01:24.219Z,ico://sk/42499500_10174
426557,Daňový úrad Žilina - kontaktné miesto Turčianske Teplice,42499500,Turčianske Teplice,2019-07-07T04:01:24.250Z,039 46,Horné Rakovce,35,2019-07-07T04:01:24.250Z,ico://sk/42499500_10175
426558,Daňový úrad Žilina - pobočka Čadca,42499500,Čadca,2019-07-07T04:01:24.301Z,022 01,Matičné námestie,1284,2019-07-07T04:01:24.301Z,ico://sk/42499500_10176
426559,Daňový úrad Žilina - pobočka Dolný Kubín,42499500,Dolný Kubín,2019-07-07T04:01:24.368Z,026 80,Kohútov sad,10,2019-07-07T04:01:24.368Z,ico://sk/42499500_10177
426560,Daňový úrad Žilina - pobočka Liptovský Mikuláš,42499500,Liptovský Mikuláš,2019-07-07T04:01:24.537Z,031 80,Hollého,3,2019-07-07T04:01:24.537Z,ico://sk/42499500_10178
426561,Daňový úrad Žilina - pobočka Martin,42499500,Martin,2019-07-07T04:01:24.580Z,036 01,Jesenského,23,2019-07-07T04:01:24.580Z,ico://sk/42499500_10179
426562,Daňový úrad Žilina - pobočka Martin,42499500,Martin,2019-07-07T04:01:24.613Z,036 01,Langsfeldova,2,2019-07-07T04:01:24.613Z,ico://sk/42499500_10180
426563,Daňový úrad Žilina - pobočka Námestovo,42499500,Námestovo,2019-07-07T04:01:24.678Z,029 01,Ružová,1,2019-07-07T04:01:24.678Z,ico://sk/42499500_10181
426564,Daňový úrad Žilina - pobočka Ružomberok,42499500,Ružomberok,2019-07-07T04:01:24.716Z,034 01,Nám. A. Hlinku,54,2019-07-07T04:01:24.716Z,ico://sk/42499500_10182
426565,"Finančné riaditeľstvo SR, Odbor daň. konania",42499500,Banská Bystrica,2019-07-07T04:01:24.730Z,974 01,Hviezdoslavova,19,2019-07-07T04:01:24.730Z,ico://sk/42499500_10183
426566,Colný úrad Bratislava - Pobočka colného úradu Bratislava Jonáša - colná,42499500,,2019-07-07T04:01:24.757Z,841 07,J. Jonáša,1,2019-07-07T04:01:24.757Z,ico://sk/42499500_10010
426567,Colný úrad Bratislava - Pobočka colného úradu Bratislava Letisko - hraničná,42499500,,2019-07-07T04:01:24.766Z,820 01,Letisko M.R.Štefánika,,2019-07-07T04:01:24.766Z,ico://sk/42499500_10011
426568,Colný úrad Bratislava - Pobočka colného úradu Bratislava Miletičova - daňová,42499500,,2019-07-07T04:01:24.776Z,824 59,Miletičova,42,2019-07-07T04:01:24.776Z,ico://sk/42499500_10012
426569,Colný úrad Banská Bystrica - pobočka Lučenec - nácestné stredisko- colná a daňová,42499500,Lučenec,2019-07-07T04:01:24.785Z,984 01,ul. Ľ. Podjavorinskej,19,2019-07-07T04:01:24.785Z,ico://sk/42499500_10005
426570,Colný úrad Banská Bystrica - pobočka Zvolen - nácestné stredisko Lieskovec - colná a daňová,42499500,Zvolen,2019-07-07T04:01:24.792Z,960 01,Lieskovská cesta,494,2019-07-07T04:01:24.792Z,ico://sk/42499500_10006
426571,test OJ MM 1702,42156424,,2019-07-07T04:01:24.803Z,,,,2019-07-07T04:01:24.803Z,ico://sk/42156424_10018
426572,"Finančné riaditeľstvo, Odbor daň. konania",42499500,Nitra,2019-07-07T04:01:24.811Z,949 01,Coboriho,2,2019-07-07T04:01:24.811Z,ico://sk/42499500_10184
426573,"Finančné riaditeľstvo, Odbor daň. konania",42499500,Trnava,2019-07-07T04:01:24.836Z,917 65,Piešťanská,3,2019-07-07T04:01:24.836Z,ico://sk/42499500_10185
426574,"Finančné riaditeľstvo, Odbor daň. konania",42499500,,2019-07-07T04:01:24.856Z,040 01,Tomášikova,35,2019-07-07T04:01:24.856Z,ico://sk/42499500_10186
426575,"Finančné riaditeľstvo, Odbor daň.konania",42499500,Prešov,2019-07-07T04:01:24.873Z,080 01,Hurbanistov,3,2019-07-07T04:01:24.873Z,ico://sk/42499500_10187
426576,"Finančné riaditeľstvo, Odbor daňového konania",42499500,Žilina,2019-07-07T04:01:24.891Z,010 01,A. Bernoláka,55,2019-07-07T04:01:24.891Z,ico://sk/42499500_10188
426577,"Finančné riaditeľstvo, Odbor daňového konania",42499500,Trenčín,2019-07-07T04:01:24.912Z,911 01,Legionárska,14,2019-07-07T04:01:24.912Z,ico://sk/42499500_10189
426578,"Finančné riaditeľstvo, Odbor daňového konania",42499500,,2019-07-07T04:01:24.974Z,824 59,Miletičova,42,2019-07-07T04:01:24.974Z,ico://sk/42499500_10190
426579,Colný úrad Prešov,42499500,Prešov,2019-07-07T04:01:24.990Z,080 01,Kpt. Nálepku,8,2019-07-07T04:01:24.990Z,ico://sk/42499500_10048
426580,Colný úrad Prešov - pobočka Humenné - colná a daňová,42499500,Humenné,2019-07-07T04:01:25.041Z,066 01,Osloboditeľov,114,2019-07-07T04:01:25.041Z,ico://sk/42499500_10049
426581,"Finančné riaditeľstvo, Odbor opravných prostriedkov pre clá a spotrebné dane",42499500,,2019-07-07T04:01:25.073Z,815 11,Mierová,23,2019-07-07T04:01:25.073Z,ico://sk/42499500_10191
426582,Colný úrad Bratislava - Pobočka colného úradu Bratislava Pošta - hraničná,42499500,,2019-07-07T04:01:25.160Z,832 70,Tomášiková,54,2019-07-07T04:01:25.160Z,ico://sk/42499500_10013
426583,Colný úrad Bratislava - Pobočka colného úradu Bratislava Prístav - colná,42499500,,2019-07-07T04:01:25.200Z,821 09,Horárska,12,2019-07-07T04:01:25.200Z,ico://sk/42499500_10014
426584,Colný úrad Bratislava - Pobočka colného úradu Bratislava Senec- colná,42499500,Senec,2019-07-07T04:01:25.226Z,903 01,Dialničná,2,2019-07-07T04:01:25.226Z,ico://sk/42499500_10015
426585,Colný úrad Prešov - pobočka Nácestné stredisko Prešov - colná a daňová,42499500,Prešov,2019-07-07T04:01:25.263Z,080 05,Košická,30,2019-07-07T04:01:25.263Z,ico://sk/42499500_10050
426586,Colný úrad Prešov - pobočka Poprad - colná a daňová,42499500,Poprad,2019-07-07T04:01:25.345Z,058 01,Karpatská,13,2019-07-07T04:01:25.345Z,ico://sk/42499500_10051
426587,Colný úrad Prešov - pobočka Stará Ľubovňa - colná a daňová,42499500,Stará Ľubovňa,2019-07-07T04:01:25.383Z,064 01,Prešovská,1,2019-07-07T04:01:25.383Z,ico://sk/42499500_10052
426588,Colný úrad Prešov - pobočka Svidník - colná a daňová,42499500,Svidník,2019-07-07T04:01:25.575Z,089 01,Sovietskych hrdinov,102,2019-07-07T04:01:25.575Z,ico://sk/42499500_10053
426589,Colný úrad Prešov - stanica Bardejov,42499500,Bardejov,2019-07-07T04:01:25.646Z,085 01,Miškovského,4,2019-07-07T04:01:25.646Z,ico://sk/42499500_10054
426590,Colný úrad Prešov - stanica Poprad,42499500,Poprad,2019-07-07T04:01:25.779Z,058 01,Karpatská,13,2019-07-07T04:01:25.779Z,ico://sk/42499500_10055
426591,TEST_OJ_5315,11223344,,2019-07-07T04:01:25.853Z,,,,2019-07-07T04:01:25.853Z,ico://sk/11223344_1011
426592,Colný úrad Prešov - stanica Prešov - centrála,42499500,Prešov,2019-07-07T04:01:25.910Z,080 01,kpt. Nálepku,4,2019-07-07T04:01:25.910Z,ico://sk/42499500_10056
426593,Colný úrad Trenčín,42499500,Trenčín,2019-07-07T04:01:25.961Z,911 01,Partizánska,1,2019-07-07T04:01:25.961Z,ico://sk/42499500_10057
426594,Colný úrad Trenčín - pobočka Bánovce nad Bebravou - daňová,42499500,Bánovce nad Bebravou,2019-07-07T04:01:25.974Z,957 01,Partizánska,73,2019-07-07T04:01:25.974Z,ico://sk/42499500_10058
426595,Colný úrad Trenčín - pobočka Ilava - colná a daňová,42499500,Ilava,2019-07-07T04:01:25.985Z,019 80,Štúrova,28,2019-07-07T04:01:25.985Z,ico://sk/42499500_10059
426596,Colný úrad Trenčín - pobočka Nové Mesto nad Váhom - colná a daňová,42499500,Nové Mesto nad Váhom,2019-07-07T04:01:25.992Z,915 01,Trenčianska,17,2019-07-07T04:01:25.992Z,ico://sk/42499500_10060
426597,Colný úrad Trenčín - pobočka Prievidza - colná a daňová,42499500,Prievidza,2019-07-07T04:01:26.002Z,971 01,Sebedražská,7,2019-07-07T04:01:26.002Z,ico://sk/42499500_10061
426598,Colný úrad Trenčín - pobočka Púchov - colná a daňová,42499500,Púchov,2019-07-07T04:01:26.011Z,020 01,Svätoplukova,1462,2019-07-07T04:01:26.011Z,ico://sk/42499500_10062
426599,Colný úrad Trenčín - pobočka Trenčín K výstavisku - daňová,42499500,Trenčín,2019-07-07T04:01:26.026Z,911 01,K výstavisku,13,2019-07-07T04:01:26.026Z,ico://sk/42499500_10063
426600,Colný úrad Trenčín - pobočka Trenčín Kasárenská - colná,42499500,Trenčín,2019-07-07T04:01:26.037Z,911 05,Kasárenská,8,2019-07-07T04:01:26.037Z,ico://sk/42499500_10064
426601,Colný úrad Trenčín - stanica CÚ Púchov,42499500,Púchov,2019-07-07T04:01:26.051Z,020 01,Svätoplukova,1462,2019-07-07T04:01:26.051Z,ico://sk/42499500_10065
426602,Colný úrad Trenčín - stanica CÚ Trenčín - centrála,42499500,Trenčín,2019-07-07T04:01:26.065Z,911 05,Kasárenská,8,2019-07-07T04:01:26.065Z,ico://sk/42499500_10066
426603,Colný úrad Trnava,42499500,,2019-07-07T04:01:26.080Z,917 01,Piešťanská,3,2019-07-07T04:01:26.080Z,ico://sk/42499500_10067
426604,Colný úrad Trnava - pobočka Brodské - colná,42499500,Brodské,2019-07-07T04:01:26.100Z,908 85,Brodské D2,,2019-07-07T04:01:26.100Z,ico://sk/42499500_10068
426605,Colný úrad Trnava - pobočka Dunajská Streda - colná a daňová,42499500,Dunajská Streda,2019-07-07T04:01:26.116Z,929 01,Mliečany,61,2019-07-07T04:01:26.116Z,ico://sk/42499500_10069
426606,Colný úrad Trnava - pobočka Galanta - colná a daňová,42499500,Galanta,2019-07-07T04:01:26.132Z,924 01,Priemyselná,4,2019-07-07T04:01:26.132Z,ico://sk/42499500_10070
426607,Colný úrad Trnava - pobočka Piešťany - colná a daňová,42499500,Piešťany,2019-07-07T04:01:26.146Z,921 01,Partizánska,2,2019-07-07T04:01:26.146Z,ico://sk/42499500_10071
426608,Colný úrad Trnava - pobočka Senica - colná,42499500,Senica,2019-07-07T04:01:26.159Z,905 01,Čáčovská,2,2019-07-07T04:01:26.159Z,ico://sk/42499500_10072
426609,Colný úrad Trnava - pobočka Skalica - daňová,42499500,Skalica,2019-07-07T04:01:26.174Z,909 01,Mallého,56,2019-07-07T04:01:26.174Z,ico://sk/42499500_10073
426610,Colný úrad Trnava - pobočka Trnava - daňová,42499500,Trnava,2019-07-07T04:01:26.187Z,917 02,Ružová ulica,3,2019-07-07T04:01:26.187Z,ico://sk/42499500_10074
426611,Colný úrad Trnava - pobočka Trnava nácestné stredisko - colná,42499500,Trnava,2019-07-07T04:01:26.198Z,917 02,Nitrianska,5,2019-07-07T04:01:26.198Z,ico://sk/42499500_10075
426612,Colný úrad Trnava - stanica CÚ- Senica- centrála,42499500,Senica,2019-07-07T04:01:26.212Z,905 01,Čáčovská cesta,2,2019-07-07T04:01:26.212Z,ico://sk/42499500_10076
426613,Colný úrad Trnava - stanica CÚ- Veľký Meder,42499500,Veľký Meder,2019-07-07T04:01:26.225Z,932 01,Bratislavská,1662,2019-07-07T04:01:26.225Z,ico://sk/42499500_10077
426614,Colný úrad Žilina,42499500,Žilina,2019-07-07T04:01:26.244Z,010 04,Pri Cintoríne,36,2019-07-07T04:01:26.244Z,ico://sk/42499500_10078
426615,Colný úrad Žilina - pobočka Čadca - daňová,42499500,Čadca,2019-07-07T04:01:26.259Z,022 01,Matičné námestie,1284,2019-07-07T04:01:26.259Z,ico://sk/42499500_10079
426616,Colný úrad Žilina - pobočka Liptovský Mikuláš - daňová,42499500,Liptovský Mikuláš,2019-07-07T04:01:26.275Z,031 01,Kuzmányho,1137,2019-07-07T04:01:26.275Z,ico://sk/42499500_10080
426617,Colný úrad Žilina - pobočka Martin - colná a daňová,42499500,Bystrička,2019-07-07T04:01:26.287Z,038 04,Na Bystričku,36,2019-07-07T04:01:26.287Z,ico://sk/42499500_10081
426618,Colný úrad Žilina - pobočka Ružomberok colná,42499500,Ružomberok,2019-07-07T04:01:26.312Z,034 01,Bystrická cesta,62,2019-07-07T04:01:26.312Z,ico://sk/42499500_10082
426619,Colný úrad Žilina - pobočka Trstená - colná a daňová,42499500,Trstená,2019-07-07T04:01:26.333Z,028 01,Krakovská cesta,24,2019-07-07T04:01:26.333Z,ico://sk/42499500_10083
426620,Colný úrad Žilina - pobočka Žilina - daňová,42499500,Žilina,2019-07-07T04:01:26.356Z,010 04,Pri Cintoríne,36,2019-07-07T04:01:26.356Z,ico://sk/42499500_10084
426621,Colný úrad Žilina - pobočka Žilina - nácestné stredisko - colná,42499500,Mojš,2019-07-07T04:01:26.392Z,010 01,Mojš,182,2019-07-07T04:01:26.392Z,ico://sk/42499500_10085
426622,Colný úrad Bratislava - Pobočka colného úradu Bratislava Staviteľská- colná,42499500,,2019-07-07T04:01:26.410Z,831 04,Staviteľská,7,2019-07-07T04:01:26.410Z,ico://sk/42499500_10016
426623,Colný úrad Bratislava - Stanica colného úradu Bratislava - centrála,42499500,,2019-07-07T04:01:26.438Z,824 59,Viedenská cesta,85,2019-07-07T04:01:26.438Z,ico://sk/42499500_10017
426624,Colný úrad Bratislava - Stanica colného úradu Malacky,42499500,Malacky,2019-07-07T04:01:26.456Z,901 01,Záhorácka,17,2019-07-07T04:01:26.456Z,ico://sk/42499500_10018
426625,Colný úrad Košice,42499500,,2019-07-07T04:01:26.475Z,040 01,Národná trieda,27,2019-07-07T04:01:26.475Z,ico://sk/42499500_10019
426626,Colný úrad Žilina - pobočka Žilina pošta - colná hraničná,42499500,Žilina,2019-07-07T04:01:26.490Z,010 01,P.O.Hviezdoslava,3,2019-07-07T04:01:26.490Z,ico://sk/42499500_10086
426627,Colný úrad Žilina - stanica CÚ Trstená,42499500,Trstená,2019-07-07T04:01:26.507Z,028 01,Krakovská cesta,24,2019-07-07T04:01:26.507Z,ico://sk/42499500_10087
426628,Colný úrad Žilina - stanica CÚ Žilina- centrála,42499500,Žilina,2019-07-07T04:01:26.526Z,010 04,Pri Cintoríne,36,2019-07-07T04:01:26.526Z,ico://sk/42499500_10088
426629,Daňový úrad Banská Bystrica,42499500,Banská Bystrica,2019-07-07T04:01:26.541Z,974 04,Nová ulica,13,2019-07-07T04:01:26.541Z,ico://sk/42499500_10089
426630,Daňový úrad Banská Bystrica - kontaktné miesto Banská Štiavnica,42499500,Banská Štiavnica,2019-07-07T04:01:26.559Z,969 01,Nám. Svätej Trojice,1,2019-07-07T04:01:26.559Z,ico://sk/42499500_10090
426632,TEST OVM MM01,80060007,,2019-07-07T04:01:26.606Z,,,,2019-07-07T04:01:26.606Z,ico://sk/80060007
426633,Test OVM MM 1301_01,80063002,,2019-07-07T04:01:26.626Z,,,,2019-07-07T04:01:26.626Z,ico://sk/80063002
426634,TEST OJ MM 1712,42156424,Bratislava - mestská časť Ružinov,2019-07-07T04:01:26.638Z,84545,Vysoká,1,2019-07-07T04:01:26.638Z,ico://sk/42156424_10012
426635,TEST OVM MM 1712_02,80062000,,2019-07-07T04:01:26.654Z,,,,2019-07-07T04:01:26.654Z,ico://sk/80062000
426638,Test OJ MM update,42156424,Bratislava - mestská časť Ružinov,2019-07-07T04:01:26.702Z,84545,Dlha,1,2019-07-07T04:01:26.702Z,ico://sk/42156424_10015
426693,Colný úrad Prešov - PCÚ Poprad Pošta 6252 - pobočka colná-hraničná,42499500,Poprad,2019-07-07T04:01:27.452Z,05802,Wolkerova,479,2019-07-07T04:01:27.452Z,ico://sk/42499500_192
426695,TEST OVM MM,80064002,Bratislava - mestská časť Vrakuňa,2019-07-07T04:01:27.486Z,84545,Kratka,1,2019-07-07T04:01:27.486Z,ico://sk/80064002
426702,Orgán verjnej moci TEST3_12_12,87456123,Bratislava - mestská časť Ružinov,2019-07-07T04:01:27.604Z,85214,Ivánska Cesta,100,2019-07-07T04:01:27.604Z,ico://sk/87456123_10001
426703,TEST OJ MM 1712x2,42156424,Bratislava - mestská časť Ružinov,2019-07-07T04:01:27.621Z,84545,Vysoká,1,2019-07-07T04:01:27.621Z,ico://sk/42156424_10013
426708,Colný úrad Banská Bystrica - pobočka Banská Bystrica - colná a daňová,42499500,Banská Bystrica,2019-07-07T04:01:27.694Z,975 90,Partizánska cesta,97,2019-07-07T04:01:27.694Z,ico://sk/42499500_10002
426714,test OJ,42156424,,2019-07-07T04:01:27.758Z,,,,2019-07-07T04:01:27.758Z,ico://sk/42156424_10025
426718,test oj oj oj,42156424,Bratislava - mestská časť Staré Mesto,2019-07-07T04:01:27.787Z,54543,n,7,2019-07-07T04:01:27.787Z,ico://sk/42156424_10003
426719,Orgán verejnej moci Test_12_12_Zmena,87456123,Bratislava - mestská časť Staré Mesto,2019-07-07T04:01:27.794Z,83101,Trnavská cesta,120,2019-07-07T04:01:27.794Z,ico://sk/87456123
426720,"Finančné riaditeľstvo, Odbor spotrebných daní",42499500,,2019-07-07T04:01:27.811Z,81511,Mierová,23,2019-07-07T04:01:27.811Z,ico://sk/42499500_193
426721,TEST OVM MM 1812_02,80063001,,2019-07-07T04:01:27.829Z,,,,2019-07-07T04:01:27.829Z,ico://sk/80063001
426724,TEST OVM mm2,80060006,,2019-07-07T04:01:27.900Z,,,,2019-07-07T04:01:27.900Z,ico://sk/80060006
426725,Úrad vlády Slovenskej republiky - ÚPVS1,151513,Bratislava - mestská časť Staré Mesto,2019-07-07T04:01:27.915Z,,,,2019-07-07T04:01:27.915Z,ico://sk/00151513_1
426756,Ústav na výkon väzby Žilina,738352,Žilina,2019-07-07T04:01:28.322Z,01024,Hlboká cesta,,2019-07-07T04:01:28.322Z,ico://sk/738352
426760,Colný úrad Banská Bystrica,42499500,Banská Bystrica,2019-07-07T04:01:28.389Z,975 90,Partizánska cesta,17,2019-07-07T04:01:28.389Z,ico://sk/42499500_10001
426761,OJ_Test_4_12_12,87456123,,2019-07-07T04:01:28.406Z,,,,2019-07-07T04:01:28.406Z,ico://sk/87456123_10002
426762,zmenená testovacia Oj,42156424,,2019-07-07T04:01:28.428Z,,,,2019-07-07T04:01:28.428Z,ico://sk/42156424_123456
426764,organizačná zložka - NASES test,42156424,,2019-07-07T04:01:28.467Z,,,,2019-07-07T04:01:28.467Z,ico://sk/42156424_10017
426765,opatovne zmenený OVM,98563214,,2019-07-07T04:01:28.486Z,,,,2019-07-07T04:01:28.486Z,ico://sk/98563214
426766,Okresný súd Trnava - PMS,165719,Trnava,2019-07-07T04:01:28.500Z,91783,Hlavná,49,2019-07-07T04:01:28.500Z,ico://sk/00165719_10001
426768,Okresný súd Bánovce nad Bebravou - PMS,42025516,Bánovce nad Bebravou,2019-07-07T04:01:28.535Z,95701,Hollého,3,2019-07-07T04:01:28.535Z,ico://sk/42025516_10001
426769,Okresný súd Banská Bystrica - PMS,165735,Banská Bystrica,2019-07-07T04:01:28.543Z,97528,Skuteckého,28,2019-07-07T04:01:28.543Z,ico://sk/00165735_10001
426770,Okresný súd Brezno - PMS,35995602,Brezno,2019-07-07T04:01:28.559Z,97701,Kuzmányho,4,2019-07-07T04:01:28.559Z,ico://sk/35995602_10001
426771,Okresný súd Humenné - PMS,165883,Humenné,2019-07-07T04:01:28.575Z,06634,Laborecká,1855,2019-07-07T04:01:28.575Z,ico://sk/00165883_10001
426772,Okresný súd Kežmarok - PMS,35535881,Kežmarok,2019-07-07T04:01:28.592Z,06001,Trhovište,16,2019-07-07T04:01:28.592Z,ico://sk/35535881_10001
426773,Okresný súd Komárno - PMS,165646,Komárno,2019-07-07T04:01:28.605Z,94501,Pohraničná,6,2019-07-07T04:01:28.605Z,ico://sk/00165646_10001
426774,Okresný súd Košice I - PMS,31944515,Košice - mestská časť Staré Mesto,2019-07-07T04:01:28.620Z,04160,Štúrova,29,2019-07-07T04:01:28.620Z,ico://sk/31944515_10001
426775,Okresný súd Košice II - PMS,31944523,Košice - mestská časť Staré Mesto,2019-07-07T04:01:28.636Z,4211,Štúrova,29,2019-07-07T04:01:28.636Z,ico://sk/31944523_10001
426776,Okresný súd Košice - okolie - PMS,165891,Košice - mestská časť Staré Mesto,2019-07-07T04:01:28.653Z,04110,Štúrova,29,2019-07-07T04:01:28.653Z,ico://sk/00165891_10001
426777,Okresný súd Michalovce - PMS,165905,Michalovce,2019-07-07T04:01:28.668Z,7118,Nám. Slobody,11,2019-07-07T04:01:28.668Z,ico://sk/00165905_10001
426778,Okresný súd Nové Zámky - PMS,165671,Nové Zámky,2019-07-07T04:01:28.676Z,94016,Rákocziho,15,2019-07-07T04:01:28.676Z,ico://sk/00165671_10001
426779,Okresný súd Nové Mesto nad Váhom - PMS,42025524,Nové Mesto nad Váhom,2019-07-07T04:01:28.685Z,91519,Hviezdoslavova,37,2019-07-07T04:01:28.685Z,ico://sk/42025524_10001
426780,Okresný súd Partizánske - PMS,42025532,Partizánske,2019-07-07T04:01:28.692Z,95826,1. mája,4,2019-07-07T04:01:28.692Z,ico://sk/42025532_10001
426781,Okresný súd Poprad - PMS,165913,Poprad,2019-07-07T04:01:28.702Z,05852,Štefánikova,100,2019-07-07T04:01:28.702Z,ico://sk/00165913_10001
426782,Okresný súd Považská Bystrica - PMS,165794,Považská Bystrica,2019-07-07T04:01:28.712Z,01733,Štúrova,2,2019-07-07T04:01:28.712Z,ico://sk/00165794_10001
426783,Okresný súd Prievidza - PMS,165808,Prievidza,2019-07-07T04:01:28.725Z,97172,Švéniho,5,2019-07-07T04:01:28.725Z,ico://sk/00165808_10001
426784,Okresný súd Revúca - PMS,45018545,Revúca,2019-07-07T04:01:28.736Z,05001,SNP,1,2019-07-07T04:01:28.736Z,ico://sk/45018545_10001
426785,Okresný súd Rimavská Sobota - PMS,165816,Rimavská Sobota,2019-07-07T04:01:28.746Z,97901,Jesenského,3,2019-07-07T04:01:28.746Z,ico://sk/00165816_10001
426786,Okresný súd Rožňava - PMS,165930,Rožňava,2019-07-07T04:01:28.756Z,04820,Námestie 1.mája,2,2019-07-07T04:01:28.756Z,ico://sk/00165930_10001
426787,Okresný súd Senica - PMS,165689,Senica,2019-07-07T04:01:28.763Z,90530,Námestie oslobodenia,2,2019-07-07T04:01:28.763Z,ico://sk/00165689_10001
426790,Okresný súd Skalica - PMS,45014817,Skalica,2019-07-07T04:01:28.801Z,90901,Námestie slobody,15,2019-07-07T04:01:28.801Z,ico://sk/45014817_10001
426791,Okresný súd Spišská Nová Ves - PMS,165948,Spišská Nová Ves,2019-07-07T04:01:28.810Z,05280,Stará cesta,3,2019-07-07T04:01:28.810Z,ico://sk/00165948_10001
426792,Okresný súd Stará Ľubovňa - PMS,165956,Stará Ľubovňa,2019-07-07T04:01:28.818Z,06427,17. novembra,30,2019-07-07T04:01:28.818Z,ico://sk/00165956_10001
426793,Okresný súd Svidník - PMS,165964,Svidník,2019-07-07T04:01:28.826Z,08901,Sovietskych hrdinov,35,2019-07-07T04:01:28.826Z,ico://sk/00165964_10001
426794,Okresný súd Topoľčany - PMS,165697,Topoľčany,2019-07-07T04:01:28.836Z,95515,Nám. M. R. Štefánika,55,2019-07-07T04:01:28.836Z,ico://sk/00165697_10001
426795,Okresný súd Trebišov - PMS,165972,Trebišov,2019-07-07T04:01:28.846Z,07546,Námestie Mieru,2,2019-07-07T04:01:28.846Z,ico://sk/00165972_10001
426796,Okresný súd Trenčín - PMS,165701,Trenčín,2019-07-07T04:01:28.853Z,91180,Piaristická,27,2019-07-07T04:01:28.853Z,ico://sk/00165701_10001
426797,Okresný súd Levice - PMS,165654,Levice,2019-07-07T04:01:28.865Z,93431,Kalvínske námestie,7,2019-07-07T04:01:28.865Z,ico://sk/00165654_10001
426798,Okresný súd Veľký Krtíš - PMS,165824,Veľký Krtíš,2019-07-07T04:01:28.881Z,99014,SNP,714,2019-07-07T04:01:28.881Z,ico://sk/00165824_10001
426799,Okresný súd Zvolen - PMS,165832,Zvolen,2019-07-07T04:01:28.893Z,96001,J. Kozáčeka,197,2019-07-07T04:01:28.893Z,ico://sk/00165832_10001
426800,Okresný súd Žiar nad Hronom - PMS,165841,Žiar nad Hronom,2019-07-07T04:01:28.901Z,96535,Námestie Matice slovenskej,1,2019-07-07T04:01:28.901Z,ico://sk/00165841_10001
426801,"Krajský súd, Košice - PMS",215783,Košice - mestská časť Staré Mesto,2019-07-07T04:01:28.917Z,04151,Štúrova,29,2019-07-07T04:01:28.917Z,ico://sk/00215783_10001
426802,"Krajský súd, Trnava - PMS",35629703,Trnava,2019-07-07T04:01:28.929Z,91870,Vajanského,7278,2019-07-07T04:01:28.929Z,ico://sk/35629703_10001
426803,"Krajský súd, Banská Bystrica - PMS",215775,Banská Bystrica,2019-07-07T04:01:28.936Z,97487,Skuteckého,7,2019-07-07T04:01:28.936Z,ico://sk/00215775_10001
426804,"Krajský súd, Prešov - PMS",17068410,Prešov,2019-07-07T04:01:28.946Z,08001,Hlavná,22,2019-07-07T04:01:28.946Z,ico://sk/17068410_10001
426805,"Krajský súd, Trenčín - PMS",35629665,Trenčín,2019-07-07T04:01:28.954Z,91150,Námestie Svätej Anny,28,2019-07-07T04:01:28.954Z,ico://sk/35629665_10001
426806,"Krajský súd, Žilina - PMS",35995572,Žilina,2019-07-07T04:01:28.964Z,01001,Orolská,3,2019-07-07T04:01:28.964Z,ico://sk/35995572_10001
426807,Okresný súd Bardejov - PMS,165875,Bardejov,2019-07-07T04:01:28.976Z,08575,Partizánska,1,2019-07-07T04:01:28.976Z,ico://sk/00165875_10001
426809,Okresný súd Galanta - PMS,165638,Galanta,2019-07-07T04:01:29.009Z,92423,Mierové námestie,1,2019-07-07T04:01:29.009Z,ico://sk/00165638_10001
426810,Okresný súd Lučenec - PMS,165778,Lučenec,2019-07-07T04:01:29.022Z,98437,Dr.Herza,14,2019-07-07T04:01:29.022Z,ico://sk/00165778_10001
426811,Okresný súd Martin - PMS,165786,Martin,2019-07-07T04:01:29.033Z,03661,E.B.Lukáča,2,2019-07-07T04:01:29.033Z,ico://sk/00165786_10001
426812,Okresný súd Námestovo - PMS,42061385,Námestovo,2019-07-07T04:01:29.041Z,02901,Námestie Antona Bernoláka,16,2019-07-07T04:01:29.041Z,ico://sk/42061385_10001
426813,Okresný súd Piešťany - PMS,45014809,Piešťany,2019-07-07T04:01:29.049Z,92101,Nálepkova,7325,2019-07-07T04:01:29.049Z,ico://sk/45014809_10001
426814,Okresný súd Prešov - PMS,165921,Prešov,2019-07-07T04:01:29.056Z,08042,Grešova,3,2019-07-07T04:01:29.056Z,ico://sk/00165921_10001
426815,Okresný súd Ružomberok - PMS,35995599,Ružomberok,2019-07-07T04:01:29.063Z,03401,Dončova,8,2019-07-07T04:01:29.063Z,ico://sk/35995599_10001
426816,Okresný súd Žilina - PMS,165859,Žilina,2019-07-07T04:01:29.070Z,01059,Hviezdoslavova,28,2019-07-07T04:01:29.070Z,ico://sk/00165859_10001
426817,Okresný súd Dolný Kubín - PMS,165751,Dolný Kubín,2019-07-07T04:01:29.081Z,02625,Radlinského,36,2019-07-07T04:01:29.081Z,ico://sk/00165751_10001
426818,Okresný súd Liptovský Mikuláš - PMS,165760,Liptovský Mikuláš,2019-07-07T04:01:29.093Z,03133,Tomášikova,1965,2019-07-07T04:01:29.093Z,ico://sk/00165760_10001
426819,Okresný súd Trnava - PMS,165719,Trnava,2019-07-07T04:01:29.107Z,91783,Hlavná,49,2019-07-07T04:01:29.107Z,ico://sk/00165719_10002
426844,test OJ MM,42156424,,2019-07-07T04:01:29.311Z,,,,2019-07-07T04:01:29.311Z,ico://sk/42156424_10020
426850,Krajský súd v Bratislave - PMS,215759,Bratislava - mestská časť Staré Mesto,2019-07-07T04:01:29.356Z,,,,2019-07-07T04:01:29.356Z,ico://sk/00215759_10001
426851,Okresný súd Pezinok - PMS,42128234,Pezinok,2019-07-07T04:01:29.362Z,90201,M. R. Štefánika,40,2019-07-07T04:01:29.362Z,ico://sk/42128234_10001
426890,Test_OJ_93_15,11223344,,2019-07-07T04:01:34.720Z,,,,2019-07-07T04:01:34.720Z,ico://sk/11223344_1111
426893,Testovacia nova,42156424,,2019-07-07T04:01:34.734Z,,,,2019-07-07T04:01:34.734Z,ico://sk/42156424_10022
426894,Test_OVM_21_7,110017,,2019-07-07T04:01:34.740Z,,,,2019-07-07T04:01:34.740Z,ico://sk/00110017
426899,Organizačná zložka Test3_12_12,87456123,Bratislava - mestská časť Ružinov,2019-07-07T04:01:34.781Z,83101,Trnavská cesta,100,2019-07-07T04:01:34.781Z,ico://sk/87456123_154789
426911,OJ Eva,42156424,,2019-07-07T04:01:34.851Z,,,,2019-07-07T04:01:34.851Z,ico://sk/42156424_10023
426914,test OJ MH 2014,42156424,,2019-07-07T04:01:34.863Z,,,,2019-07-07T04:01:34.863Z,ico://sk/42156424_10008
426927,TEST OVM mm,80060005,,2019-07-07T04:01:34.913Z,,,,2019-07-07T04:01:34.913Z,ico://sk/80060005
426960,PPL RÚVZ TT,610933,,2019-07-07T04:01:35.063Z,,,,2019-07-07T04:01:35.063Z,ico://sk/00610933_10001
426983,OJ test1,42156424,,2019-07-07T04:01:35.161Z,,,,2019-07-07T04:01:35.161Z,ico://sk/42156424_10028
426989,TEST OJ MM 1612_02 update,42156424,Bratislava - mestská časť Podunajské Biskupice,2019-07-07T04:01:35.184Z,84545,Súmračná,1,2019-07-07T04:01:35.184Z,ico://sk/42156424_10010
426991,Oddelenie starostlivosti o vojnových veteránov a vojenských dôchodcov,30845572,Bratislava - mestská časť Nové Mesto,2019-07-07T04:01:35.192Z,83247,Za kasárňou,,2019-07-07T04:01:35.192Z,ico://sk/30845572_10001
427002,Test_OJ_43_15,11223344,,2019-07-07T04:01:35.236Z,,,,2019-07-07T04:01:35.236Z,ico://sk/11223344_1021
427006,organizačná zložka NASES - test,42156424,,2019-07-07T04:01:35.250Z,,,,2019-07-07T04:01:35.250Z,ico://sk/42156424_10016
427016,Úrad vlády Slovenskej republiky - ÚPVS Archív,151513,Bratislava - mestská časť Staré Mesto,2019-07-07T04:01:35.290Z,81370,Námestie slobody,1,2019-07-07T04:01:35.290Z,ico://sk/00151513_10002
427017,TEST OVM TK 03,99112903,,2019-07-07T04:01:35.294Z,,,,2019-07-07T04:01:35.294Z,ico://sk/99112903
427018,OVM MM 02,80060002,,2019-07-07T04:01:35.298Z,,,,2019-07-07T04:01:35.298Z,ico://sk/80060002
427019,TEST OVM MM 3001_01,80064000,,2019-07-07T04:01:35.302Z,,,,2019-07-07T04:01:35.302Z,ico://sk/80064000
427027,Test OVM MM 3001_02,80064001,,2019-07-07T04:01:35.335Z,,,,2019-07-07T04:01:35.335Z,ico://sk/80064001
427030,Obec Dulova Ves,327000,Dulova Ves,2019-07-07T04:01:35.347Z,08252,,18,2019-07-07T04:01:35.347Z,ico://sk/00327000_10001
427034,Nases2,42156424,,2019-07-07T04:01:35.362Z,,,,2019-07-07T04:01:35.362Z,ico://sk/42156424_1
427042,TEST OJ MM 1612_02,42156424,,2019-07-07T04:01:35.392Z,,,,2019-07-07T04:01:35.392Z,ico://sk/42156424_10011
427043,Test OJ MM 1712x1,42156424,Bratislava - mestská časť Staré Mesto,2019-07-07T04:01:35.395Z,84545,Duklianska,1,2019-07-07T04:01:35.395Z,ico://sk/42156424_101
427054,Komora veterinárnych lekárov Slovenskej republiky,17317894,Bratislava - mestská časť Karlova Ves,2019-07-07T04:01:35.436Z,84104,Botanická,17,2019-07-07T04:01:35.436Z,ico://sk/17317894
427055,testovací OVM,83560360,,2019-07-07T04:01:35.440Z,,,,2019-07-07T04:01:35.440Z,ico://sk/83560360
427057,Test_OJ_05_02_2015,87456123,Bratislava - mestská časť Rača,2019-07-07T04:01:35.447Z,,Trnavská cesta,100,2019-07-07T04:01:35.447Z,ico://sk/87456123_3005
427068,test OJ OJ OJ,42156424,,2019-07-07T04:01:35.490Z,,,,2019-07-07T04:01:35.490Z,ico://sk/42156424_10004
427070,TEST OJ MM 1401_1,42156424,Bratislava - mestská časť Ružinov,2019-07-07T04:01:35.498Z,84545,Kratka,1,2019-07-07T04:01:35.498Z,ico://sk/42156424_10014
427071,Obec Jestice,649589,Hostice,2019-07-07T04:01:35.502Z,98004,Jestice,27,2019-07-07T04:01:35.502Z,ico://sk/00649589_99999
427073,Okresný súd Vranov nad Topľou - PMS,165981,Vranov nad Topľou,2019-07-07T04:01:35.509Z,09332,M.R.Štefánika,874,2019-07-07T04:01:35.509Z,ico://sk/00165981_10001
427074,Okresný súd Nitra - PMS,165662,Nitra,2019-07-07T04:01:35.513Z,94968,Štúrova,9,2019-07-07T04:01:35.513Z,ico://sk/00165662_10001
427075,Okresný súd Čadca - PMS,165743,Čadca,2019-07-07T04:01:35.517Z,2221,17. novembra,,2019-07-07T04:01:35.517Z,ico://sk/00165743_10001
427076,test oj,42156424,,2019-07-07T04:01:35.520Z,,,,2019-07-07T04:01:35.520Z,ico://sk/42156424_10027
427079,zmenená testovacia OJ,42156424,,2019-07-07T04:01:35.531Z,,,,2019-07-07T04:01:35.531Z,ico://sk/42156424_10005
427083,Obec Nižná,314684,Nižná,2019-07-07T04:01:35.545Z,02743,Ul. Nová doba,506,2019-07-07T04:01:35.545Z,ico://sk/00314684
427091,Okresný súd Malacky-PMS,42128226,Malacky,2019-07-07T04:01:35.575Z,90119,Mierové námestie,10,2019-07-07T04:01:35.575Z,ico://sk/42128226_10001
427162,T OJ7,42156424,,2019-07-07T04:01:35.885Z,,,,2019-07-07T04:01:35.885Z,ico://sk/42156424_10030
427173,Okresný súd Bratislava I - PMS,39471,Bratislava - mestská časť Ružinov,2019-07-07T04:01:35.927Z,81244,Záhradnícka,101045,2019-07-07T04:01:35.927Z,ico://sk/00039471_10001
427348,"Správca - G & B KONKURZY A REŠTRUKTURALIZÁCIE, k.s.",484853570505,Levice,2019-07-07T04:01:36.629Z,,SNP,56,2019-07-07T04:01:36.629Z,ico://sk/484853570505
427301,Úrad vlády Slovenskej republiky - CRZ,151513,,2019-07-07T04:01:36.447Z,,,,2019-07-07T04:01:36.447Z,ico://sk/00151513_10005
427303,Agroinštitút Nitra,36858749,Nitra,2019-07-07T04:01:36.454Z,94901,Akademická,,2019-07-07T04:01:36.454Z,ico://sk/36858749_10001
427307,Test_OVM_22_7_OJ,110014,,2019-07-07T04:01:36.470Z,,,,2019-07-07T04:01:36.470Z,ico://sk/00110014_10001
427309,TEST_DNES_16_11_UP2,11223344,Bratislava - mestská časť Podunajské Biskupice,2019-07-07T04:01:36.477Z,9876543211,Trnavská Cesta,100,2019-07-07T04:01:36.477Z,ico://sk/11223344_10002
427330,Mestské kultúrne a osvetové stredisko Snina,42089697,Snina,2019-07-07T04:01:36.560Z,06901,,95,2019-07-07T04:01:36.560Z,ico://sk/42089697_10001
427331,Centrum pedagogicko - psychologického poradenstva a prevencie Kysucké Nové Mesto,37901273,Kysucké Nové Mesto,2019-07-07T04:01:36.564Z,02401,,2740,2019-07-07T04:01:36.564Z,ico://sk/37901273_10001
427346,"Správca - Luptáková Viera, JUDr.",484853570502,Košice,2019-07-07T04:01:36.622Z,,Mlynská,28,2019-07-07T04:01:36.622Z,ico://sk/484853570502
427347,"Správca - Szalontay Tomáš, Mgr.",484853570504,Košice,2019-07-07T04:01:36.625Z,,Žriedlová,3,2019-07-07T04:01:36.625Z,ico://sk/484853570504
427349,"Správca - Kyseľová Jana, Mgr.",484853570507,Bratislava,2019-07-07T04:01:36.632Z,,Laurinská,3,2019-07-07T04:01:36.632Z,ico://sk/484853570507
427350,"Správca - Figura Marek, Mgr. Bc.",484853570509,Prešov,2019-07-07T04:01:36.636Z,,Puškinova,16,2019-07-07T04:01:36.636Z,ico://sk/484853570509
427351,"Správca - Fabriciusová Lucia, JUDr.",484853570511,Banská Bystrica,2019-07-07T04:01:36.639Z,,J. A. Komenského,18B,2019-07-07T04:01:36.639Z,ico://sk/484853570511
427352,"Správca - Koncová Barbora, Mgr.",484853570515,Trenčín,2019-07-07T04:01:36.643Z,,Legionárska,7158/5,2019-07-07T04:01:36.643Z,ico://sk/484853570515
427353,"Správca - Kozár Štefan, Ing. Mgr.",484853570519,Nitra,2019-07-07T04:01:36.647Z,,Janka Kráľa,104,2019-07-07T04:01:36.647Z,ico://sk/484853570519
427354,"Správca - Poláčková Veronika, JUDr., LL.M",484853570521,Bratislava,2019-07-07T04:01:36.650Z,,Ivánska cesta,30/B,2019-07-07T04:01:36.650Z,ico://sk/484853570521
427355,"Správca - DAREKON, k. s.",484853570523,Trnava,2019-07-07T04:01:36.654Z,,Pekárska,11,2019-07-07T04:01:36.654Z,ico://sk/484853570523
427356,"Správca - Strelák Alan, JUDr.",484853570524,Bratislava,2019-07-07T04:01:36.657Z,,Na vŕšku,12,2019-07-07T04:01:36.657Z,ico://sk/484853570524
427359,"JUDr. Kristína Ehnová, notár",37921118,Bytča,2019-07-07T04:01:36.668Z,,Štefánikova,,2019-07-07T04:01:36.668Z,ico://sk/37921118
427363,"Správca - Krumpolcová Šutková Mária, JUDr.",484853570513,Bratislava,2019-07-07T04:01:36.682Z,,Dostojevského rad,5,2019-07-07T04:01:36.682Z,ico://sk/484853570513
427364,"Správca - Michaľov Lukáš, JUDr.",484853570514,Košice,2019-07-07T04:01:36.686Z,,Thurzova,6,2019-07-07T04:01:36.686Z,ico://sk/484853570514
427365,"Správca - Žoldoš Peter, Mgr.",484853570516,Košice,2019-07-07T04:01:36.689Z,,Žriedlová,3,2019-07-07T04:01:36.689Z,ico://sk/484853570516
427366,"Správca - Tkáčová Katarína, Ing.",484853570517,Detva,2019-07-07T04:01:36.693Z,,Záhradná,863/8,2019-07-07T04:01:36.693Z,ico://sk/484853570517
427367,"Správca - 1st restructuring, k. s.",484853570518,Bratislava,2019-07-07T04:01:36.696Z,,Kominárska,"2, 4",2019-07-07T04:01:36.696Z,ico://sk/484853570518
427368,"Správca - Insolvenčný správca, k. s.",484853570522,Trnava,2019-07-07T04:01:36.700Z,,Námestie SNP,3,2019-07-07T04:01:36.700Z,ico://sk/484853570522
427729,"Správca - bnt restructuring, k.s.",48485357,Bratislava,2019-07-07T04:01:38.150Z,,Cintorínska,7,2019-07-07T04:01:38.150Z,ico://sk/48485357_00284
427813,"Správca - Karlíková Alexandra, JUDr.",484853570501,Bratislava,2019-07-07T04:01:38.785Z,,Blatnícka,3,2019-07-07T04:01:38.785Z,ico://sk/484853570501
427814,"Správca - Areko Group, k. s.",484853570503,Košice,2019-07-07T04:01:38.789Z,,Vrátna,28,2019-07-07T04:01:38.789Z,ico://sk/484853570503
427815,"Správca - Bodová Viera, JUDr.",484853570506,Košice,2019-07-07T04:01:38.794Z,,Žižkova,6,2019-07-07T04:01:38.794Z,ico://sk/484853570506
427816,"Správca - Plško Peter, Mgr.",484853570508,Trenčín,2019-07-07T04:01:38.799Z,,Legionárska,6434/2,2019-07-07T04:01:38.799Z,ico://sk/484853570508
427817,"Správca - Kubíková Katarína, Mgr.",484853570510,Bratislava,2019-07-07T04:01:38.803Z,,Prievozská,4B,2019-07-07T04:01:38.803Z,ico://sk/484853570510
427846,"Správca - Straka Štefan, JUDr.",48485357,Košice,2019-07-07T04:01:38.933Z,,Krmanova,1,2019-07-07T04:01:38.933Z,ico://sk/48485357_00095
427889,"Správca - Benko Marek, JUDr., LLM",484853570267,Bratislava,2019-07-07T04:01:39.132Z,,Záhradnícka,46,2019-07-07T04:01:39.132Z,ico://sk/484853570267
427890,"Správca - Šimová Zuzana, JUDr.",484853570269,Lučenec,2019-07-07T04:01:39.138Z,,Komenského,18,2019-07-07T04:01:39.138Z,ico://sk/484853570269
427891,"Správca - Tonhauser Peter, JUDr.",484853570275,Banská Bystrica,2019-07-07T04:01:39.143Z,,Námestie SNP,17,2019-07-07T04:01:39.143Z,ico://sk/484853570275
427892,"Správca - Kapolka Miroslav, Ing.",484853570276,Bratislava,2019-07-07T04:01:39.147Z,,Kominárska,2,2019-07-07T04:01:39.147Z,ico://sk/484853570276
427893,"Správca - Fraňová Viera, Ing. Mgr.",484853570277,Pezinok,2019-07-07T04:01:39.152Z,,Holubyho,16,2019-07-07T04:01:39.152Z,ico://sk/484853570277
427894,"Správca - HMG Recovery, k.s.",484853570279,Žilina,2019-07-07T04:01:39.156Z,,Sládkovičova,6,2019-07-07T04:01:39.156Z,ico://sk/484853570279
427895,"Správca - Slovenská insolvenčná, k. s.",484853570280,Nitra,2019-07-07T04:01:39.161Z,,Párovská,26,2019-07-07T04:01:39.161Z,ico://sk/484853570280
427896,"Správca - Belaňová Mária, Mgr.",484853570281,Prievidza,2019-07-07T04:01:39.166Z,,Ul. Matice slovenskej,17,2019-07-07T04:01:39.166Z,ico://sk/484853570281
427897,"Správca - bnt restructuring, k.s.",484853570284,Bratislava,2019-07-07T04:01:39.170Z,,Cintorínska,7,2019-07-07T04:01:39.170Z,ico://sk/484853570284
427898,"Správca - Konkurzy a reštrukturalizácie, v. o. s.",484853570290,Dolný Kubín,2019-07-07T04:01:39.176Z,,M. R. Štefánika,1821,2019-07-07T04:01:39.176Z,ico://sk/484853570290
427899,"Správca - Reštrukturalizačná a konkurzná, k.s.",484853570291,Bratislava,2019-07-07T04:01:39.180Z,,Ľubinská,18,2019-07-07T04:01:39.180Z,ico://sk/484853570291
427900,"Správca - Dlhopolec Ivan, JUDr.",484853570308,Zvolen,2019-07-07T04:01:39.184Z,,Nám. SNP,27,2019-07-07T04:01:39.184Z,ico://sk/484853570308
427901,"Správca - Buricová Andrea, Mgr.",484853570310,Dolný Kubín,2019-07-07T04:01:39.188Z,,Hviezdoslavovo nám.,27,2019-07-07T04:01:39.188Z,ico://sk/484853570310
427902,"Správca - Šperková Andrea, Mgr.",484853570311,Čadca,2019-07-07T04:01:39.192Z,,Palárikova,76,2019-07-07T04:01:39.192Z,ico://sk/484853570311
427903,"Správca - Barkoci Stanislav, JUDr.",484853570313,Nitra,2019-07-07T04:01:39.196Z,,Hollého,10,2019-07-07T04:01:39.196Z,ico://sk/484853570313
427904,"Správca - Lempochnerová Naďa, Ing.",484853570314,Halič,2019-07-07T04:01:39.200Z,,Partizánska,15,2019-07-07T04:01:39.200Z,ico://sk/484853570314
427905,"Správca - Besler Vladimír, Ing.",484853570317,Trebišov,2019-07-07T04:01:39.207Z,,Cukrovarská,26,2019-07-07T04:01:39.207Z,ico://sk/484853570317
427906,"Správca - Plichta Jaroslav, JUDr.",484853570318,Dolný Kubín,2019-07-07T04:01:39.216Z,,Radlinského,1718,2019-07-07T04:01:39.216Z,ico://sk/484853570318
427907,"Správca - Selvek Róbert, JUDr.",484853570320,Košice,2019-07-07T04:01:39.224Z,,Němcovej,30,2019-07-07T04:01:39.224Z,ico://sk/484853570320
427908,"Správca - Timár Myjavcová Eva, Mgr.",484853570322,Šaľa,2019-07-07T04:01:39.228Z,,Štúrova,42,2019-07-07T04:01:39.228Z,ico://sk/484853570322
427909,"Správca - Pataj Marián, JUDr.",484853570324,Banská Bystrica,2019-07-07T04:01:39.233Z,,J. Chalupku,8,2019-07-07T04:01:39.233Z,ico://sk/484853570324
427910,"Správca - ADVO INSOLVENCY, k. s.",484853570325,Piešťany,2019-07-07T04:01:39.239Z,,Sládkovičova,2069/10A,2019-07-07T04:01:39.239Z,ico://sk/484853570325
427911,"Správca - Longauerová Radka, Mgr.",484853570326,Banská Bystrica,2019-07-07T04:01:39.246Z,,Horná,65/A,2019-07-07T04:01:39.246Z,ico://sk/484853570326
427912,"Správca - Mularčíková Barbora, JUDr.",484853570457,Bratislava,2019-07-07T04:01:39.253Z,,Nám. M. Benku,15,2019-07-07T04:01:39.253Z,ico://sk/484853570457
427913,"Správca - Kováčik Ján, Mgr.",484853570459,Bratislava,2019-07-07T04:01:39.260Z,,Odborárske nám.,3,2019-07-07T04:01:39.260Z,ico://sk/484853570459
427914,"Správca - Medviď Michael, JUDr.",484853570460,Košice,2019-07-07T04:01:39.267Z,,Štúrova,27,2019-07-07T04:01:39.267Z,ico://sk/484853570460
427915,"Správca - KP recovery, k.s.",484853570461,Bratislava,2019-07-07T04:01:39.273Z,,Tyršovo nábrežie,12,2019-07-07T04:01:39.273Z,ico://sk/484853570461
427916,"Správca - Žoldoš Peter, Mgr. Ing. MVDr., PhD.",484853570463,Poprad - Matejovce,2019-07-07T04:01:39.280Z,,Staničná,9,2019-07-07T04:01:39.280Z,ico://sk/484853570463
427917,"Správca - Mikáči Marian, JUDr.",484853570465,Bratislava,2019-07-07T04:01:39.284Z,,Prievozská,4,2019-07-07T04:01:39.284Z,ico://sk/484853570465
427918,"Správca - Jaroščák Jozef, JUDr.",484853570447,Bardejov,2019-07-07T04:01:39.288Z,,Radničné námestie,33,2019-07-07T04:01:39.288Z,ico://sk/484853570447
427919,"Správca - Ferenčíková Milota, JUDr., PhD.",484853570448,Martin,2019-07-07T04:01:39.293Z,,P. Mudroňa,505/5,2019-07-07T04:01:39.293Z,ico://sk/484853570448
427920,"Správca - Sušina Kristián, Ing., PhD.",484853570450,Košice,2019-07-07T04:01:39.298Z,,Garbiarska,5,2019-07-07T04:01:39.298Z,ico://sk/484853570450
427921,"Správca - Pirohár Anett, Ing.",484853570453,Bratislava,2019-07-07T04:01:39.303Z,,Jaskový rad,189,2019-07-07T04:01:39.303Z,ico://sk/484853570453
427922,"Správca - Šperka Miroslav, Ing. Mgr., LL.M",484853570454,Banská Bystrica,2019-07-07T04:01:39.307Z,,Kapitulská,12,2019-07-07T04:01:39.307Z,ico://sk/484853570454
427925,"Správca - Dobrocká Janka, Ing., MBA",484853570293,Lučenec,2019-07-07T04:01:39.320Z,,Rádayho,8,2019-07-07T04:01:39.320Z,ico://sk/484853570293
427926,"Správca - Jacko Martin, JUDr.",484853570268,Bratislava,2019-07-07T04:01:39.327Z,,Zámocké schody,2/A,2019-07-07T04:01:39.327Z,ico://sk/484853570268
427927,"Správca - Beňová Ľubomíra, Mgr.",484853570270,Komárno,2019-07-07T04:01:39.333Z,,Záhradnícka,10,2019-07-07T04:01:39.333Z,ico://sk/484853570270
427928,"Správca - Gallová Marína, Mgr.",484853570271,Martin,2019-07-07T04:01:39.339Z,,Jilemnického,30,2019-07-07T04:01:39.339Z,ico://sk/484853570271
427929,"Správca - Hipp Róbert, JUDr.",484853570272,Nitra,2019-07-07T04:01:39.345Z,,Farská,33/ I.p.,2019-07-07T04:01:39.345Z,ico://sk/484853570272
427930,"Správca - Plichtová Eva, JUDr., PhD.",484853570273,Dolný Kubín,2019-07-07T04:01:39.350Z,,Radlinského,1718,2019-07-07T04:01:39.350Z,ico://sk/484853570273
427931,"Správca - Vrška Pavel, Mgr.",484853570274,Veľký Krtíš,2019-07-07T04:01:39.354Z,,M.R. Štefánika,2,2019-07-07T04:01:39.354Z,ico://sk/484853570274
427932,"Správca - Hlad Miroslav, Mgr.",484853570278,Kysucké Nové Mesto,2019-07-07T04:01:39.358Z,,Vajanského,588,2019-07-07T04:01:39.358Z,ico://sk/484853570278
427933,"Správca - Hurtiš Martin, Mgr.",484853570282,Prievidza,2019-07-07T04:01:39.362Z,,Matice Slovenskej,17,2019-07-07T04:01:39.362Z,ico://sk/484853570282
427934,"Správca - Divulitová Mária, JUDr.",484853570283,Humenné,2019-07-07T04:01:39.367Z,,Kukorelliho,58,2019-07-07T04:01:39.367Z,ico://sk/484853570283
427935,"Správca - SKKS, k.s.",484853570285,Dubnica nad Váhom,2019-07-07T04:01:39.371Z,,Námestie Matice slovenskej,4262/23,2019-07-07T04:01:39.371Z,ico://sk/484853570285
427936,Správca - AB restructuring k. s.,484853570327,Bratislava,2019-07-07T04:01:39.375Z,,Dostojevského,19,2019-07-07T04:01:39.375Z,ico://sk/484853570327
427937,"Správca - Chovanová Stela, Mgr.",484853570328,Zvolen,2019-07-07T04:01:39.380Z,,J. Kozáčeka,13,2019-07-07T04:01:39.380Z,ico://sk/484853570328
427938,"Správca - Grendel Peter, JUDr. Ing., PhD.",484853570329,Košice,2019-07-07T04:01:39.384Z,,Štúrova,27,2019-07-07T04:01:39.384Z,ico://sk/484853570329
427939,"Správca - Jančiar Slavomír, Mgr.",484853570330,Zvolen,2019-07-07T04:01:39.388Z,,J. Kozáčeka,13,2019-07-07T04:01:39.388Z,ico://sk/484853570330
427940,"Správca - Kasatkin Alexander, JUDr.",484853570331,Žiar nad Hronom,2019-07-07T04:01:39.392Z,,SNP,19,2019-07-07T04:01:39.392Z,ico://sk/484853570331
427941,"Správca - Novosad Peter, JUDr.",484853570333,Prešov,2019-07-07T04:01:39.396Z,,Masarykova,16,2019-07-07T04:01:39.396Z,ico://sk/484853570333
427942,"Správca - Chlapík Martin, JUDr. Ing.",484853570334,Žilina,2019-07-07T04:01:39.401Z,,Sládkovičova,167/13,2019-07-07T04:01:39.401Z,ico://sk/484853570334
427943,"Správca - Podunajská konkurzná, k. s.",484853570336,Nána,2019-07-07T04:01:39.404Z,,1. mája,6,2019-07-07T04:01:39.404Z,ico://sk/484853570336
427944,"Správca - Bako Jaroslav, JUDr.",484853570338,Zvolen,2019-07-07T04:01:39.408Z,,J. Kozáčeka,13E,2019-07-07T04:01:39.408Z,ico://sk/484853570338
427945,"Správca - Forgáč Peter, Mgr.",484853570340,Bratislava,2019-07-07T04:01:39.412Z,,Zámocká,14,2019-07-07T04:01:39.412Z,ico://sk/484853570340
427946,"Správca - Aksamit Martin, JUDr.",484853570344,Bratislava,2019-07-07T04:01:39.416Z,,Michalská,14,2019-07-07T04:01:39.416Z,ico://sk/484853570344
427947,"Správca - Čalfa Tomáš, Mgr. Ing.",484853570346,Bratislava,2019-07-07T04:01:39.421Z,,Pribišova,31,2019-07-07T04:01:39.421Z,ico://sk/484853570346
427948,"Správca - Kiča Michal, Mgr.",484853570458,Bratislava,2019-07-07T04:01:39.425Z,,Prievozská,4B,2019-07-07T04:01:39.425Z,ico://sk/484853570458
427949,"Správca - Arendacký Peter, Mgr.",484853570462,Bratislava,2019-07-07T04:01:39.429Z,,Čapkova,2,2019-07-07T04:01:39.429Z,ico://sk/484853570462
427950,"Správca - Žoldošová Anna, JUDr. Ing.",484853570464,Poprad - Matejovce,2019-07-07T04:01:39.433Z,,Staničná,9,2019-07-07T04:01:39.433Z,ico://sk/484853570464
427951,"Správca - Galgoczy Martin, JUDr.",484853570466,Trebišov,2019-07-07T04:01:39.436Z,,M.R.Štefánika,1832,2019-07-07T04:01:39.436Z,ico://sk/484853570466
427952,"Správca - Babeľa Miroslav, Mgr. Ing.",484853570468,Považská Bystrica,2019-07-07T04:01:39.440Z,,Centrum,27/32,2019-07-07T04:01:39.440Z,ico://sk/484853570468
427953,"Správca - Správcovský dom, k.s.",484853570469,Partizánske,2019-07-07T04:01:39.444Z,,Nitrianska,42,2019-07-07T04:01:39.444Z,ico://sk/484853570469
427954,"Správca - Jakubis Bohdan, JUDr.",484853570470,Bratislava,2019-07-07T04:01:39.448Z,,Zámocká,10,2019-07-07T04:01:39.448Z,ico://sk/484853570470
427955,"Správca - JUDr. Ďurčeková, správca k.s.",484853570471,Banská Bystrica,2019-07-07T04:01:39.451Z,,Námestie slobody,5,2019-07-07T04:01:39.451Z,ico://sk/484853570471
427956,"Správca - Demčák Stanislav, JUDr.",484853570476,Bratislava,2019-07-07T04:01:39.455Z,,Štefánikova,8,2019-07-07T04:01:39.455Z,ico://sk/484853570476
427957,"Správca - Kubriková Veronika, JUDr., PhD.",484853570478,Bratislava,2019-07-07T04:01:39.459Z,,Vajnorská,100/A,2019-07-07T04:01:39.459Z,ico://sk/484853570478
427958,"Správca - Kovalčuková Ingrid, JUDr.",484853570479,Košice,2019-07-07T04:01:39.463Z,,Čajakova,1,2019-07-07T04:01:39.463Z,ico://sk/484853570479
427959,"Správca - Jurčo Ľuboš, Mgr.",484853570286,Bratislava,2019-07-07T04:01:39.467Z,,Pribinova,25,2019-07-07T04:01:39.467Z,ico://sk/484853570286
427960,"Správca - Brož Michal, JUDr.",484853570287,Ružomberok,2019-07-07T04:01:39.471Z,,A. Bernoláka,6,2019-07-07T04:01:39.471Z,ico://sk/484853570287
427961,"Správca - Flíder Vladimír, JUDr.",484853570288,Zvolen,2019-07-07T04:01:39.478Z,,Trhová,1,2019-07-07T04:01:39.478Z,ico://sk/484853570288
427962,"Správca - SKKP, k. s.",484853570289,Bratislava,2019-07-07T04:01:39.482Z,,Panenská,24,2019-07-07T04:01:39.482Z,ico://sk/484853570289
427963,"Správca - Gregorová Gabriela, Ing.",484853570292,Žilina,2019-07-07T04:01:39.486Z,,Andreja Kmeťa,19,2019-07-07T04:01:39.486Z,ico://sk/484853570292
427964,"Správca - Marko Dušan, Mgr.",484853570294,Bratislava,2019-07-07T04:01:39.491Z,,Kominárska,"2, 4",2019-07-07T04:01:39.491Z,ico://sk/484853570294
427965,"Správca - Adamcová Janette, Mgr.",484853570295,Myjava,2019-07-07T04:01:39.495Z,,Staromyjavská,1031/14,2019-07-07T04:01:39.495Z,ico://sk/484853570295
427966,"Správca - Lisák Vladimír, JUDr.",484853570296,Michalovce,2019-07-07T04:01:39.499Z,,Sama Chalupku,10,2019-07-07T04:01:39.499Z,ico://sk/484853570296
427967,"Správca - Kirňak Martin, JUDr.",484853570298,Prešov,2019-07-07T04:01:39.503Z,,Vajanského,43,2019-07-07T04:01:39.503Z,ico://sk/484853570298
427968,"Správca - Nižňanský Jaroslav, Mgr.",484853570299,Bratislava,2019-07-07T04:01:39.508Z,,Panenská,13,2019-07-07T04:01:39.508Z,ico://sk/484853570299
427969,"Správca - Duhoň Peter, Ing.",484853570297,Košice - Šaca,2019-07-07T04:01:39.512Z,,Učňovská,1,2019-07-07T04:01:39.512Z,ico://sk/484853570297
427970,"Správca - Petrášová Laiferová Jana, Mgr.",484853570300,Piešťany,2019-07-07T04:01:39.516Z,,Royova,9,2019-07-07T04:01:39.516Z,ico://sk/484853570300
427971,"Správca - Olekšák Marek, JUDr.",484853570305,Martin,2019-07-07T04:01:39.519Z,,Helsinská,33,2019-07-07T04:01:39.519Z,ico://sk/484853570305
427972,"Správca - Janšo Daniel, JUDr.",484853570309,Banská Bystrica,2019-07-07T04:01:39.523Z,,Horná,2,2019-07-07T04:01:39.523Z,ico://sk/484853570309
427973,"Správca - Szabóová Zuzana, JUDr.",484853570312,Nové Zámky,2019-07-07T04:01:39.527Z,,L. Kassáka,8,2019-07-07T04:01:39.527Z,ico://sk/484853570312
427974,"Správca - Hofierková Xénia, Mgr.",484853570315,Trenčín,2019-07-07T04:01:39.531Z,,Mierové námestie,37,2019-07-07T04:01:39.531Z,ico://sk/484853570315
427975,"Správca - Zemanovič Branislav, Mgr.",484853570316,Trenčín,2019-07-07T04:01:39.538Z,,Piaristická,44,2019-07-07T04:01:39.538Z,ico://sk/484853570316
427976,"Správca - Bojo Vevurková Marta, JUDr.",484853570319,Námestovo,2019-07-07T04:01:39.542Z,,ul. Mieru,312/13,2019-07-07T04:01:39.542Z,ico://sk/484853570319
427977,"Správca - Timár Tibor, JUDr.",484853570321,Šaľa,2019-07-07T04:01:39.546Z,,Štúrova,42,2019-07-07T04:01:39.546Z,ico://sk/484853570321
427978,"Správca - Sandtner Lucia, Ing., PhD.",484853570323,Senica,2019-07-07T04:01:39.550Z,,Hviezdoslavova,477,2019-07-07T04:01:39.550Z,ico://sk/484853570323
427979,"Správca - Hutňanová Ivana, JUDr.",484853570332,Bratislava,2019-07-07T04:01:39.554Z,,Krížna,38,2019-07-07T04:01:39.554Z,ico://sk/484853570332
427980,"Správca - Kuruc Dušan, Ing.",484853570481,Humenné,2019-07-07T04:01:39.558Z,,Štefánikova,18,2019-07-07T04:01:39.558Z,ico://sk/484853570481
427981,"Správca - Betáková Krkošková Zuzana, JUDr.",484853570482,Bratislava,2019-07-07T04:01:39.562Z,,Révová,7,2019-07-07T04:01:39.562Z,ico://sk/484853570482
427982,"Správca - Vidlička Lukáš, JUDr.",484853570483,Bučany,2019-07-07T04:01:39.566Z,,Bučany,258,2019-07-07T04:01:39.566Z,ico://sk/484853570483
427983,"Správca - Sopko Peter, JUDr., LL.M.",484853570484,Trnava,2019-07-07T04:01:39.571Z,,Paulínska,24,2019-07-07T04:01:39.571Z,ico://sk/484853570484
427984,"Správca - Simko Ján, Ing.",484853570467,Košice,2019-07-07T04:01:39.577Z,,Kukučínova,14,2019-07-07T04:01:39.577Z,ico://sk/484853570467
427985,"Správca - Gelatka Bohuslav, Mgr.",484853570473,Považská Bystrica,2019-07-07T04:01:39.582Z,,Moyzesova,816/100,2019-07-07T04:01:39.582Z,ico://sk/484853570473
427987,"Správca - Glemba Marek, JUDr.",484853570348,Bratislava,2019-07-07T04:01:39.590Z,,"Odborárske nám. 3, vchod Májkova 3",,2019-07-07T04:01:39.590Z,ico://sk/484853570348
427988,"Správca - Piršel Marek, Mgr.",484853570349,Bratislava,2019-07-07T04:01:39.594Z,,Kopčianska,10,2019-07-07T04:01:39.594Z,ico://sk/484853570349
427989,"Správca - Sláviková Ivana, JUDr.",484853570350,Bratislava,2019-07-07T04:01:39.598Z,,Mostová,2,2019-07-07T04:01:39.598Z,ico://sk/484853570350
427990,"Správca - INSOLVENCY TRUSTEE, k. s.",484853570352,Galanta,2019-07-07T04:01:39.603Z,,Vajanského,3157/24,2019-07-07T04:01:39.603Z,ico://sk/484853570352
427991,"Správca - Molčanyiová Slávka, Ing., PhD",484853570354,Klokočov,2019-07-07T04:01:39.607Z,,Klokočov,45,2019-07-07T04:01:39.607Z,ico://sk/484853570354
427992,"Správca - Podhorská Surkošová Katarína, Mgr.",484853570355,Bratislava,2019-07-07T04:01:39.611Z,,Hraničná,12,2019-07-07T04:01:39.611Z,ico://sk/484853570355
427993,"Správca - Beslerová Iveta, Ing.",484853570356,Trebišov,2019-07-07T04:01:39.615Z,,Cukrovarská,26,2019-07-07T04:01:39.615Z,ico://sk/484853570356
427994,"Správca - Gajdošech Ondrej, JUDr.",484853570358,Košice,2019-07-07T04:01:39.619Z,,Krmanova,14,2019-07-07T04:01:39.619Z,ico://sk/484853570358
427995,"Správca - Pihorňa Peter, Mgr.",484853570359,Košice,2019-07-07T04:01:39.623Z,,Námestie osloboditeľov,3,2019-07-07T04:01:39.623Z,ico://sk/484853570359
427996,"Správca - Novikmec Marián, JUDr.",484853570360,Vranov nad Topľou,2019-07-07T04:01:39.627Z,,Rázusova,125,2019-07-07T04:01:39.627Z,ico://sk/484853570360
427997,"Správca - Slovenská konkurzná a reštrukturalizačná, k. s.",484853570351,Bratislava,2019-07-07T04:01:39.631Z,,Miletičova,5B,2019-07-07T04:01:39.631Z,ico://sk/484853570351
427998,"Správca - iTRUSTee Restructuring, k. s.",484853570353,Prešov,2019-07-07T04:01:39.636Z,,Petrovianska,38/A,2019-07-07T04:01:39.636Z,ico://sk/484853570353
427999,"Správca - Krčová Anita, JUDr.",484853570357,Košice,2019-07-07T04:01:39.640Z,,Thurzova,6,2019-07-07T04:01:39.640Z,ico://sk/484853570357
428000,"Správca - Bajužík Ľuboš, JUDr.",484853570366,Humenné,2019-07-07T04:01:39.644Z,,Námestie slobody,2,2019-07-07T04:01:39.644Z,ico://sk/484853570366
428001,"Správca - Fardous Fadi, JUDr.",484853570370,Nitra,2019-07-07T04:01:39.648Z,,Štúrova,21,2019-07-07T04:01:39.648Z,ico://sk/484853570370
428002,"Správca - Kadura Lubomír, Mgr.",484853570371,Žilina,2019-07-07T04:01:39.652Z,,ul. Republiky,16,2019-07-07T04:01:39.652Z,ico://sk/484853570371
428003,"Správca - LEGAL RECOVERY, k. s.",484853570376,Bratislava,2019-07-07T04:01:39.656Z,,Palárikova,14,2019-07-07T04:01:39.656Z,ico://sk/484853570376
428004,"Správca - Hetényiová Veronika, Mgr.",484853570377,Nitra,2019-07-07T04:01:39.660Z,,Mostná,62,2019-07-07T04:01:39.660Z,ico://sk/484853570377
428005,"Správca - Jakubčo Jaroslav, JUDr.",484853570378,Banská Bystrica,2019-07-07T04:01:39.664Z,,Mladých budovateľov,2,2019-07-07T04:01:39.664Z,ico://sk/484853570378
428006,"Správca - Macháčková Dagmar, Ing.",484853570382,Hlohovec,2019-07-07T04:01:39.668Z,,Jarmočná,3,2019-07-07T04:01:39.668Z,ico://sk/484853570382
428007,"Správca - Malich Martin, JUDr.",484853570384,Bratislava,2019-07-07T04:01:39.673Z,,Záhradnícka,30,2019-07-07T04:01:39.673Z,ico://sk/484853570384
428008,"Správca - Gabrišová Petra, Mgr.",484853570386,Bratislava,2019-07-07T04:01:39.677Z,,Zelená,2,2019-07-07T04:01:39.677Z,ico://sk/484853570386
428009,"Správca - LawService Recovery, k.s.",484853570389,Hlohovec,2019-07-07T04:01:39.682Z,,Pribinova,381/23,2019-07-07T04:01:39.682Z,ico://sk/484853570389
428010,"Správca - Bodnár Ján, JUDr.",484853570392,Košice,2019-07-07T04:01:39.687Z,,Žriedlová,3,2019-07-07T04:01:39.687Z,ico://sk/484853570392
428011,"Správca - K.R.E. konkurzy a reštrukturalizácie, v.o.s.",484853570393,Bratislava,2019-07-07T04:01:39.692Z,,Zelená,2,2019-07-07T04:01:39.692Z,ico://sk/484853570393
428012,"Správca - Gregušková Ľubica, Mgr.",484853570394,Spišská Nová Ves,2019-07-07T04:01:39.696Z,,Markušovská cesta,1,2019-07-07T04:01:39.696Z,ico://sk/484853570394
428013,"Správca - Ledecký Vladimír, Mgr. Ing.",484853570395,Poprad,2019-07-07T04:01:39.700Z,,Tatranské námestie,3,2019-07-07T04:01:39.700Z,ico://sk/484853570395
428014,"Správca - Semko Maroš, Ing.",484853570396,Bratislava,2019-07-07T04:01:39.704Z,,Údernícka,11,2019-07-07T04:01:39.704Z,ico://sk/484853570396
428015,Správca - Hellenbart reštrukturalizačná a správcovská k.s.,484853570397,Lučenec,2019-07-07T04:01:39.708Z,,Martina Rázusa,146/23,2019-07-07T04:01:39.708Z,ico://sk/484853570397
428016,"Správca - MK Recovery, k.s.",484853570403,Bratislava,2019-07-07T04:01:39.713Z,,Staré záhrady,3,2019-07-07T04:01:39.713Z,ico://sk/484853570403
428017,"Správca - Balážiková Andrea, JUDr., PhD.",484853570361,Banská Bystrica,2019-07-07T04:01:39.717Z,,Horná,65/A,2019-07-07T04:01:39.717Z,ico://sk/484853570361
428018,"Správca - Petrová Renáta, Ing.",484853570362,Šaľa,2019-07-07T04:01:39.721Z,,Komenského,33,2019-07-07T04:01:39.721Z,ico://sk/484853570362
428019,"Správca - Muzika Radovan, Mgr.",484853570363,Humenné,2019-07-07T04:01:39.727Z,,Štúrova,30,2019-07-07T04:01:39.727Z,ico://sk/484853570363
428020,"Správca - Čepčeková Jana, JUDr.",484853570364,Humenné,2019-07-07T04:01:39.733Z,,Námestie Slobody,2,2019-07-07T04:01:39.733Z,ico://sk/484853570364
428021,"Správca - Birka Radovan, JUDr.",484853570365,Ružomberok,2019-07-07T04:01:39.739Z,,Plavisko,7,2019-07-07T04:01:39.739Z,ico://sk/484853570365
428022,"Správca - Mihálik Michal, Mgr.",484853570367,Bratislava,2019-07-07T04:01:39.746Z,,Zámocká,14,2019-07-07T04:01:39.746Z,ico://sk/484853570367
428023,"Správca - Nosková Milena, Mgr.",484853570368,Bratislava,2019-07-07T04:01:39.751Z,,Zámocká,14,2019-07-07T04:01:39.751Z,ico://sk/484853570368
428024,"Správca - Zvara Peter, Mgr.",484853570369,Bratislava,2019-07-07T04:01:39.756Z,,Obchodná,2,2019-07-07T04:01:39.756Z,ico://sk/484853570369
428025,"Správca - Šufliarska Martina, Ing.",484853570372,Lučenec,2019-07-07T04:01:39.760Z,,Dr. Herza,12,2019-07-07T04:01:39.760Z,ico://sk/484853570372
428026,"Správca - Zahradníková Jarmila, JUDr.",484853570373,Bratislava,2019-07-07T04:01:39.764Z,,Pluhová,78,2019-07-07T04:01:39.764Z,ico://sk/484853570373
428027,"Správca - TETRA INSOLVENCY, k. s.",484853570374,Košice,2019-07-07T04:01:39.768Z,,Kuzmányho,29,2019-07-07T04:01:39.768Z,ico://sk/484853570374
428028,Správca - Čechová Insolvency Services k.s.,484853570375,Bratislava,2019-07-07T04:01:39.773Z,,Štúrova,4,2019-07-07T04:01:39.773Z,ico://sk/484853570375
428029,"Správca - Poláčková Martina, JUDr.",484853570379,Trenčín,2019-07-07T04:01:39.777Z,,Smetanova,1655/7,2019-07-07T04:01:39.777Z,ico://sk/484853570379
428030,"Správca - iTRUSTee Recovery, k.s.",484853570380,Bratislava,2019-07-07T04:01:39.782Z,,Seberíniho,2,2019-07-07T04:01:39.782Z,ico://sk/484853570380
428031,"Správca - JUSTICIA Recovery, k.s.",484853570381,Bratislava,2019-07-07T04:01:39.787Z,,Mlynské Nivy,48,2019-07-07T04:01:39.787Z,ico://sk/484853570381
428032,"Správca - Dobiš Marián, JUDr.",484853570383,Nitra,2019-07-07T04:01:39.801Z,,Farská,30,2019-07-07T04:01:39.801Z,ico://sk/484853570383
428033,"Správca - Veselovský Peter, Ing.",484853570474,Ružomberok,2019-07-07T04:01:39.807Z,,A. Bernoláka,6,2019-07-07T04:01:39.807Z,ico://sk/484853570474
428034,"Správca - Reštrukturalizácie a konkurzy RS, v. o. s.",484853570475,Rimavská Sobota,2019-07-07T04:01:39.811Z,,Hlavné námestie,13,2019-07-07T04:01:39.811Z,ico://sk/484853570475
428035,"Správca - Rybár Juraj, JUDr.",484853570385,Zvolen,2019-07-07T04:01:39.815Z,,Stráž,223,2019-07-07T04:01:39.815Z,ico://sk/484853570385
428036,"Správca - Surmová Soňa, JUDr., LL.M.",484853570387,Prešov,2019-07-07T04:01:39.819Z,,Hlavná,122,2019-07-07T04:01:39.819Z,ico://sk/484853570387
428037,"Správca - Kasatkinová Zuzana, JUDr.",484853570388,Bratislava,2019-07-07T04:01:39.823Z,,Záhradnícka,46,2019-07-07T04:01:39.823Z,ico://sk/484853570388
428038,"Správca - Čepček Matúš, JUDr.",484853570390,Michalovce,2019-07-07T04:01:39.827Z,,Jána Kalinčiaka,2591/6,2019-07-07T04:01:39.827Z,ico://sk/484853570390
428039,"Správca - KRIVANKON, k.s.",484853570391,Banská Bystrica,2019-07-07T04:01:39.831Z,,Partizánska cesta,94,2019-07-07T04:01:39.831Z,ico://sk/484853570391
428040,"Správca - KRÁLIK & PARTNERS, konkurzy a reštrukturalizácie",484853570398,Košice,2019-07-07T04:01:39.836Z,,Štúrova,27,2019-07-07T04:01:39.836Z,ico://sk/484853570398
428041,"Správca - Kališka Tomáš, Mgr.",484853570399,Košice,2019-07-07T04:01:39.841Z,,Žriedlová,3,2019-07-07T04:01:39.841Z,ico://sk/484853570399
428042,"Správca - Kostolná Mária, JUDr.",484853570400,Žilina,2019-07-07T04:01:39.844Z,,Pavla Mudroňa,1191/5,2019-07-07T04:01:39.844Z,ico://sk/484853570400
428043,"Správca - Bartošovič Ondrej, Mgr.",484853570401,Šaľa,2019-07-07T04:01:39.848Z,,Pázmáňa,2020/30,2019-07-07T04:01:39.848Z,ico://sk/484853570401
428044,"Správca - Molnárová Alexandra, JUDr.",484853570402,Bratislava,2019-07-07T04:01:39.853Z,,Kominárska,"2, 4",2019-07-07T04:01:39.853Z,ico://sk/484853570402
428045,Správca - LEGES Recovery k.s.,484853570406,Banská Bystrica,2019-07-07T04:01:39.856Z,,Pod Urpínom,5,2019-07-07T04:01:39.856Z,ico://sk/484853570406
428046,"Správca - Kresl Eva, JUDr.",484853570477,Trnava,2019-07-07T04:01:39.861Z,,Pekárska,11,2019-07-07T04:01:39.861Z,ico://sk/484853570477
428047,Správca - Advisors k. s.,484853570480,Trebišov,2019-07-07T04:01:39.865Z,,Cukrovarská,26,2019-07-07T04:01:39.865Z,ico://sk/484853570480
428048,"Správca - Sopko Hana, JUDr., LL.M.",484853570486,Trnava,2019-07-07T04:01:39.869Z,,Paulínska,24,2019-07-07T04:01:39.869Z,ico://sk/484853570486
428049,"Správca - Gajdošová Hilda, Ing.",484853570487,Bratislava,2019-07-07T04:01:39.873Z,,Sabinovská,12,2019-07-07T04:01:39.873Z,ico://sk/484853570487
428050,"Správca - Konkurzná a Reštrukturalizačná, v. o. s.",484853570488,Nitra,2019-07-07T04:01:39.877Z,,Farská,31,2019-07-07T04:01:39.877Z,ico://sk/484853570488
428051,"Správca - Plechlo Juraj, JUDr. Ing.",484853570490,Bratislava,2019-07-07T04:01:39.882Z,,Ivánska cesta,15,2019-07-07T04:01:39.882Z,ico://sk/484853570490
428052,"Správca - FARDOUS PARTNERS správcovská, k. s.",484853570492,Zvolen,2019-07-07T04:01:39.885Z,,Námestie SNP,41,2019-07-07T04:01:39.885Z,ico://sk/484853570492
428053,"Správca - Kovačková Jana, Ing.",484853570495,Martin,2019-07-07T04:01:39.889Z,,Na Bystričku,796/9,2019-07-07T04:01:39.889Z,ico://sk/484853570495
428054,"Správca - Poturnay Daniel, Mgr.",484853570497,Sládkovičovo,2019-07-07T04:01:39.893Z,,Cukrovarská,225,2019-07-07T04:01:39.893Z,ico://sk/484853570497
428055,"Správca - BT Insolvency, k. s.",484853570498,Bratislava,2019-07-07T04:01:39.897Z,,Mariánska,12,2019-07-07T04:01:39.897Z,ico://sk/484853570498
428056,"Správca - Trnavský správcovský dom, k. s.",484853570500,Trnava,2019-07-07T04:01:39.901Z,,Námestie SNP,3,2019-07-07T04:01:39.901Z,ico://sk/484853570500
428057,"Správca - Šoltés Gabriel, JUDr.",484853570408,Michalovce,2019-07-07T04:01:39.905Z,,Štefánikova,76,2019-07-07T04:01:39.905Z,ico://sk/484853570408
428058,"Správca - Správcovská a poradenská, k. s.",484853570409,Košice,2019-07-07T04:01:39.909Z,,Garbiarska,5,2019-07-07T04:01:39.909Z,ico://sk/484853570409
428059,"Správca - INSOLVENCY GROUP, k. s.",484853570410,Bratislava,2019-07-07T04:01:39.914Z,,Trnavská cesta,27/B,2019-07-07T04:01:39.914Z,ico://sk/484853570410
428060,"Správca - Vorobeľ Tomáš, JUDr., LL.M.",484853570412,Humenné,2019-07-07T04:01:39.918Z,,Lipová,1,2019-07-07T04:01:39.918Z,ico://sk/484853570412
428061,"Správca - Bratislavská konkurzná a reštrukturalizačná, k. s.",484853570417,Bratislava,2019-07-07T04:01:39.921Z,,Dunajská,4,2019-07-07T04:01:39.921Z,ico://sk/484853570417
428062,"Správca - Koiš Richard, Mgr., MBA",484853570418,Ružomberok,2019-07-07T04:01:39.926Z,,Štiavnická,2018/7,2019-07-07T04:01:39.926Z,ico://sk/484853570418
428063,"Správca - Tökölyová Majerová Zdenka, JUDr.",484853570420,Banská Bystrica,2019-07-07T04:01:39.930Z,,Skuteckého,23,2019-07-07T04:01:39.930Z,ico://sk/484853570420
428064,"Správca - Pekár Bernard, JUDr. Ing., PhD.",484853570421,Banská Bystrica,2019-07-07T04:01:39.933Z,,Kukučínova,24,2019-07-07T04:01:39.933Z,ico://sk/484853570421
428065,"Správca - BMK Konkurz, k.s.",484853570423,Žilina,2019-07-07T04:01:39.937Z,,A. Kmeťa,19,2019-07-07T04:01:39.937Z,ico://sk/484853570423
428066,"Správca - Ďurana Marian, JUDr., PhD.",484853570424,Žilina,2019-07-07T04:01:39.942Z,,Sládkovičova,6,2019-07-07T04:01:39.942Z,ico://sk/484853570424
428067,"Správca - Šimová Erika, JUDr.",484853570427,Košice,2019-07-07T04:01:39.947Z,,Čajákova,5,2019-07-07T04:01:39.947Z,ico://sk/484853570427
428068,"Správca - Vrábel Peter, JUDr.",484853570485,Bratislava,2019-07-07T04:01:39.952Z,,Dvořákovo nábrežie,8/A,2019-07-07T04:01:39.952Z,ico://sk/484853570485
428069,Správca - LexCreditor k. s.,484853570489,Banská Bystrica,2019-07-07T04:01:39.957Z,,Zvolenská cesta,1769/14,2019-07-07T04:01:39.957Z,ico://sk/484853570489
428070,"Správca - Agner Vojtech, JUDr.",484853570491,Bratislava,2019-07-07T04:01:39.962Z,,Cintorínska,22,2019-07-07T04:01:39.962Z,ico://sk/484853570491
428071,"Správca - Hládeková Tatiana, Mgr.",484853570493,Bratislava,2019-07-07T04:01:39.966Z,,Prievozská,4B,2019-07-07T04:01:39.966Z,ico://sk/484853570493
428072,"Správca - Krnáč Štefan, Mgr.",484853570494,Brezovica,2019-07-07T04:01:39.970Z,,Osloboditeľov,28,2019-07-07T04:01:39.970Z,ico://sk/484853570494
428073,"Správca - Puškár Adam, JUDr.",484853570496,Bratislava,2019-07-07T04:01:39.974Z,,Karpatská,5,2019-07-07T04:01:39.974Z,ico://sk/484853570496
428074,"Správca - Jakab Štefan, Mgr.",484853570499,Košice,2019-07-07T04:01:39.978Z,,Nerudova,9,2019-07-07T04:01:39.978Z,ico://sk/484853570499
428075,"Správca - Fiolek Tomáš, Ing.",484853570433,Martin,2019-07-07T04:01:39.982Z,,Mudroňova,43,2019-07-07T04:01:39.982Z,ico://sk/484853570433
428076,"Správca - Gula Marek, JUDr.",484853570435,Prešov,2019-07-07T04:01:39.986Z,,Hlavná,29,2019-07-07T04:01:39.986Z,ico://sk/484853570435
428077,"Správca - PERSPECTA Recovery, k. s.",484853570404,Bardejov,2019-07-07T04:01:39.991Z,,Bardejovské kúpele,30,2019-07-07T04:01:39.991Z,ico://sk/484853570404
428078,"Správca - Križová Červenáková Ivana, JUDr.",484853570405,Košice,2019-07-07T04:01:39.995Z,,Žriedlová,3,2019-07-07T04:01:39.995Z,ico://sk/484853570405
428079,"Správca - Berezňaninová Ľuba, JUDr.",484853570407,Prešov,2019-07-07T04:01:39.999Z,,Hlavná,45,2019-07-07T04:01:39.999Z,ico://sk/484853570407
428080,"Správca - Katona Marieta, JUDr.",484853570411,Dunajská Streda,2019-07-07T04:01:40.003Z,,Korzo Bélu Bartóka,5119/14F,2019-07-07T04:01:40.003Z,ico://sk/484853570411
428081,"Správca - Živická Jana, JUDr.",484853570413,Banská Bystrica,2019-07-07T04:01:40.007Z,,Bakossova,8,2019-07-07T04:01:40.007Z,ico://sk/484853570413
428082,"Správca - RK Správca, k. s.",484853570414,Prešov,2019-07-07T04:01:40.011Z,,Slánska,20/A,2019-07-07T04:01:40.011Z,ico://sk/484853570414
428083,"Správca - insolva, k.s.",484853570415,Zvolen,2019-07-07T04:01:40.016Z,,Námestie SNP,74/28,2019-07-07T04:01:40.016Z,ico://sk/484853570415
428084,"Správca - Brláš Ondrej, Mgr.",484853570416,Nitra,2019-07-07T04:01:40.021Z,,Štefánikova,9,2019-07-07T04:01:40.021Z,ico://sk/484853570416
428085,"Správca - Cabadajová Mária, JUDr.",484853570419,Žilina,2019-07-07T04:01:40.026Z,,Uhoľná,9,2019-07-07T04:01:40.026Z,ico://sk/484853570419
428086,"Správca - Voloch Ján, Mgr.",484853570422,Bratislava,2019-07-07T04:01:40.031Z,,Vlčkova,8/A,2019-07-07T04:01:40.031Z,ico://sk/484853570422
428089,"Správca - Crossdefault Management Group, k. s.",484853570251,Žilina,2019-07-07T04:01:40.046Z,,D. Dlabača,28,2019-07-07T04:01:40.046Z,ico://sk/484853570251
428090,"Správca - Ďurmanová Gabriela, Ing.",484853570252,Žilina,2019-07-07T04:01:40.050Z,,Predmestská,8537/2B,2019-07-07T04:01:40.050Z,ico://sk/484853570252
428091,"Správca - Živčáková Kvetoslava, JUDr.",484853570253,Šamorín,2019-07-07T04:01:40.055Z,,Kováčska,23,2019-07-07T04:01:40.055Z,ico://sk/484853570253
428092,"Správca - Maďarová Lenka, JUDr.",484853570254,Žilina,2019-07-07T04:01:40.059Z,,Sládkovičova,6,2019-07-07T04:01:40.059Z,ico://sk/484853570254
428093,"Správca - Segečová Elena, Ing. JUDr.",484853570520,Bratislava,2019-07-07T04:01:40.064Z,,Tomášikova,64,2019-07-07T04:01:40.064Z,ico://sk/484853570520
428094,Správca - Insolvency k. s.,484853570335,Bratislava,2019-07-07T04:01:40.068Z,,Belopotockého,2,2019-07-07T04:01:40.068Z,ico://sk/484853570335
428095,"Správca - Miľanová Natália, Mgr.",484853570337,Zvolen,2019-07-07T04:01:40.072Z,,J. Kozáčeka,13,2019-07-07T04:01:40.072Z,ico://sk/484853570337
428096,Správca - KONRES k. s.,484853570339,Bratislava,2019-07-07T04:01:40.076Z,,Štefánikova,8,2019-07-07T04:01:40.076Z,ico://sk/484853570339
428097,"Správca - Martonová Monika, Mgr.",484853570425,Bratislava,2019-07-07T04:01:40.081Z,,Družstevná,2,2019-07-07T04:01:40.081Z,ico://sk/484853570425
428098,"Správca - Zselinszky Ladislav, Mgr.",484853570426,Dunajská Streda,2019-07-07T04:01:40.085Z,,Hlavná,28/7,2019-07-07T04:01:40.085Z,ico://sk/484853570426
428099,"Správca - Flíderová Ľubica, JUDr.",484853570428,Zvolen,2019-07-07T04:01:40.088Z,,Trhová,1,2019-07-07T04:01:40.088Z,ico://sk/484853570428
428100,Správca - BS Správcovská k. s.,484853570429,Trebišov,2019-07-07T04:01:40.094Z,,Cukrovarská,26,2019-07-07T04:01:40.094Z,ico://sk/484853570429
428101,"Správca - INSOLVENCY SOLUTIONS, k. s.",484853570430,Bratislava,2019-07-07T04:01:40.099Z,,Námestie SNP,14,2019-07-07T04:01:40.099Z,ico://sk/484853570430
428102,"Správca - Konta Richard, JUDr.",484853570431,Banská Bystrica,2019-07-07T04:01:40.103Z,,Horná,2,2019-07-07T04:01:40.103Z,ico://sk/484853570431
428103,"Správca - Lukáčiková Edita, JUDr. Ing.",484853570432,Bratislava,2019-07-07T04:01:40.108Z,,Tomášikova,3/a,2019-07-07T04:01:40.108Z,ico://sk/484853570432
428104,"Správca - Veréb Jaroslav, Ing.",484853570434,Martin,2019-07-07T04:01:40.113Z,,Mudroňova,43,2019-07-07T04:01:40.113Z,ico://sk/484853570434
428105,"Správca - Kontšeková Oľga, Mgr.",484853570439,Bratislava,2019-07-07T04:01:40.117Z,,Prievozská,4B,2019-07-07T04:01:40.117Z,ico://sk/484853570439
428106,"Správca - Šperka Jozef, JUDr., PhD. MBA",484853570442,Poprad,2019-07-07T04:01:40.120Z,,Karpatská,3256/15,2019-07-07T04:01:40.120Z,ico://sk/484853570442
428107,"Správca - Čerevka Emil, Ing.",484853570436,Humenné,2019-07-07T04:01:40.124Z,,Štefánikova,17,2019-07-07T04:01:40.124Z,ico://sk/484853570436
428108,"Správca - Nízky Peter, JUDr.",484853570437,Humenné,2019-07-07T04:01:40.128Z,,Námestie slobody,2,2019-07-07T04:01:40.128Z,ico://sk/484853570437
428109,"Správca - Bašnák Juraj, JUDr.",484853570256,Bratislava,2019-07-07T04:01:40.132Z,,Černyševského,10,2019-07-07T04:01:40.132Z,ico://sk/484853570256
428110,"Správca - Prigancová Marta, Ing.",484853570261,Medzilaborce,2019-07-07T04:01:40.137Z,,Zámočnícka,165/3,2019-07-07T04:01:40.137Z,ico://sk/484853570261
428111,"Správca - Hudeková Barbora, JUDr.",484853570263,Bratislava,2019-07-07T04:01:40.141Z,,Kominárska,2,2019-07-07T04:01:40.141Z,ico://sk/484853570263
428112,"Správca - Šamaj Jozef, JUDr.",484853570265,Raková,2019-07-07T04:01:40.145Z,,Raková,683,2019-07-07T04:01:40.145Z,ico://sk/484853570265
428113,"Správca - Bružeňáková Anna, Ing.",484853570255,Bratislava,2019-07-07T04:01:40.149Z,,Jesenná,4,2019-07-07T04:01:40.149Z,ico://sk/484853570255
428114,"Správca - Šabová Oľga, Ing.",484853570257,Trenčín,2019-07-07T04:01:40.153Z,,Dolný Šianec,1,2019-07-07T04:01:40.153Z,ico://sk/484853570257
428115,"Správca - Ivan Rudolf, Ing.",484853570258,Nitra,2019-07-07T04:01:40.157Z,,Štefánikova,4,2019-07-07T04:01:40.157Z,ico://sk/484853570258
428116,"Správca - I&R KONKURZY A REŠTRUKTURALIZÁCIE,k.s.",484853570259,Košice,2019-07-07T04:01:40.161Z,,Hlavná,25,2019-07-07T04:01:40.161Z,ico://sk/484853570259
428117,"Správca - Hajdúch Radoslav, JUDr.",484853570260,Bratislava,2019-07-07T04:01:40.164Z,,Námestie Martina Benku,9,2019-07-07T04:01:40.164Z,ico://sk/484853570260
428118,"Správca - IKORE, k.s.",484853570262,Košice,2019-07-07T04:01:40.168Z,,Mlynská,26,2019-07-07T04:01:40.168Z,ico://sk/484853570262
428119,"Správca - Pohovej Michal, JUDr.",484853570264,Bratislava,2019-07-07T04:01:40.172Z,,Námestie Slobody,10,2019-07-07T04:01:40.172Z,ico://sk/484853570264
428120,"Správca - Bilský Erik, JUDr.",484853570266,Trnava,2019-07-07T04:01:40.176Z,,Pekárska,11,2019-07-07T04:01:40.176Z,ico://sk/484853570266
428121,"Správca - Lukáč František, JUDr.",484853570341,Rožňava,2019-07-07T04:01:40.179Z,,Košická,56,2019-07-07T04:01:40.179Z,ico://sk/484853570341
428122,"Správca - Pejchalová Denisa, JUDr.",484853570342,Banská Bystrica,2019-07-07T04:01:40.183Z,,Nám. SNP,17,2019-07-07T04:01:40.183Z,ico://sk/484853570342
428123,"Správca - Ondrejovičová Zuzana, JUDr.",484853570343,Nové Mesto nad Váhom,2019-07-07T04:01:40.187Z,,ČSL. Armády,84/22,2019-07-07T04:01:40.187Z,ico://sk/484853570343
428124,"Správca - Vinarčík Martin, JUDr.",484853570345,Žiar nad Hronom,2019-07-07T04:01:40.191Z,,Námestie Matice Slovenskej,23/45,2019-07-07T04:01:40.191Z,ico://sk/484853570345
428125,"Správca - Gallová Nikoleta, Mgr.",484853570347,Šamorín,2019-07-07T04:01:40.195Z,,Hlavná,45,2019-07-07T04:01:40.195Z,ico://sk/484853570347
428126,"Správca - Starinský Peter, Mgr.",484853570301,Bratislava,2019-07-07T04:01:40.199Z,,Panenská,13,2019-07-07T04:01:40.199Z,ico://sk/484853570301
428127,"Správca - Podhorský Róbert, Mgr.",484853570302,Bratislava,2019-07-07T04:01:40.203Z,,Hraničná,12,2019-07-07T04:01:40.203Z,ico://sk/484853570302
428128,"Správca - BANKRUPTCY LIQUIDATION, k.s.",484853570303,Bratislava,2019-07-07T04:01:40.207Z,,Špitálska,10,2019-07-07T04:01:40.207Z,ico://sk/484853570303
428129,"Správca - Voleková Michaela, JUDr.",484853570304,Bratislava,2019-07-07T04:01:40.211Z,,Trnavská,27,2019-07-07T04:01:40.211Z,ico://sk/484853570304
428130,"Správca - Tkáč Michal, prof. RNDr., CSc.",484853570306,Košice,2019-07-07T04:01:40.215Z,,Werferova,3,2019-07-07T04:01:40.215Z,ico://sk/484853570306
428131,"Správca - Litvák Jozef, Ing., CSc.",484853570307,Trebišov,2019-07-07T04:01:40.219Z,,Dargovská,3283/17,2019-07-07T04:01:40.219Z,ico://sk/484853570307
428132,"Správca - Koľveková Jana, JUDr.",484853570438,Košice,2019-07-07T04:01:40.223Z,,Werferova,1,2019-07-07T04:01:40.223Z,ico://sk/484853570438
428133,"Správca - Maruniak Jozef, Mgr.",484853570440,Bratislava,2019-07-07T04:01:40.227Z,,Hviezdoslavovo námestie,14,2019-07-07T04:01:40.227Z,ico://sk/484853570440
428134,"Správca - Orbanová Eva, Ing.",484853570441,Prešov,2019-07-07T04:01:40.231Z,,Slovenská,69,2019-07-07T04:01:40.231Z,ico://sk/484853570441
428135,"Správca - Háberová Eva, JUDr.",484853570443,Zvolen,2019-07-07T04:01:40.235Z,,Trhova,1,2019-07-07T04:01:40.235Z,ico://sk/484853570443
428136,Správca - Administrateur Judiciaire - Konkursverwalter Manik,484853570444,Košice,2019-07-07T04:01:40.239Z,,Národná trieda,4,2019-07-07T04:01:40.239Z,ico://sk/484853570444
428137,"Správca - Ďaďo Jaroslav, Ing.",484853570445,Banská Bystrica,2019-07-07T04:01:40.243Z,,29. augusta,31,2019-07-07T04:01:40.243Z,ico://sk/484853570445
428138,"Správca - Tyko Lukáš, JUDr.",484853570446,Trenčín,2019-07-07T04:01:40.247Z,,Palackého,5,2019-07-07T04:01:40.247Z,ico://sk/484853570446
428139,"Správca - Cibulová Viera, JUDr.",484853570449,Zvolen,2019-07-07T04:01:40.251Z,,Nám. SNP,70/36,2019-07-07T04:01:40.251Z,ico://sk/484853570449
428140,"Správca - Fioleková Elena, Ing.",484853570451,Martin,2019-07-07T04:01:40.255Z,,Mudroňova,43,2019-07-07T04:01:40.255Z,ico://sk/484853570451
428141,"Správca - Galbavý Marián, Mgr. Ing.",484853570452,Trnava,2019-07-07T04:01:40.259Z,,Piešťanská,3,2019-07-07T04:01:40.259Z,ico://sk/484853570452
428142,"Správca - Žlnková Dana, Mgr.",484853570455,Veľký Krtíš,2019-07-07T04:01:40.265Z,,Komenského,5,2019-07-07T04:01:40.265Z,ico://sk/484853570455
428143,"Správca - Šimulák Imrich, Mgr.",484853570456,Čadca,2019-07-07T04:01:40.269Z,,Podzávoz,302,2019-07-07T04:01:40.269Z,ico://sk/484853570456
428153,"Správca - Fabian Adrián, Mgr.",484853570109,Prešov,2019-07-07T04:01:40.319Z,,Tkáčska,2,2019-07-07T04:01:40.319Z,ico://sk/484853570109
428154,"Správca - Babin Vladimír, JUDr.",484853570110,Prešov,2019-07-07T04:01:40.323Z,,Hlavná,29,2019-07-07T04:01:40.323Z,ico://sk/484853570110
428155,"Správca - Husár Ján, Doc. JUDr., CSc.",484853570112,Košice,2019-07-07T04:01:40.327Z,,Alžbetina,3,2019-07-07T04:01:40.327Z,ico://sk/484853570112
428156,"Správca - Korytár Pavol, Mgr. Ing.",484853570114,Trnava,2019-07-07T04:01:40.331Z,,Sladovnícka,13,2019-07-07T04:01:40.331Z,ico://sk/484853570114
428157,"Správca - Prvý správcovský dom, k.s.",484853570115,Trnava,2019-07-07T04:01:40.335Z,,Nitrianska,5,2019-07-07T04:01:40.335Z,ico://sk/484853570115
428158,"Správca - Burdová Melánia, JUDr.",484853570116,Košice,2019-07-07T04:01:40.339Z,,Vrátna,22/A,2019-07-07T04:01:40.339Z,ico://sk/484853570116
428159,"Správca - Šefčík Miroslav R., Ing., PhD.",484853570118,Trnava,2019-07-07T04:01:40.343Z,,Podjavorinskej,37/1,2019-07-07T04:01:40.343Z,ico://sk/484853570118
428160,"Správca - Morochovič Marek, JUDr.",484853570119,Bratislava,2019-07-07T04:01:40.348Z,,Križna,56,2019-07-07T04:01:40.348Z,ico://sk/484853570119
428161,"Správca - Baran Róbert, Ing.",484853570123,Bratislava,2019-07-07T04:01:40.351Z,,Seberíniho,2,2019-07-07T04:01:40.351Z,ico://sk/484853570123
428162,"Správca - Fink Daniel, JUDr.",484853570124,Humenné,2019-07-07T04:01:40.355Z,,Valaškovská,6210/21,2019-07-07T04:01:40.355Z,ico://sk/484853570124
428163,"Správca - Hudoba Igor, JUDr. Ing.",484853570125,Bratislava,2019-07-07T04:01:40.359Z,,Ružová dolina,25,2019-07-07T04:01:40.359Z,ico://sk/484853570125
428164,"Správca - Boľoš Matúš, JUDr.",484853570127,Banská Bystrica,2019-07-07T04:01:40.363Z,,Horná,23,2019-07-07T04:01:40.363Z,ico://sk/484853570127
428165,"Správca - Michalička Miroslav, Mgr.",484853570228,Trnava,2019-07-07T04:01:40.367Z,,Vajslova,11,2019-07-07T04:01:40.367Z,ico://sk/484853570228
428166,"Správca - Vorobeľová Renáta, JUDr. Ing.",484853570230,Humenné,2019-07-07T04:01:40.370Z,,Lipová,1,2019-07-07T04:01:40.370Z,ico://sk/484853570230
428167,"Správca - Morochovič Martin, JUDr.",484853570235,Košice,2019-07-07T04:01:40.374Z,,Hviezdoslavova,7,2019-07-07T04:01:40.374Z,ico://sk/484853570235
428168,"Správca - Ďuran Marek, JUDr.",484853570236,Nitra,2019-07-07T04:01:40.378Z,,Štefánikova,34,2019-07-07T04:01:40.378Z,ico://sk/484853570236
428169,"Správca - Nagy Roman, Mgr.",484853570237,Nitra,2019-07-07T04:01:40.382Z,,Akademická,4,2019-07-07T04:01:40.382Z,ico://sk/484853570237
428170,"Správca - Pállová Andrea, JUDr.",484853570238,Nitra,2019-07-07T04:01:40.386Z,,Podzámska,2959/18 A,2019-07-07T04:01:40.386Z,ico://sk/484853570238
428171,"Správca - Lafko Viliam, Ing.",484853570246,Košice,2019-07-07T04:01:40.391Z,,Štúrova,19,2019-07-07T04:01:40.391Z,ico://sk/484853570246
428172,"Správca - Markech Otto, JUDr.",484853570247,Trenčín,2019-07-07T04:01:40.395Z,,Smetanova,1655/7,2019-07-07T04:01:40.395Z,ico://sk/484853570247
428173,"Správca - Válková Martina, JUDr.",484853570232,Trenčín,2019-07-07T04:01:40.399Z,,Jilemnického,21,2019-07-07T04:01:40.399Z,ico://sk/484853570232
428174,Správca - Licitor recovery k. s.,484853570233,Žilina,2019-07-07T04:01:40.403Z,,Sládkovičova,6,2019-07-07T04:01:40.403Z,ico://sk/484853570233
428175,"Správca - Vajdová Jana, Ing.",484853570234,Medzilaborce,2019-07-07T04:01:40.406Z,,Zámočnícka,165/3,2019-07-07T04:01:40.406Z,ico://sk/484853570234
428176,"Správca - Budniková Mária, Ing.",484853570239,Nitra,2019-07-07T04:01:40.410Z,,Mariánska,6,2019-07-07T04:01:40.410Z,ico://sk/484853570239
428188,"Správca - Dostál Štefan, JUDr.",484853570128,Senica,2019-07-07T04:01:40.456Z,,Robotnícka,79,2019-07-07T04:01:40.456Z,ico://sk/484853570128
428189,"Správca - Chapčáková Alexandra, doc. Ing., PhD.",484853570129,Košice,2019-07-07T04:01:40.459Z,,Holubyho,12,2019-07-07T04:01:40.459Z,ico://sk/484853570129
428190,"Správca - Bátory Tibor, Ing.",484853570130,Žilina,2019-07-07T04:01:40.464Z,,Andreja Kmeťa,19,2019-07-07T04:01:40.464Z,ico://sk/484853570130
428191,"Správca - Puskailer Juraj, JUDr.",484853570131,Bratislava,2019-07-07T04:01:40.468Z,,Račianska,71,2019-07-07T04:01:40.468Z,ico://sk/484853570131
428192,"Správca - Guťan Milan, JUDr.",484853570132,Bratislava,2019-07-07T04:01:40.473Z,,Školská,8,2019-07-07T04:01:40.473Z,ico://sk/484853570132
428193,"Správca - Kollárová Jana, Ing.",484853570134,Košice,2019-07-07T04:01:40.476Z,,Hlavná,81/A,2019-07-07T04:01:40.476Z,ico://sk/484853570134
428194,"Správca - Krausová Beata, Ing.",484853570135,Dubnica nad Váhom,2019-07-07T04:01:40.480Z,,Bratislavská,354/32,2019-07-07T04:01:40.480Z,ico://sk/484853570135
428195,"Správca - Barát Ladislav, Mgr.",484853570138,Nitra,2019-07-07T04:01:40.484Z,,Školská,3,2019-07-07T04:01:40.484Z,ico://sk/484853570138
428196,"Správca - Tatara Juraj, Ing.",484853570139,Bratislava,2019-07-07T04:01:40.488Z,,Mlynské nivy,48,2019-07-07T04:01:40.488Z,ico://sk/484853570139
428197,"Správca - Straka Štefan, Ing.",484853570140,Žilina,2019-07-07T04:01:40.492Z,,Na stanicu,16,2019-07-07T04:01:40.492Z,ico://sk/484853570140
428198,"Správca - Konkurzný správca, k. s.",484853570142,Banská Bystrica,2019-07-07T04:01:40.496Z,,Nám. SNP,15,2019-07-07T04:01:40.496Z,ico://sk/484853570142
428199,"Správca - Griščik Jozef, JUDr.",484853570143,Bratislava,2019-07-07T04:01:40.500Z,,Hviezdoslavovo nám.,25,2019-07-07T04:01:40.500Z,ico://sk/484853570143
428200,"Správca - Zemko Peter, Mgr.",484853570240,Bratislava,2019-07-07T04:01:40.504Z,,Račianska,71,2019-07-07T04:01:40.504Z,ico://sk/484853570240
428201,"Správca - SKKB, k. s.",484853570241,Žilina,2019-07-07T04:01:40.508Z,,Štúrova,1,2019-07-07T04:01:40.508Z,ico://sk/484853570241
428202,"Správca - Maruniaková Zuzana, Mgr.",484853570242,Svidník,2019-07-07T04:01:40.512Z,,Sov. hrdinov,200/33,2019-07-07T04:01:40.512Z,ico://sk/484853570242
428203,"Správca - Správcovská a reštrukturalizačná, k. s.",484853570243,Bratislava,2019-07-07T04:01:40.516Z,,Mlynské Nivy,48,2019-07-07T04:01:40.516Z,ico://sk/484853570243
428204,"Správca - Dedák Štefan, JUDr.",484853570244,Bratislava,2019-07-07T04:01:40.520Z,,"Carlton, Savoy Courtyard, Mostová",2,2019-07-07T04:01:40.520Z,ico://sk/484853570244
428205,"Správca - Jamnická Lenka, JUDr.",484853570245,Prešov,2019-07-07T04:01:40.524Z,,Volgogradská,9A,2019-07-07T04:01:40.524Z,ico://sk/484853570245
428206,Správca - Prvá arbitrážna k.s.,484853570248,Bratislava,2019-07-07T04:01:40.528Z,,Sasinkova,6,2019-07-07T04:01:40.528Z,ico://sk/484853570248
428207,"Správca - Fülöpová Jana, Ing.",484853570249,Nitra,2019-07-07T04:01:40.532Z,,Štefánikova tr.,79,2019-07-07T04:01:40.532Z,ico://sk/484853570249
428208,"Správca - Milanská Katarína, Mgr.",484853570250,Zvolen,2019-07-07T04:01:40.535Z,,J. Kozáčeka,146/13,2019-07-07T04:01:40.535Z,ico://sk/484853570250
428209,"Správca - Korčmároš Ján, Ing.",484853570145,Košice,2019-07-07T04:01:40.539Z,,Holubyho,14,2019-07-07T04:01:40.539Z,ico://sk/484853570145
428210,"Správca - Grolmusová Janka, JUDr.",484853570121,Martin,2019-07-07T04:01:40.543Z,,E.B.Lukáča,2,2019-07-07T04:01:40.543Z,ico://sk/484853570121
428211,"Správca - Valent Jaromír, JUDr.",484853570122,Nové Zámky,2019-07-07T04:01:40.547Z,,M.R.Štefánika,4,2019-07-07T04:01:40.547Z,ico://sk/484853570122
428212,"Správca - Šumichrastová Ivana, Mgr. Ing.",484853570126,Martin,2019-07-07T04:01:40.551Z,,Jesenského,29,2019-07-07T04:01:40.551Z,ico://sk/484853570126
428213,"Správca - Budiač Vladimír, Ing.",484853570133,Bratislava,2019-07-07T04:01:40.556Z,,Seberíniho,1,2019-07-07T04:01:40.556Z,ico://sk/484853570133
428214,"Správca - Rakovský Alojz, JUDr.",484853570136,Bratislava,2019-07-07T04:01:40.560Z,,Miletičova,21,2019-07-07T04:01:40.560Z,ico://sk/484853570136
428215,"Správca - Timoranská Tatiana, JUDr.",484853570137,Nové Zámky,2019-07-07T04:01:40.563Z,,Podzámska,32,2019-07-07T04:01:40.563Z,ico://sk/484853570137
428216,"Správca - Géciová Soňa, JUDr.",484853570141,Košice,2019-07-07T04:01:40.567Z,,Štúrova,44,2019-07-07T04:01:40.567Z,ico://sk/484853570141
428217,"Správca - Veterníková Mária, JUDr.",484853570144,Bratislava,2019-07-07T04:01:40.571Z,,Svätoplukova,31,2019-07-07T04:01:40.571Z,ico://sk/484853570144
428218,"Správca - Bódi Ladislav, Ing.",484853570147,Nitra,2019-07-07T04:01:40.575Z,,"Mariánska 6, P. O. BOX 47 B",,2019-07-07T04:01:40.575Z,ico://sk/484853570147
428219,"Správca - Levrinc Miloš, JUDr.",484853570151,Zvolen,2019-07-07T04:01:40.579Z,,J. Kozáčeka,13E,2019-07-07T04:01:40.579Z,ico://sk/484853570151
428220,"Správca - Medveď Peter, Ing.",484853570154,Banská Bystrica,2019-07-07T04:01:40.583Z,,Kapitulská,12,2019-07-07T04:01:40.583Z,ico://sk/484853570154
428221,"Správca - Prividi Dagmar, Ing.",484853570155,Košice,2019-07-07T04:01:40.587Z,,Hlavná,25,2019-07-07T04:01:40.587Z,ico://sk/484853570155
428222,"Správca - Lenková Jana, Mgr.",484853570157,Bratislava,2019-07-07T04:01:40.590Z,,Krížna,38,2019-07-07T04:01:40.590Z,ico://sk/484853570157
428223,"Správca - Kubik Peter, JUDr.",484853570160,Dunajská Streda,2019-07-07T04:01:40.595Z,,Hlavná,48,2019-07-07T04:01:40.595Z,ico://sk/484853570160
428224,"Správca - Hyránek Eduard, Ing., PhD.",484853570161,Bratislava,2019-07-07T04:01:40.599Z,,Stromová,9/A,2019-07-07T04:01:40.599Z,ico://sk/484853570161
428225,"Správca - Podolský Peter, Mgr.",484853570166,Bratislava,2019-07-07T04:01:40.603Z,,Námestie SNP,13,2019-07-07T04:01:40.603Z,ico://sk/484853570166
428227,"Správca - Ágg Miloš, Mgr.",484853570172,Nové Zámky,2019-07-07T04:01:40.611Z,,Michalská bašta,12,2019-07-07T04:01:40.611Z,ico://sk/484853570172
428228,"Správca - Slavkovská Henrieta, Mgr.",484853570173,Levice,2019-07-07T04:01:40.615Z,,Ľ. Štúra,19,2019-07-07T04:01:40.615Z,ico://sk/484853570173
428229,"Správca - Havlát Róbert, Ing. Bc.",484853570175,Bratislava,2019-07-07T04:01:40.619Z,,Rudnayovo nám.,1,2019-07-07T04:01:40.619Z,ico://sk/484853570175
428230,"Správca - Paulík Dušan, JUDr.",484853570176,Banská Bystrica,2019-07-07T04:01:40.623Z,,Kukučínova,18,2019-07-07T04:01:40.623Z,ico://sk/484853570176
428231,"Správca - Kokavec Ladislav, Ing.",484853570146,Lučenec,2019-07-07T04:01:40.627Z,,J. Vargu,16,2019-07-07T04:01:40.627Z,ico://sk/484853570146
428232,"Správca - Oravec Jozef, Ing.",484853570148,Banská Bystrica,2019-07-07T04:01:40.631Z,,Cesta na štadión,10,2019-07-07T04:01:40.631Z,ico://sk/484853570148
428233,"Správca - Oravec Tomáš, JUDr. Ing.",484853570149,Banská Bystrica,2019-07-07T04:01:40.635Z,,Cesta na štadión,10,2019-07-07T04:01:40.635Z,ico://sk/484853570149
428234,"Správca - BANKRUPTCY & RECOVERY SERVICE, k.s.",484853570150,Spišská Nová Ves,2019-07-07T04:01:40.639Z,,Radlinského,20,2019-07-07T04:01:40.639Z,ico://sk/484853570150
428235,"Správca - Feník František, JUDr.",484853570152,Žilina,2019-07-07T04:01:40.644Z,,Predmestská,1338/25,2019-07-07T04:01:40.644Z,ico://sk/484853570152
428236,"Správca - Ondreička Peter, JUDr.",484853570153,Trnava,2019-07-07T04:01:40.648Z,,Sladovnícka,13,2019-07-07T04:01:40.648Z,ico://sk/484853570153
428237,"Správca - Belica Miroslav, JUDr.",484853570156,Nitra,2019-07-07T04:01:40.652Z,,Štefánikova trieda,9,2019-07-07T04:01:40.652Z,ico://sk/484853570156
428238,"Správca - B.F.B. správcovská, v.o.s.",484853570158,Nitra,2019-07-07T04:01:40.656Z,,Mostná,13,2019-07-07T04:01:40.656Z,ico://sk/484853570158
428239,"Správca - Nováková Viera, JUDr.",484853570159,Galanta,2019-07-07T04:01:40.660Z,,Z.Kodálya,769/29,2019-07-07T04:01:40.660Z,ico://sk/484853570159
428240,"Správca - Štofková Petra, Ing. JUDr.",484853570162,Nové Zámky,2019-07-07T04:01:40.664Z,,Podzámska,32,2019-07-07T04:01:40.664Z,ico://sk/484853570162
428241,"Správca - Šefčíková Miriam, Ing., PhD.",484853570163,Trnava,2019-07-07T04:01:40.668Z,,Podjavorinskej,37/1,2019-07-07T04:01:40.668Z,ico://sk/484853570163
428242,"Správca - Divko Dušan, JUDr.Mgr., M. B. A.",484853570164,Považská Bystrica,2019-07-07T04:01:40.672Z,,Kpt. Nálepku,346,2019-07-07T04:01:40.672Z,ico://sk/484853570164
428243,"Správca - Zdychavský Miroslav, Mgr. Ing.",484853570165,Nitra,2019-07-07T04:01:40.676Z,,Radlinského,5,2019-07-07T04:01:40.676Z,ico://sk/484853570165
428244,"Správca - Krupička Imrich, Ing.",484853570167,Košice,2019-07-07T04:01:40.679Z,,Mlynská,27,2019-07-07T04:01:40.679Z,ico://sk/484853570167
428245,"Správca - Száraz Gábor, JUDr.",484853570168,Stará Ľubovňa,2019-07-07T04:01:40.683Z,,Garbiarska,20,2019-07-07T04:01:40.683Z,ico://sk/484853570168
428246,"Správca - Takáč Mikuláš, Ing.",484853570169,Martin,2019-07-07T04:01:40.687Z,,Timravy,23,2019-07-07T04:01:40.687Z,ico://sk/484853570169
428247,"Správca - Kotleba Boris, Mgr.",484853570170,Bratislava,2019-07-07T04:01:40.691Z,,Námestie SNP,13,2019-07-07T04:01:40.691Z,ico://sk/484853570170
428248,"Správca - Konkoľ Andrej, Ing.",484853570171,Zvolen,2019-07-07T04:01:40.695Z,,Š. Moyzesa,41,2019-07-07T04:01:40.695Z,ico://sk/484853570171
428249,"Správca - Suchanová Vlasta, JUDr.",484853570000,Nové Zámky,2019-07-07T04:01:40.699Z,,Podzámska,32,2019-07-07T04:01:40.699Z,ico://sk/484853570000
428250,"Správca - Volár Stanislav, JUDr.",484853570001,Piešťany,2019-07-07T04:01:40.703Z,,Kukučínova,11,2019-07-07T04:01:40.703Z,ico://sk/484853570001
428251,"Správca - Dudáková Viola, JUDr.",484853570002,Bratislava 2,2019-07-07T04:01:40.706Z,,Zahradnícka,36,2019-07-07T04:01:40.706Z,ico://sk/484853570002
428252,"Správca - Bláha Bohumír, JUDr.",484853570007,Bratislava,2019-07-07T04:01:40.710Z,,Hurbanovo nám.,5,2019-07-07T04:01:40.710Z,ico://sk/484853570007
428253,"Správca - Birošová Danica, JUDr.",484853570008,Trenčín,2019-07-07T04:01:40.714Z,,Piaristická,46,2019-07-07T04:01:40.714Z,ico://sk/484853570008
428254,"Správca - Čižmárová Jarmila, JUDr.",484853570009,Bratislava 5,2019-07-07T04:01:40.719Z,,Kutlíkova,17,2019-07-07T04:01:40.719Z,ico://sk/484853570009
428255,"Správca - Veterník Eduard, JUDr.",484853570010,Bratislava,2019-07-07T04:01:40.724Z,,Svätoplukova,31,2019-07-07T04:01:40.724Z,ico://sk/484853570010
428256,"Správca - Válková Darina, JUDr.",484853570012,Trenčín,2019-07-07T04:01:40.729Z,,Jilemnického,21,2019-07-07T04:01:40.729Z,ico://sk/484853570012
428257,"Správca - Vodová Eva, JUDr.",484853570014,Bratislava 1,2019-07-07T04:01:40.734Z,,Wilsonova,4,2019-07-07T04:01:40.734Z,ico://sk/484853570014
428258,"Správca - Kubicová Viera, JUDr.",484853570019,Bratislava 2,2019-07-07T04:01:40.738Z,,Záhradnícka,68,2019-07-07T04:01:40.738Z,ico://sk/484853570019
428259,"Správca - Malich Pavol, JUDr.",484853570020,Bratislava,2019-07-07T04:01:40.742Z,,Dunajská,25,2019-07-07T04:01:40.742Z,ico://sk/484853570020
428260,"Správca - Barát Ladislav, JUDr.",484853570021,Nitra,2019-07-07T04:01:40.745Z,,Školská,3,2019-07-07T04:01:40.745Z,ico://sk/484853570021
428261,"Správca - Hurtiš Jozef, JUDr.",484853570022,Prievidza,2019-07-07T04:01:40.749Z,,Ul. Matice slovenskej,17,2019-07-07T04:01:40.749Z,ico://sk/484853570022
428262,"Správca - Vaňo Tomáš, JUDr.",484853570026,Bratislava,2019-07-07T04:01:40.753Z,,Záhumenská,23,2019-07-07T04:01:40.753Z,ico://sk/484853570026
428263,"Správca - Špačková Jarmila, JUDr.",484853570028,Šamorín,2019-07-07T04:01:40.756Z,,Veterná,43,2019-07-07T04:01:40.756Z,ico://sk/484853570028
428264,"Správca - Jaroš Andrej, JUDr.",484853570029,Trenčín,2019-07-07T04:01:40.760Z,,Námestie sv. Anny,361/20,2019-07-07T04:01:40.760Z,ico://sk/484853570029
428265,"Správca - Neuschl Vladimír, JUDr.Ing.",484853570041,Bratislava,2019-07-07T04:01:40.764Z,,Dostojevského rad,5,2019-07-07T04:01:40.764Z,ico://sk/484853570041
428266,"Správca - Jelinková Dudzíková Dana, JUDr.",484853570044,Bratislava 1,2019-07-07T04:01:40.767Z,,Dunajská,25,2019-07-07T04:01:40.767Z,ico://sk/484853570044
428267,"Správca - Prachařová Otília, JUDr.",484853570003,Dubnica nad Váhom,2019-07-07T04:01:40.771Z,,Centrum I.,57/132,2019-07-07T04:01:40.771Z,ico://sk/484853570003
428268,"Správca - Dudovičová Jozefa, JUDr.",484853570004,Bratislava 4,2019-07-07T04:01:40.775Z,,Pernecká,37,2019-07-07T04:01:40.775Z,ico://sk/484853570004
428269,"Správca - Sopko Peter, JUDr.",484853570005,Trnava,2019-07-07T04:01:40.779Z,,Paulínska,24,2019-07-07T04:01:40.779Z,ico://sk/484853570005
428270,"Správca - Benčura Ján, JUDr",484853570006,Bratislava 2,2019-07-07T04:01:40.782Z,,Záhradnícka,41,2019-07-07T04:01:40.782Z,ico://sk/484853570006
428271,"Správca - Floriš Alexander, JUDr.",484853570011,Trnava,2019-07-07T04:01:40.786Z,,Paulínska,24,2019-07-07T04:01:40.786Z,ico://sk/484853570011
428272,"Správca - Bustinová Mária, JUDr.",484853570013,Trenčianske Teplice,2019-07-07T04:01:40.790Z,,Šrobárova,9,2019-07-07T04:01:40.790Z,ico://sk/484853570013
428273,"Správca - Tuhovčák Jozef, JUDr.",484853570015,Bratislava 2,2019-07-07T04:01:40.794Z,,Záhradnícka,41,2019-07-07T04:01:40.794Z,ico://sk/484853570015
428274,"Správca - Haťapka Karol, Mgr.",484853570016,Bratislava,2019-07-07T04:01:40.798Z,,Drieňová,34,2019-07-07T04:01:40.798Z,ico://sk/484853570016
428275,"Správca - Mojžiš Ivan, JUDr.",484853570017,Bratislava,2019-07-07T04:01:40.802Z,,V. Karadžiča,27,2019-07-07T04:01:40.802Z,ico://sk/484853570017
428276,"Správca - Súkeník Ján, JUDr.",484853570018,Považská Bystrica,2019-07-07T04:01:40.805Z,,Stred,60/55,2019-07-07T04:01:40.805Z,ico://sk/484853570018
428277,"Správca - Pintér Tomáš, JUDr.",484853570023,Komárno,2019-07-07T04:01:40.809Z,,Hadovská cesta,870,2019-07-07T04:01:40.809Z,ico://sk/484853570023
428278,"Správca - Porubčin Karol, JUDr.",484853570024,Považská Bystrica,2019-07-07T04:01:40.813Z,,Centrum,27/32,2019-07-07T04:01:40.813Z,ico://sk/484853570024
428279,"Správca - Kovár Karol, JUDr.",484853570025,Bratislava,2019-07-07T04:01:40.819Z,,Vajnorská,8/A,2019-07-07T04:01:40.819Z,ico://sk/484853570025
428280,"Správca - Vaňko Viliam, JUDr.",484853570027,Bánovce nad Bebravou,2019-07-07T04:01:40.825Z,,Radlinského,578/11,2019-07-07T04:01:40.825Z,ico://sk/484853570027
428281,"Správca - Korec Oliver, JUDr.",484853570030,Bratislava 1,2019-07-07T04:01:40.830Z,,Zahradnícka,9,2019-07-07T04:01:40.830Z,ico://sk/484853570030
428282,"Správca - Petrán Peter, JUDr.",484853570031,Bratislava,2019-07-07T04:01:40.834Z,,Odborárske nám.,3,2019-07-07T04:01:40.834Z,ico://sk/484853570031
428283,"Správca - Mareková Rozália, JUDr.",484853570032,Bratislava 1,2019-07-07T04:01:40.839Z,,Lermontovova,9,2019-07-07T04:01:40.839Z,ico://sk/484853570032
428284,"Správca - Vároši Peter, JUDr.",484853570033,Bratislava 15,2019-07-07T04:01:40.843Z,,"Záhrebská, P.O.BOX 75",6,2019-07-07T04:01:40.843Z,ico://sk/484853570033
428285,"Správca - Mrázová Martina, JUDr.",484853570034,Bratislava,2019-07-07T04:01:40.846Z,,Šoltésovej,20,2019-07-07T04:01:40.846Z,ico://sk/484853570034
428286,"Správca - Repák Dušan, JUDr.",484853570035,Bratislava,2019-07-07T04:01:40.850Z,,Krížna,47,2019-07-07T04:01:40.850Z,ico://sk/484853570035
428287,"Správca - Bieliková Eva, JUDr.",484853570036,Bratislava 37,2019-07-07T04:01:40.854Z,,Stromová,13,2019-07-07T04:01:40.854Z,ico://sk/484853570036
428288,"Správca - Kaplanová Alena, JUDr.",484853570037,Piešťany,2019-07-07T04:01:40.858Z,,Nám.1.mája,14,2019-07-07T04:01:40.858Z,ico://sk/484853570037
428289,"Správca - Majorán Jozef, JUDr.",484853570038,Levice,2019-07-07T04:01:40.861Z,,Ulica Ľudovíta Štúra,3,2019-07-07T04:01:40.861Z,ico://sk/484853570038
428290,"Správca - Zavacká Mariana, JUDr.",484853570039,Komárno,2019-07-07T04:01:40.865Z,,Nádvorie Európy,32/3,2019-07-07T04:01:40.865Z,ico://sk/484853570039
428291,"Správca - Fraňo Vladimír, JUDr.",484853570040,Nové Mesto nad Váhom,2019-07-07T04:01:40.869Z,,Haškova,18,2019-07-07T04:01:40.869Z,ico://sk/484853570040
428292,"Správca - Kozovský Tomáš, JUDr.",484853570042,Bratislava,2019-07-07T04:01:40.873Z,,Björnsonova,8,2019-07-07T04:01:40.873Z,ico://sk/484853570042
428293,"Správca - Solár Erik, JUDr.",484853570043,Vráble,2019-07-07T04:01:40.877Z,,Levická,886,2019-07-07T04:01:40.877Z,ico://sk/484853570043
428294,"Správca - Žitník Alojz, JUDr.",484853570045,Považská Bystrica,2019-07-07T04:01:40.880Z,,Moyzesova,816/100,2019-07-07T04:01:40.880Z,ico://sk/484853570045
428295,"Správca - Antal Robert, Mgr.",484853570047,Banská Bystrica,2019-07-07T04:01:40.885Z,,Ul. Kláry Jarunkovej,2,2019-07-07T04:01:40.885Z,ico://sk/484853570047
428296,"Správca - Machajdová Anna, JUDr.",484853570048,Turany,2019-07-07T04:01:40.888Z,,Budovateľská,516/2,2019-07-07T04:01:40.888Z,ico://sk/484853570048
428297,"Správca - Ďurove Ján, JUDr.",484853570052,Lučenec,2019-07-07T04:01:40.892Z,,ul. Martina Rázusa,29,2019-07-07T04:01:40.892Z,ico://sk/484853570052
428298,"Správca - Čipka Ján, JUDr.",484853570053,Hnúšťa,2019-07-07T04:01:40.896Z,,Partizánska,197,2019-07-07T04:01:40.896Z,ico://sk/484853570053
428299,"Správca - Vrška Pavel, JUDr.",484853570054,Veľký Krtíš,2019-07-07T04:01:40.900Z,,M.R.Štefánika,2,2019-07-07T04:01:40.900Z,ico://sk/484853570054
428300,"Správca - Gombíková Dašena, JUDr.",484853570055,Martin,2019-07-07T04:01:40.904Z,,Kukučínova,1,2019-07-07T04:01:40.904Z,ico://sk/484853570055
428301,"Správca - Fiačan Ivan, JUDr., PhD.",484853570056,Liptovský  Mikuláš,2019-07-07T04:01:40.908Z,,M.Pišúta,936/16,2019-07-07T04:01:40.908Z,ico://sk/484853570056
428302,"Správca - Veselý Jozef, JUDr.",484853570062,Veľký Krtíš,2019-07-07T04:01:40.913Z,,Mierová,1,2019-07-07T04:01:40.913Z,ico://sk/484853570062
428303,"Správca - Kadura Jozef, JUDr.",484853570064,Žilina,2019-07-07T04:01:40.917Z,,ul. Republiky,16,2019-07-07T04:01:40.917Z,ico://sk/484853570064
428304,"Správca - Komorová Daniela, JUDr.",484853570065,Banská Bystrica,2019-07-07T04:01:40.920Z,,Kukučínova,20,2019-07-07T04:01:40.920Z,ico://sk/484853570065
428305,"Správca - Balog Pavel, JUDr.",484853570066,Rimavská Sobota,2019-07-07T04:01:40.924Z,,Železničná,6/1,2019-07-07T04:01:40.924Z,ico://sk/484853570066
428306,"Správca - Zachar Ondrej, JUDr.",484853570068,Banská Bystrica,2019-07-07T04:01:40.928Z,,Horná,65/A,2019-07-07T04:01:40.928Z,ico://sk/484853570068
428307,"Správca - Kotleba Ivan, JUDr.",484853570046,Banská Bystrica,2019-07-07T04:01:40.931Z,,Kukučínova,18,2019-07-07T04:01:40.931Z,ico://sk/484853570046
428308,"Správca - Šumichrastová Tatiana, JUDr.",484853570049,Martin,2019-07-07T04:01:40.935Z,,Jesenského,29,2019-07-07T04:01:40.935Z,ico://sk/484853570049
428309,"Správca - Volárová Barbora, JUDr.",484853570050,Piešťany,2019-07-07T04:01:40.939Z,,Kukučínova,11,2019-07-07T04:01:40.939Z,ico://sk/484853570050
428310,"Správca - Kollárová Magdaléna, JUDr.",484853570051,Bratislava 3,2019-07-07T04:01:40.943Z,,Legionárska,1/C,2019-07-07T04:01:40.943Z,ico://sk/484853570051
428311,"Správca - Balážová Alena, JUDr.",484853570057,Žilina,2019-07-07T04:01:40.946Z,,Framborská,58,2019-07-07T04:01:40.946Z,ico://sk/484853570057
428312,"Správca - Bírošová Gabriela, JUDr.",484853570058,Žilina,2019-07-07T04:01:40.950Z,,Moyzesova,939/46,2019-07-07T04:01:40.950Z,ico://sk/484853570058
428313,"Správca - Matulová Mariana, JUDr.",484853570059,Banská Bystrica,2019-07-07T04:01:40.954Z,,Železničiarska,9,2019-07-07T04:01:40.954Z,ico://sk/484853570059
428314,"Správca - Jaroščiak Václav, JUDr.",484853570060,Žilina,2019-07-07T04:01:40.958Z,,M. Rázusa,14,2019-07-07T04:01:40.958Z,ico://sk/484853570060
428315,"Správca - Todeková Marta, JUDr.",484853570061,Zvolen,2019-07-07T04:01:40.961Z,,Námestie SNP,74/28,2019-07-07T04:01:40.961Z,ico://sk/484853570061
428316,"Správca - Bugáň Ľubomír, Mgr.",484853570174,Bratislava,2019-07-07T04:01:40.965Z,,Bajkalská,25/A,2019-07-07T04:01:40.965Z,ico://sk/484853570174
428317,"Správca - Slovenská správcovská a reštrukturalizačná, k. s.",484853570177,Košice,2019-07-07T04:01:40.969Z,,Južná Trieda,48,2019-07-07T04:01:40.969Z,ico://sk/484853570177
428318,"Správca - Keleti Mário, JUDr.",484853570178,Hnúšťa,2019-07-07T04:01:40.972Z,,Hlavná,36,2019-07-07T04:01:40.972Z,ico://sk/484853570178
428319,"Správca - Holúbek Marián, Ing.",484853570180,Banská Bystrica,2019-07-07T04:01:40.976Z,,Cikkerova,5,2019-07-07T04:01:40.976Z,ico://sk/484853570180
428320,"Správca - Kohút Tomáš, JUDr.",484853570181,Zvolen,2019-07-07T04:01:40.980Z,,Námestie SNP,74/28,2019-07-07T04:01:40.980Z,ico://sk/484853570181
428321,"Správca - Herich Vladimír, JUDr., PhD.",484853570063,Ružomberok,2019-07-07T04:01:40.983Z,,Dončova,13,2019-07-07T04:01:40.983Z,ico://sk/484853570063
428322,"Správca - Fatura Róbert, JUDr.",484853570067,Považská Bystrica,2019-07-07T04:01:40.987Z,,Centrum,18/23,2019-07-07T04:01:40.987Z,ico://sk/484853570067
428323,"Správca - Kováčik Martin, JUDr.",484853570070,Banská Bystrica,2019-07-07T04:01:40.991Z,,Komenského,"3, p.p. 525",2019-07-07T04:01:40.991Z,ico://sk/484853570070
428324,"Správca - Gajdošíková Ivana, JUDr.",484853570071,Zvolen,2019-07-07T04:01:40.995Z,,J. Kozáčeka,146/13,2019-07-07T04:01:40.995Z,ico://sk/484853570071
428325,"Správca - Kováčik Martin, JUDr.",484853570072,Dolný Kubín,2019-07-07T04:01:41.000Z,,Radlinského,1729,2019-07-07T04:01:41.000Z,ico://sk/484853570072
428326,"Správca - Kočka František, JUDr.",484853570074,Košice,2019-07-07T04:01:41.008Z,,Pribinova,8,2019-07-07T04:01:41.008Z,ico://sk/484853570074
428327,"Správca - Husťáková Dana, JUDr.",484853570075,Košice,2019-07-07T04:01:41.012Z,,Žriedlová,3,2019-07-07T04:01:41.012Z,ico://sk/484853570075
428328,"Správca - Radačovský Marek, JUDr.",484853570076,Košice,2019-07-07T04:01:41.016Z,,Žriedlová,3,2019-07-07T04:01:41.016Z,ico://sk/484853570076
428329,"Správca - Špirko Juraj, JUDr.",484853570077,Košice,2019-07-07T04:01:41.020Z,,Floriánska,19,2019-07-07T04:01:41.020Z,ico://sk/484853570077
428330,"Správca - Urbánek Jozef, JUDr.",484853570078,Košice,2019-07-07T04:01:41.024Z,,Werferova,1,2019-07-07T04:01:41.024Z,ico://sk/484853570078
428331,"Správca - Závodská Jana, JUDr.",484853570079,Košice,2019-07-07T04:01:41.028Z,,Alžbetina,3,2019-07-07T04:01:41.028Z,ico://sk/484853570079
428332,"Správca - Straka Michal, JUDr.",484853570182,Šaľa,2019-07-07T04:01:41.032Z,,Hlavná,6,2019-07-07T04:01:41.032Z,ico://sk/484853570182
428333,"Správca - Antonič Tomáš, Ing.",484853570183,Bratislava,2019-07-07T04:01:41.036Z,,Kominárska,2,2019-07-07T04:01:41.036Z,ico://sk/484853570183
428334,"Správca - Malich Jozef, JUDr.PaedDr.",484853570184,Bratislava,2019-07-07T04:01:41.040Z,,Záhradnícka,30,2019-07-07T04:01:41.040Z,ico://sk/484853570184
428335,"Správca - Beňo Jozef, JUDr., PhD.",484853570185,Poprad,2019-07-07T04:01:41.044Z,,Nám. sv. Egídia,40/93,2019-07-07T04:01:41.044Z,ico://sk/484853570185
428336,"Správca - Janček Ľuboš, Ing.",484853570186,Chorvátsky Grob,2019-07-07T04:01:41.049Z,,Dubová,3156/14,2019-07-07T04:01:41.049Z,ico://sk/484853570186
428337,"Správca - Szabó Ladislav, Ing.",484853570187,Bratislava,2019-07-07T04:01:41.055Z,,Pri starej prachárni,14,2019-07-07T04:01:41.055Z,ico://sk/484853570187
428338,"Správca - Sečanský Martin, JUDr.",484853570188,Bratislava,2019-07-07T04:01:41.062Z,,Záhradnícka,30,2019-07-07T04:01:41.062Z,ico://sk/484853570188
428339,"Správca - Sosna Václav, JUDr.",484853570189,Skalica,2019-07-07T04:01:41.068Z,,Námestie slobody,2,2019-07-07T04:01:41.068Z,ico://sk/484853570189
428340,"Správca - Pospíšil & Partners, k. s.",484853570191,Bratislava 2,2019-07-07T04:01:41.074Z,,Záhradnícka,30,2019-07-07T04:01:41.074Z,ico://sk/484853570191
428341,"Správca - Končok Erik, JUDr.",484853570192,Žilina,2019-07-07T04:01:41.081Z,,Vojtecha Tvrdého,793/21,2019-07-07T04:01:41.081Z,ico://sk/484853570192
428342,"Správca - Miho Michal, Mgr.",484853570195,Žilina,2019-07-07T04:01:41.086Z,,Mariánske námestie,20,2019-07-07T04:01:41.086Z,ico://sk/484853570195
428343,"Správca - Lipa Marián, Mgr.",484853570196,Humenné,2019-07-07T04:01:41.092Z,,Štefánikova,18,2019-07-07T04:01:41.092Z,ico://sk/484853570196
428347,"Správca - Muránska Matušková Gabriela, JUDr., PhD",484853570069,Banská Bystrica,2019-07-07T04:01:41.108Z,,ul. Prof. Sáru,44,2019-07-07T04:01:41.108Z,ico://sk/484853570069
428348,"Správca - Pirč, CSc. Ján, Doc. JUDr.",484853570073,Košice,2019-07-07T04:01:41.112Z,,kpt. Nálepku,17,2019-07-07T04:01:41.112Z,ico://sk/484853570073
428349,"Správca - Gaľová Anna, Mgr.",484853570083,Prešov,2019-07-07T04:01:41.115Z,,Slnečná,39,2019-07-07T04:01:41.115Z,ico://sk/484853570083
428350,"Správca - Havlátová-Rajczyová Andrea, JUDr.",484853570084,Košice,2019-07-07T04:01:41.119Z,,Žižkova,6,2019-07-07T04:01:41.119Z,ico://sk/484853570084
428351,"Správca - Kmeťová Oľga, JUDr.",484853570086,Košice,2019-07-07T04:01:41.123Z,,Mlynská,27,2019-07-07T04:01:41.123Z,ico://sk/484853570086
428352,"Správca - Oravec Stanislav, JUDr.",484853570087,Prešov,2019-07-07T04:01:41.126Z,,Hlavná,19,2019-07-07T04:01:41.126Z,ico://sk/484853570087
428353,"Správca - Hadušovský František, JUDr.",484853570089,Rožňava,2019-07-07T04:01:41.130Z,,Akademika Hronca,3,2019-07-07T04:01:41.130Z,ico://sk/484853570089
428354,"Správca - Maruniaková Marta, JUDr.",484853570090,Svidník,2019-07-07T04:01:41.134Z,,Sovietskych hrdinov,200/33,2019-07-07T04:01:41.134Z,ico://sk/484853570090
428355,"Správca - Rychnavský Peter, JUDr.",484853570091,Vranov nad Topľou,2019-07-07T04:01:41.137Z,,Rázusova,111,2019-07-07T04:01:41.137Z,ico://sk/484853570091
428356,"Správca - Surma Ján, JUDr.",484853570092,Prešov,2019-07-07T04:01:41.141Z,,Hlavná,122,2019-07-07T04:01:41.141Z,ico://sk/484853570092
428357,"Správca - Straka Štefan, JUDr.",484853570094,Košice,2019-07-07T04:01:41.145Z,,Krmanova,1,2019-07-07T04:01:41.145Z,ico://sk/484853570094
428358,"Správca - Polončák Milan, Ing., PhD.",484853570198,Košice,2019-07-07T04:01:41.150Z,,Vojenská,12,2019-07-07T04:01:41.150Z,ico://sk/484853570198
428359,"Správca - Jandová Jana, JUDr.",484853570201,Banská Bystrica,2019-07-07T04:01:41.154Z,,Skuteckého,17,2019-07-07T04:01:41.154Z,ico://sk/484853570201
428360,"Správca - Chromčíková Eva, Ing.",484853570202,Zvolen,2019-07-07T04:01:41.158Z,,Trhová,1,2019-07-07T04:01:41.158Z,ico://sk/484853570202
428361,"Správca - Gregorová Alena, Mgr.",484853570203,Banská Bystrica,2019-07-07T04:01:41.162Z,,Horná,54,2019-07-07T04:01:41.162Z,ico://sk/484853570203
428362,"Správca - Kulich Jozef, Ing.",484853570205,Nové Zámky,2019-07-07T04:01:41.166Z,,L. Kassáka,8,2019-07-07T04:01:41.166Z,ico://sk/484853570205
428363,"Správca - Mésároš Ernest, Ing.",484853570179,Sliač,2019-07-07T04:01:41.169Z,,SNP,269/13,2019-07-07T04:01:41.169Z,ico://sk/484853570179
428364,"Správca - Berec Martin, Mgr.",484853570190,Trenčín,2019-07-07T04:01:41.173Z,,Palackého,85/5,2019-07-07T04:01:41.173Z,ico://sk/484853570190
428365,"Správca - Gubová Lea, JUDr.",484853570193,Trnava,2019-07-07T04:01:41.177Z,,Hornopotočná,16,2019-07-07T04:01:41.177Z,ico://sk/484853570193
428366,"Správca - Schwartzová Zuzana, Ing.",484853570197,Košice,2019-07-07T04:01:41.180Z,,Vojenská,12,2019-07-07T04:01:41.180Z,ico://sk/484853570197
428367,"Správca - Kollár Slavomír, Mgr.",484853570199,Prešov,2019-07-07T04:01:41.184Z,,Levočská,2,2019-07-07T04:01:41.184Z,ico://sk/484853570199
428368,"Správca - Škodová Veronika, JUDr. Ing., PhD.",484853570200,Banská Bystrica,2019-07-07T04:01:41.188Z,,Dolná,6A,2019-07-07T04:01:41.188Z,ico://sk/484853570200
428369,"Správca - Mikušová Schultzová Denisa, Mgr.",484853570204,Bratislava,2019-07-07T04:01:41.192Z,,Digital park II - Einsteinova,25,2019-07-07T04:01:41.192Z,ico://sk/484853570204
428379,"Správca - Hnat Miloš, JUDr.",484853570099,Prešov,2019-07-07T04:01:41.229Z,,Tkáčska,2,2019-07-07T04:01:41.229Z,ico://sk/484853570099
428380,"Správca - Tarhajová Daniela, JUDr.",484853570102,Košice,2019-07-07T04:01:41.233Z,,Werferova,1,2019-07-07T04:01:41.233Z,ico://sk/484853570102
428381,"Správca - Oravcová Jaroslava, JUDr.",484853570103,Vranov nad Topľou,2019-07-07T04:01:41.237Z,,Dobrianskeho,1651,2019-07-07T04:01:41.237Z,ico://sk/484853570103
428382,"Správca - Páll Marián, JUDr.",484853570107,Košice,2019-07-07T04:01:41.240Z,,Teslova,2,2019-07-07T04:01:41.240Z,ico://sk/484853570107
428383,"Správca - Vaško Jozef, JUDr.",484853570108,Košice,2019-07-07T04:01:41.244Z,,Szakkayho,1,2019-07-07T04:01:41.244Z,ico://sk/484853570108
428384,"Správca - Frajt Peter, JUDr.",484853570111,Považská Bystrica,2019-07-07T04:01:41.248Z,,M.R.Štefánika,141/13,2019-07-07T04:01:41.248Z,ico://sk/484853570111
428385,"Správca - Jaroščák ml. Jozef, JUDr.",484853570113,Bardejov,2019-07-07T04:01:41.251Z,,Radničné nám.,33,2019-07-07T04:01:41.251Z,ico://sk/484853570113
428386,"Správca - Pecníková Jana, Ing. Mgr.",484853570117,Bratislava,2019-07-07T04:01:41.255Z,,Karloveská,3154/6C,2019-07-07T04:01:41.255Z,ico://sk/484853570117
428387,"Správca - Hrivňáková Margita, JUDr.",484853570120,Bratislava,2019-07-07T04:01:41.259Z,,"Májkova 3, P. O. BOX 76",,2019-07-07T04:01:41.259Z,ico://sk/484853570120
428388,"Správca - Jakubek Michal, JUDr.",484853570080,Vranov nad Topľou,2019-07-07T04:01:41.262Z,,M.R.Štefánika,2673/212/A,2019-07-07T04:01:41.262Z,ico://sk/484853570080
428389,"Správca - Petejová Iveta, JUDr.",484853570081,Košice,2019-07-07T04:01:41.266Z,,Hlavná,20,2019-07-07T04:01:41.266Z,ico://sk/484853570081
428390,"Správca - Michalíková Oľga, JUDr.",484853570082,Prešov,2019-07-07T04:01:41.270Z,,Jarkova,89,2019-07-07T04:01:41.270Z,ico://sk/484853570082
428391,"Správca - Jelinek Marián, Ing.",484853570206,Šamorín,2019-07-07T04:01:41.274Z,,Čilistovská,12,2019-07-07T04:01:41.274Z,ico://sk/484853570206
428392,"Správca - SKP, k. s.",484853570208,Žilina,2019-07-07T04:01:41.278Z,,Veľká Okružná,43,2019-07-07T04:01:41.278Z,ico://sk/484853570208
428393,"Správca - Roháč Ivan, JUDr.",484853570210,Košice,2019-07-07T04:01:41.281Z,,Letná,27,2019-07-07T04:01:41.281Z,ico://sk/484853570210
428394,"Správca - Osvald Filip, Mgr.",484853570211,Bratislava,2019-07-07T04:01:41.285Z,,Kominárska,"2, 4",2019-07-07T04:01:41.285Z,ico://sk/484853570211
428395,"Správca - Zvarová Jarmila, JUDr.",484853570217,Košice,2019-07-07T04:01:41.289Z,,Nerudova,14,2019-07-07T04:01:41.289Z,ico://sk/484853570217
428396,"Správca - Kunec Miloš, JUDr.",484853570220,Snina,2019-07-07T04:01:41.293Z,,Strojárska,3995/113,2019-07-07T04:01:41.293Z,ico://sk/484853570220
428397,"Správca - Gajdošík Juraj, JUDr.",484853570221,Bratislava,2019-07-07T04:01:41.296Z,,Miletičova,23,2019-07-07T04:01:41.296Z,ico://sk/484853570221
428398,"Správca - Dubjel Slavomír, JUDr.",484853570223,Prešov,2019-07-07T04:01:41.300Z,,Puškinova,16,2019-07-07T04:01:41.300Z,ico://sk/484853570223
428399,"Správca - Žitník Vladimír, JUDr.",484853570224,Považská Bystrica,2019-07-07T04:01:41.304Z,,Moyzesova,816/100,2019-07-07T04:01:41.304Z,ico://sk/484853570224
428400,"Správca - Žitníková Miroslava, JUDr.",484853570225,Považská Bystrica,2019-07-07T04:01:41.308Z,,Moyzesova,816/100,2019-07-07T04:01:41.308Z,ico://sk/484853570225
428401,"Správca - Košara Matúš, JUDr.",484853570226,Trenčín,2019-07-07T04:01:41.311Z,,Piaristická,276/46,2019-07-07T04:01:41.311Z,ico://sk/484853570226
428402,"Správca - Klimentová Vlasta, JUDr.",484853570229,Bratislava,2019-07-07T04:01:41.315Z,,Stromová,13,2019-07-07T04:01:41.315Z,ico://sk/484853570229
428404,"Správca - Šatník Vladimír, JUDr.",484853570085,Humenné,2019-07-07T04:01:41.323Z,,Mierová,64/2,2019-07-07T04:01:41.323Z,ico://sk/484853570085
428405,"Správca - Biroš Juraj, JUDr.",484853570088,Košice,2019-07-07T04:01:41.327Z,,Rázusova,1,2019-07-07T04:01:41.327Z,ico://sk/484853570088
428406,"Správca - Wildeová Stela, JUDr.",484853570093,Prešov,2019-07-07T04:01:41.332Z,,Konštantínova,6,2019-07-07T04:01:41.332Z,ico://sk/484853570093
428407,"Správca - Okajček Milan, JUDr.",484853570095,Košice,2019-07-07T04:01:41.336Z,,Žriedlová,3,2019-07-07T04:01:41.336Z,ico://sk/484853570095
428408,"Správca - Zajac Roman, JUDr.",484853570096,Spišská Nová Ves,2019-07-07T04:01:41.343Z,,Letná,80,2019-07-07T04:01:41.343Z,ico://sk/484853570096
428409,"Správca - Varga Igor, JUDr.",484853570097,Trebišov,2019-07-07T04:01:41.350Z,,Hviezdoslavova,1234/4,2019-07-07T04:01:41.350Z,ico://sk/484853570097
428410,"Správca - Tarabčák Jozef, JUDr.",484853570098,Prešov,2019-07-07T04:01:41.356Z,,Hlavná,13,2019-07-07T04:01:41.356Z,ico://sk/484853570098
428411,"Správca - Gavalčin Juraj, JUDr.",484853570100,Košice,2019-07-07T04:01:41.362Z,,Platanová,5,2019-07-07T04:01:41.362Z,ico://sk/484853570100
428412,"Správca - Pavlov Vladimír, JUDr.",484853570101,Košice,2019-07-07T04:01:41.366Z,,Mlynárska,19,2019-07-07T04:01:41.366Z,ico://sk/484853570101
428413,"Správca - Vereb Miroslav, JUDr.",484853570104,Košice,2019-07-07T04:01:41.370Z,,Šoltésovej,5,2019-07-07T04:01:41.370Z,ico://sk/484853570104
428414,"Správca - Kučerová Nataša, JUDr.",484853570105,Košice,2019-07-07T04:01:41.374Z,,Mlynárska,15,2019-07-07T04:01:41.374Z,ico://sk/484853570105
428415,"Správca - Dobrovolská Viera, JUDr.",484853570106,Michalovce,2019-07-07T04:01:41.378Z,,Ul. Jána Kalinčiaka,6,2019-07-07T04:01:41.378Z,ico://sk/484853570106
428416,"Správca - Sitko Jozef, JUDr. Ing.",484853570231,Humenné,2019-07-07T04:01:41.382Z,,Lipová,1,2019-07-07T04:01:41.382Z,ico://sk/484853570231
428417,"Správca - Mišík Michal, JUDr.",484853570207,Bratislava,2019-07-07T04:01:41.387Z,,Prievozská,4B,2019-07-07T04:01:41.387Z,ico://sk/484853570207
428418,"Správca - Stojka Jaroslav, JUDr.",484853570209,Košice,2019-07-07T04:01:41.391Z,,Werferova,1,2019-07-07T04:01:41.391Z,ico://sk/484853570209
428419,"Správca - Mikuš Marian, Ing.",484853570212,Bratislava,2019-07-07T04:01:41.396Z,,Digital Park II Einsteinova,25,2019-07-07T04:01:41.396Z,ico://sk/484853570212
428420,"Správca - Roderová Katarína, Ing.",484853570213,Trenčín,2019-07-07T04:01:41.403Z,,Piaristická,44,2019-07-07T04:01:41.403Z,ico://sk/484853570213
428421,"Správca - Štrbáňová Gabriela, JUDr. Ing.",484853570214,Púchov,2019-07-07T04:01:41.408Z,,Komenského,49/673,2019-07-07T04:01:41.408Z,ico://sk/484853570214
428422,"Správca - Vavráč František, JUDr.",484853570215,Banská Bystrica,2019-07-07T04:01:41.413Z,,Horná,51,2019-07-07T04:01:41.413Z,ico://sk/484853570215
428423,"Správca - Mudrák Michal, JUDr.",484853570216,Bratislava,2019-07-07T04:01:41.418Z,,Vajnorská,100/A,2019-07-07T04:01:41.418Z,ico://sk/484853570216
428424,"Správca - Gregor Kristián, Ing.",484853570218,Banská Bystrica,2019-07-07T04:01:41.424Z,,Horná,54,2019-07-07T04:01:41.424Z,ico://sk/484853570218
428425,"Správca - Letkovský Marek, Mgr.",484853570219,Bratislava,2019-07-07T04:01:41.429Z,,Legionárska,1/C,2019-07-07T04:01:41.429Z,ico://sk/484853570219
428426,"Správca - Polomský Ján, JUDr.",484853570222,Bratislava,2019-07-07T04:01:41.434Z,,Hlohová,10,2019-07-07T04:01:41.434Z,ico://sk/484853570222
428427,"Správca - Ninčák Ján, JUDr., MBA, PhD.",484853570227,Humenné,2019-07-07T04:01:41.439Z,,Mierová,2529/87,2019-07-07T04:01:41.439Z,ico://sk/484853570227
428434,Obec Orlov,330108,Orlov,2019-07-07T04:01:41.473Z,06543,,,2019-07-07T04:01:41.473Z,ico://sk/00330108_10001
428475,Obec Seč,649074,Seč,2019-07-07T04:01:41.667Z,97226,,,2019-07-07T04:01:41.667Z,ico://sk/00649074_10001
428491,Úrad podpredsedu vlády SR pre investície a informatizáciu - TEST,42156424,,2019-07-07T04:01:41.734Z,85101,Námestie Slobody,1,2019-07-07T04:01:41.734Z,ico://sk/42156424_10035
428517,"Správca - Poláčková Veronika, JUDr., LL.M",48485357,Bratislava,2019-07-07T04:01:41.846Z,,Ivánska cesta,30/B,2019-07-07T04:01:41.846Z,ico://sk/48485357_10001
428524,"Spoločná úradovňa samosprávy, n.o.",45734445,Nové Mesto nad Váhom,2019-07-07T04:01:41.873Z,91501,Hviezdoslavova,36,2019-07-07T04:01:41.873Z,ico://sk/45734445_10001
428525,"Správca - Poláčková Veronika, JUDr., LL.M",48485357,Bratislava,2019-07-07T04:01:41.877Z,,Ivánska cesta,30/B,2019-07-07T04:01:41.877Z,ico://sk/48485357_10002
428603,"Základná škola, Hviezdoslavova 1, Lipany",37876816,Lipany,2019-07-07T04:01:42.195Z,08271,Hviezdoslavova,1,2019-07-07T04:01:42.195Z,ico://sk/37876816
428635,Centrum právnej pomoci - Kancelária Rimavská Sobota,30798841,Bratislava - mestská časť Staré Mesto,2019-07-07T04:01:42.333Z,979 01,Čerenčianská,20,2019-07-07T04:01:42.333Z,ico://sk/30798841_3209
428668,Materská škola Ďurďošík,324124,,2019-07-07T04:01:42.485Z,04445,Ďurďošík,,2019-07-07T04:01:42.485Z,ico://sk/00324124_001
428703,Materská škola Koniarovce,699233,Koniarovce,2019-07-07T04:01:42.620Z,95613,Koniarovce,,2019-07-07T04:01:42.620Z,ico://sk/00699233_10002
428733,"JUDr. Michal Holčík, exekútor",45021767,Zvolen,2019-07-07T04:01:42.745Z,96001,Nám. SNP,27,2019-07-07T04:01:42.745Z,ico://sk/45021767
428854,Obec Holice,305405,Holice,2019-07-07T04:01:43.266Z,93034,,151,2019-07-07T04:01:43.266Z,ico://sk/00305405_10001
428951,PCÚ Rimavská Sobota,42499500,,2019-07-07T04:01:43.701Z,979 01,Francisciho,,2019-07-07T04:01:43.701Z,ico://sk/42499500_10202
429004,Základná škola,331597,Kazimír,2019-07-07T04:01:43.987Z,07613,Hlavná,,2019-07-07T04:01:43.987Z,ico://sk/00331597_1001
429008,Základná škola Krnča,310603,Krnča,2019-07-07T04:01:44.005Z,95619,ulica Sovietskej armády,66,2019-07-07T04:01:44.005Z,ico://sk/00310603_710057432
429017,Detský domov Lastovička,182486,,2019-07-07T04:01:44.046Z,91101,Jilemnického,40,2019-07-07T04:01:44.046Z,ico://sk/00182486_1
429075,Základná škola s materskou školou Rožkovany 190,3794463,Rožkovany,2019-07-07T04:01:44.342Z,08271,Rožkovany,190,2019-07-07T04:01:44.342Z,ico://sk/03794463
429245,"Základná škola internátna pre žiakov s narušenou komunikačnou schopnosťou, Brezolupy 30",17050154,Brezolupy,2019-07-07T04:01:45.061Z,95701,,,2019-07-07T04:01:45.061Z,ico://sk/17050154
429258,"JUDr. Ján Siget, exekútor",40276449,Žilina,2019-07-07T04:01:45.115Z,01001,Antona Bernoláka,,2019-07-07T04:01:45.115Z,ico://sk/40276449
429273,"Základná škola Ferenca Móru s vyučovacím jazykom maďarským, Školská 204, Vrakúň",36094129,Vrakúň,2019-07-07T04:01:45.175Z,93025,Školská,204,2019-07-07T04:01:45.175Z,ico://sk/36094129
429280,Test OJ_2_217,99187690,,2019-07-07T04:01:45.204Z,,,,2019-07-07T04:01:45.204Z,ico://sk/99187690_10001
429335,"JUDr. Ondrej Ďuriač, notár",50679743,Bratislava - mestská časť Staré Mesto,2019-07-07T04:01:45.438Z,81108,Rajská,,2019-07-07T04:01:45.438Z,ico://sk/50679743
429398,"Materská škola - Óvoda, Zádielska 1206/4, Košice",42245265,Košice - mestská časť Staré Mesto,2019-07-07T04:01:45.715Z,04001,Zádielska,4,2019-07-07T04:01:45.715Z,ico://sk/42245265x
429399,"Základná škola, Mirka Nešpora 4887/2, Prešov",37877216,Prešov,2019-07-07T04:01:45.720Z,08001,Mirka Nešpora,2,2019-07-07T04:01:45.720Z,ico://sk/37877216x
429400,"Stredná priemyselná škola, Partizánska 1059/23, Snina",161721,Snina,2019-07-07T04:01:45.727Z,06901,Partizánska,23,2019-07-07T04:01:45.727Z,ico://sk/00161721x
429401,"Základná škola v Giraltovciach, Budovateľská 164/4, Giraltovce",36158356,Giraltovce,2019-07-07T04:01:45.732Z,08701,Budovateľská,4,2019-07-07T04:01:45.732Z,ico://sk/36158356x
429403,"Základná škola s materskou školou, Lakšárska Nová Ves 397",37837117,Lakšárska Nová Ves,2019-07-07T04:01:45.742Z,90876,Lakšárska Nová Ves,397,2019-07-07T04:01:45.742Z,ico://sk/37837117x
429414,Obec Hodejov,318752,Hodejov,2019-07-07T04:01:45.799Z,98031,,141,2019-07-07T04:01:45.799Z,ico://sk/00318752_10001
429417,Obec Vladiča,331171,Vladiča,2019-07-07T04:01:45.812Z,09023,,16,2019-07-07T04:01:45.812Z,ico://sk/00331171_10001
429432,Základná škola Žabokreky,317047,,2019-07-07T04:01:45.892Z,03840,Žabokreky,Žabokreky 54,2019-07-07T04:01:45.892Z,ico://sk/00317047_10002
429441,Obec Zalaba,587648,Zalaba,2019-07-07T04:01:45.930Z,93701,,84,2019-07-07T04:01:45.930Z,ico://sk/00587648_10001
429476,"Ministerstvo obrany SR, Vojenská polícia",30845572,,2019-07-07T04:01:46.076Z,91101,Železničná,,2019-07-07T04:01:46.076Z,ico://sk/30845572_10002
429498,"Materská škola, Školská 75/7, Lúčivná",37876473,Lučivná,2019-07-07T04:01:46.167Z,05931,Školská,7,2019-07-07T04:01:46.167Z,ico://sk/37876473_1999
429572,"Súkromná základná umelecká škola, Hubošovce 56",42232149,Hubošovce,2019-07-07T04:01:46.862Z,08266,Hubošovce,56,2019-07-07T04:01:46.862Z,ico://sk/42232149
429586,Neurobiologický ústav Slovenskej akadémie vied,166880,Košice - mestská časť Juh,2019-07-07T04:01:46.932Z,04001,Šoltésovej,4-6,2019-07-07T04:01:46.932Z,ico://sk/00166880
429639,Ministerstvo vnútra SR,151866,,2019-07-07T04:01:47.184Z,,,,2019-07-07T04:01:47.184Z,ico://sk/00151866_19001
429682,PRIVATE CAPITAL INVESTMENTS LIMITED,9252000,Manchester,2019-07-07T04:01:47.395Z,M1 2JQ,Ducie Street,83,2019-07-07T04:01:47.395Z,ico://sk/09252000_10001
429699,"JUDr. Anna Dírerová, exekútor",50633830,,2019-07-07T04:01:47.486Z,81109,Gajova,7,2019-07-07T04:01:47.486Z,ico://sk/50633830
429899,"Základná škola, Ivana Krasku 1, Trebišov",3554109,Trebišov,2019-07-07T04:01:48.533Z,,Ivana Krasku,1,2019-07-07T04:01:48.533Z,ico://sk/03554109
429944,Obec Selice,306151,Selice,2019-07-07T04:01:48.737Z,92572,Sov.armády,,2019-07-07T04:01:48.737Z,ico://sk/00306151_10001
429965,Základná škola Krnča,310603,Krnča,2019-07-07T04:01:48.834Z,95619,ulica Sovietskej armády,66,2019-07-07T04:01:48.834Z,ico://sk/00310603_710057433
429987,Materská škola Žabokreky,317047,Žabokreky,2019-07-07T04:01:48.940Z,03840,Žabokreky,,2019-07-07T04:01:48.940Z,ico://sk/00317047_10001
430262,"Združenie rodičov Spoločnej nemecko-slovenskej školy, Palisády 101730/51 Bratislava",36076082,Bratislava - mestská časť Staré Mesto,2019-07-07T04:01:50.413Z,81106,Palisády,51,2019-07-07T04:01:50.413Z,ico://sk/36076082_10001
430431,"Súkromná základná škola, Magurská 16, Banská Bystrica",45015325,Banská Bystrica,2019-07-07T04:01:51.281Z,97411,Magurská,16,2019-07-07T04:01:51.281Z,ico://sk/45015325
430591,"Mgr. Richard Koiš, MBA, advokát",42067286,Ružomberok,2019-07-07T04:01:52.221Z,03401,Štiavnická,7,2019-07-07T04:01:52.221Z,ico://sk/42067286_10001
430599,"JUDr. Marian Mikl, notár",50645978,Martin,2019-07-07T04:01:52.284Z,,Andreja Kmeťa,,2019-07-07T04:01:52.284Z,ico://sk/50645978
430618,Obec Hronská Breznica,319970,Hronská Breznica,2019-07-07T04:01:52.371Z,96611,Hronská Breznica,,2019-07-07T04:01:52.371Z,ico://sk/00319970_10001
430667,Test_OJ_15_2_17,99187690,,2019-07-07T04:01:52.720Z,,,,2019-07-07T04:01:52.720Z,ico://sk/99187690_10002
430668,Notársky úrad JUDr. Gabriely Rehákovej,50645994,Nitra,2019-07-07T04:01:52.725Z,94901,Štefánikova trieda,6,2019-07-07T04:01:52.725Z,ico://sk/50645994
430724,Technické služby mesta Humenné,186155,Humenné,2019-07-07T04:01:53.056Z,06601,Sninská,27,2019-07-07T04:01:53.056Z,ico://sk/00186155_19999
430725,"Domov dôchodcov, Štúrova 33, Detva",37830571,Detva,2019-07-07T04:01:53.061Z,96212,Štúrova,33,2019-07-07T04:01:53.061Z,ico://sk/37830571_10001
430801,"Základná škola Internátna pre žiakov s narušenou komunikačnou schopnosťou, Vlastenecké nám. 1, Bratislava",31746578,,2019-07-07T04:01:53.460Z,,,,2019-07-07T04:01:53.460Z,ico://sk/31746578
430805,Občianske združenie pri ZŠ v Košťanoch nad Turcom,42062179,Košťany nad Turcom,2019-07-07T04:01:53.477Z,03841,Ostrovná,1,2019-07-07T04:01:53.477Z,ico://sk/42062179_10001
